{"type":"FeatureCollection","source":"OpenStreetMap (ODbL)","area":"Barak Valley (Sribhumi, Cachar, Hailakandi)","features":[{"type":"Feature","properties":{"kind":"boat"},"geometry":{"type":"Point","coordinates":[93.02319,24.23579]}},{"type":"Feature","properties":{"kind":"health","name":"Jaintapur Upazila Health Complex"},"geometry":{"type":"Point","coordinates":[92.12658,25.13617]}},{"type":"Feature","properties":{"kind":"health","name":"Kanaighat Upazila Health Complex"},"geometry":{"type":"Point","coordinates":[92.25586,25.01206]}},{"type":"Feature","properties":{"kind":"health","name":"Barlekha Upazila Health Complex"},"geometry":{"type":"Point","coordinates":[92.18486,24.69388]}},{"type":"Feature","properties":{"kind":"health","name":"Golabganj Upazila Health Complex"},"geometry":{"type":"Point","coordinates":[92.02916,24.83213]}},{"type":"Feature","properties":{"kind":"health","name":"Zakiganj Upazila Health Complex"},"geometry":{"type":"Point","coordinates":[92.36423,24.88428]}},{"type":"Feature","properties":{"kind":"health","name":"Kulaura Upazila Health Complex"},"geometry":{"type":"Point","coordinates":[92.0385,24.52797]}},{"type":"Feature","properties":{"kind":"shelter","name":"Earl Higher Secondary School"},"geometry":{"type":"Point","coordinates":[93.00341,24.79294]}},{"type":"Feature","properties":{"kind":"shelter","name":"Beneson English School"},"geometry":{"type":"Point","coordinates":[93.00462,24.79457]}},{"type":"Feature","properties":{"kind":"shelter","name":"Girls High School"},"geometry":{"type":"Point","coordinates":[93.00081,24.79392]}},{"type":"Feature","properties":{"kind":"shelter","name":"LP School"},"geometry":{"type":"Point","coordinates":[93.00321,24.79266]}},{"type":"Feature","properties":{"kind":"police","name":"Police Station"},"geometry":{"type":"Point","coordinates":[93.00287,24.79231]}},{"type":"Feature","properties":{"kind":"shelter","name":"Riverdale English School"},"geometry":{"type":"Point","coordinates":[93.00773,24.79211]}},{"type":"Feature","properties":{"kind":"shelter","name":"Asapalli English School"},"geometry":{"type":"Point","coordinates":[93.02492,24.78972]}},{"type":"Feature","properties":{"kind":"shelter","name":"Asapalli Boys Hostel"},"geometry":{"type":"Point","coordinates":[93.02508,24.79079]}},{"type":"Feature","properties":{"kind":"shelter","name":"Asapalli Girls Hostel"},"geometry":{"type":"Point","coordinates":[93.02519,24.79035]}},{"type":"Feature","properties":{"kind":"shelter","name":"Douglas English School"},"geometry":{"type":"Point","coordinates":[93.02104,24.79035]}},{"type":"Feature","properties":{"kind":"shelter","name":"FULERTAL PUBLIC HIGH SCHOOL"},"geometry":{"type":"Point","coordinates":[93.02151,24.792]}},{"type":"Feature","properties":{"kind":"shelter","name":"P.M.S. English School"},"geometry":{"type":"Point","coordinates":[93.02599,24.78911]}},{"type":"Feature","properties":{"kind":"shelter","name":"Union English High SCHOOL"},"geometry":{"type":"Point","coordinates":[93.02766,24.79028]}},{"type":"Feature","properties":{"kind":"shelter","name":"Christos Hostel"},"geometry":{"type":"Point","coordinates":[93.02975,24.79379]}},{"type":"Feature","properties":{"kind":"shelter","name":"Northeast Academy English School"},"geometry":{"type":"Point","coordinates":[93.0159,24.79082]}},{"type":"Feature","properties":{"kind":"shelter","name":"L.P School"},"geometry":{"type":"Point","coordinates":[93.01623,24.79043]}},{"type":"Feature","properties":{"kind":"fire","name":"Fire Brigade"},"geometry":{"type":"Point","coordinates":[93.00261,24.79256]}},{"type":"Feature","properties":{"kind":"shelter","name":"Lakhipur Junior College"},"geometry":{"type":"Point","coordinates":[93.01845,24.79225]}},{"type":"Feature","properties":{"kind":"shelter","name":"High School"},"geometry":{"type":"Point","coordinates":[93.01812,24.79133]}},{"type":"Feature","properties":{"kind":"shelter","name":"Nehru College"},"geometry":{"type":"Point","coordinates":[93.03385,24.83114]}},{"type":"Feature","properties":{"kind":"shelter","name":"Jawahar Navodaya Vidyalaya"},"geometry":{"type":"Point","coordinates":[93.02969,24.83485]}},{"type":"Feature","properties":{"kind":"shelter","name":"Nehru High School"},"geometry":{"type":"Point","coordinates":[93.02332,24.8312]}},{"type":"Feature","properties":{"kind":"shelter","name":"Brilliant English School, Pailapool"},"geometry":{"type":"Point","coordinates":[93.02456,24.82989]}},{"type":"Feature","properties":{"kind":"shelter","name":"LP School"},"geometry":{"type":"Point","coordinates":[93.02325,24.8302]}},{"type":"Feature","properties":{"kind":"health","name":"Emanuel Hospital, Pailapool"},"geometry":{"type":"Point","coordinates":[93.01531,24.8245]}},{"type":"Feature","properties":{"kind":"shelter","name":"Emmanuel English High School"},"geometry":{"type":"Point","coordinates":[93.01981,24.82506]}},{"type":"Feature","properties":{"kind":"boat"},"geometry":{"type":"Point","coordinates":[92.81347,24.84529]}},{"type":"Feature","properties":{"kind":"health","name":"Mawsumi Hospital"},"geometry":{"type":"Point","coordinates":[92.80026,24.83185]}},{"type":"Feature","properties":{"kind":"health","name":"Valley Hospital"},"geometry":{"type":"Point","coordinates":[92.79583,24.78328]}},{"type":"Feature","properties":{"kind":"health","name":"South City Hospital, Cachar"},"geometry":{"type":"Point","coordinates":[92.79558,24.7856]}},{"type":"Feature","properties":{"kind":"health","name":"Nightingale Hospital"},"geometry":{"type":"Point","coordinates":[92.79287,24.79367]}},{"type":"Feature","properties":{"kind":"health","name":"Medinova"},"geometry":{"type":"Point","coordinates":[92.79124,24.79217]}},{"type":"Feature","properties":{"kind":"police","name":"Rangirkhari Police Outpost"},"geometry":{"type":"Point","coordinates":[92.80041,24.80567]}},{"type":"Feature","properties":{"kind":"police","name":"Ghungoor Police Outpost"},"geometry":{"type":"Point","coordinates":[92.79393,24.77909]}},{"type":"Feature","properties":{"kind":"police","name":"Malugram Police Outpost"},"geometry":{"type":"Point","coordinates":[92.80746,24.83978]}},{"type":"Feature","properties":{"kind":"shelter","name":"Cachar College"},"geometry":{"type":"Point","coordinates":[92.79937,24.83158]}},{"type":"Feature","properties":{"kind":"shelter","name":"Collegiate School"},"geometry":{"type":"Point","coordinates":[92.79143,24.82328]}},{"type":"Feature","properties":{"kind":"fire","name":"Beanibazar Fire Station"},"geometry":{"type":"Point","coordinates":[92.16145,24.83531]}},{"type":"Feature","properties":{"kind":"boat","name":"Bohor Gram Ferry Port"},"geometry":{"type":"Point","coordinates":[92.08202,24.83746]}},{"type":"Feature","properties":{"kind":"boat","name":"Shikpur Ferry Port"},"geometry":{"type":"Point","coordinates":[92.08106,24.83843]}},{"type":"Feature","properties":{"kind":"shelter","name":"The New Generation Ideal High School"},"geometry":{"type":"Point","coordinates":[92.12,24.83445]}},{"type":"Feature","properties":{"kind":"health","name":"Beanibazar Cancer Hospital"},"geometry":{"type":"Point","coordinates":[92.15027,24.82218]}},{"type":"Feature","properties":{"kind":"shelter","name":"Horipur Government Primary School"},"geometry":{"type":"Point","coordinates":[92.04377,24.99205]}},{"type":"Feature","properties":{"kind":"police","name":"Tamabil Land Customs station 「Foreigners paying attention to"},"geometry":{"type":"Point","coordinates":[92.03194,25.18327]}},{"type":"Feature","properties":{"kind":"police","name":"Tamabill Immigration Check Post"},"geometry":{"type":"Point","coordinates":[92.03238,25.18306]}},{"type":"Feature","properties":{"kind":"health","name":"Brijondernagar"},"geometry":{"type":"Point","coordinates":[92.15888,24.48388]}},{"type":"Feature","properties":{"kind":"shelter","name":"Children's Training School"},"geometry":{"type":"Point","coordinates":[93.03439,24.21308]}},{"type":"Feature","properties":{"kind":"health","name":"Sipuikawn PHSC"},"geometry":{"type":"Point","coordinates":[93.03472,24.2125]}},{"type":"Feature","properties":{"kind":"health","name":"50 bed Hospital"},"geometry":{"type":"Point","coordinates":[93.14335,24.77815]}},{"type":"Feature","properties":{"kind":"health","name":"Kanchanpur Sub-divisional Hospital"},"geometry":{"type":"Point","coordinates":[92.19857,24.0397]}},{"type":"Feature","properties":{"kind":"health","name":"Rajib Gandhi Memorial Hospital"},"geometry":{"type":"Point","coordinates":[92.00252,24.31802]}},{"type":"Feature","properties":{"kind":"health","name":"Mahanam Seva Sadan"},"geometry":{"type":"Point","coordinates":[92.16018,24.39005]}},{"type":"Feature","properties":{"kind":"health","name":"Kumarghat Rural Hospital (CHC)"},"geometry":{"type":"Point","coordinates":[92.03259,24.16768]}},{"type":"Feature","properties":{"kind":"health","name":"Dharmanagar Sub-divisional Hospital"},"geometry":{"type":"Point","coordinates":[92.15903,24.39037]}},{"type":"Feature","properties":{"kind":"health","name":"Khliehriat CHC"},"geometry":{"type":"Point","coordinates":[92.36816,25.35997]}},{"type":"Feature","properties":{"kind":"health","name":"Nongtalang, CHC"},"geometry":{"type":"Point","coordinates":[92.0668,25.20975]}},{"type":"Feature","properties":{"kind":"health","name":"Nazareth Hospital, Kolasib"},"geometry":{"type":"Point","coordinates":[92.67408,24.2335]}},{"type":"Feature","properties":{"kind":"health","name":"PHC, Bairabi"},"geometry":{"type":"Point","coordinates":[92.53771,24.18656]}},{"type":"Feature","properties":{"kind":"health","name":"CHC, Vairengte"},"geometry":{"type":"Point","coordinates":[92.76649,24.508]}},{"type":"Feature","properties":{"kind":"health","name":"District Hospital,Kolasib"},"geometry":{"type":"Point","coordinates":[92.67662,24.2314]}},{"type":"Feature","properties":{"kind":"health","name":"PHC, Zawlnuam"},"geometry":{"type":"Point","coordinates":[92.33207,24.1335]}},{"type":"Feature","properties":{"kind":"health","name":"CHC, Sakawrdai"},"geometry":{"type":"Point","coordinates":[92.95227,24.22619]}},{"type":"Feature","properties":{"kind":"health","name":"PHC, Darlawn"},"geometry":{"type":"Point","coordinates":[92.92312,24.00624]}},{"type":"Feature","properties":{"kind":"health","name":"PHC, Kanhmun"},"geometry":{"type":"Point","coordinates":[92.29621,24.23867]}},{"type":"Feature","properties":{"kind":"health","name":"PHC, Bukpui"},"geometry":{"type":"Point","coordinates":[92.79344,24.08185]}},{"type":"Feature","properties":{"kind":"health","name":"R . E. Nursing Home and Diagnostic"},"geometry":{"type":"Point","coordinates":[92.79324,24.77859]}},{"type":"Feature","properties":{"kind":"health","name":"Kay Cee Clinic and Nursing Home"},"geometry":{"type":"Point","coordinates":[92.80165,24.82593]}},{"type":"Feature","properties":{"kind":"health","name":"Lions Eye Hospital, Cachar"},"geometry":{"type":"Point","coordinates":[92.79301,24.82903]}},{"type":"Feature","properties":{"kind":"health","name":"Life Line Hospital, Cachar"},"geometry":{"type":"Point","coordinates":[92.79507,24.80787]}},{"type":"Feature","properties":{"kind":"police","name":"Check post - foreigners registration"},"geometry":{"type":"Point","coordinates":[93.11176,24.80761]}},{"type":"Feature","properties":{"kind":"health","name":"Thanlon PHC"},"geometry":{"type":"Point","coordinates":[93.28349,24.26221]}},{"type":"Feature","properties":{"kind":"health","name":"Senvon PHC"},"geometry":{"type":"Point","coordinates":[93.04792,24.1429]}},{"type":"Feature","properties":{"kind":"health","name":"Jiribam CHC"},"geometry":{"type":"Point","coordinates":[93.11425,24.80722]}},{"type":"Feature","properties":{"kind":"health","name":"PHC Oinamlong"},"geometry":{"type":"Point","coordinates":[93.26786,24.74255]}},{"type":"Feature","properties":{"kind":"health","name":"Parbung district Hospital"},"geometry":{"type":"Point","coordinates":[93.10668,24.25712]}},{"type":"Feature","properties":{"kind":"health","name":"Darlawn"},"geometry":{"type":"Point","coordinates":[92.92318,24.00625]}},{"type":"Feature","properties":{"kind":"health","name":"PHC,Kawnpui"},"geometry":{"type":"Point","coordinates":[92.67238,24.03824]}},{"type":"Feature","properties":{"kind":"health","name":"Mimbung,PHC"},"geometry":{"type":"Point","coordinates":[93.28604,24.00045]}},{"type":"Feature","properties":{"kind":"health","name":"Bilkhawthlir,PHC"},"geometry":{"type":"Point","coordinates":[92.71182,24.32764]}},{"type":"Feature","properties":{"kind":"health","name":"Machmara, PHC"},"geometry":{"type":"Point","coordinates":[92.13059,24.13149]}},{"type":"Feature","properties":{"kind":"health","name":"Pecharthal Hospital"},"geometry":{"type":"Point","coordinates":[92.10425,24.19033]}},{"type":"Feature","properties":{"kind":"health","name":"Sanicherra, PHC"},"geometry":{"type":"Point","coordinates":[92.23093,24.3785]}},{"type":"Feature","properties":{"kind":"health","name":"District Hospital, Unakoti"},"geometry":{"type":"Point","coordinates":[92.03335,24.30463]}},{"type":"Feature","properties":{"kind":"health","name":"Fatikroy, PHC"},"geometry":{"type":"Point","coordinates":[92.02138,24.17762]}},{"type":"Feature","properties":{"kind":"health","name":"Shamrurpar, PHC"},"geometry":{"type":"Point","coordinates":[92.00531,24.3297]}},{"type":"Feature","properties":{"kind":"health","name":"Bungnung, PHC"},"geometry":{"type":"Point","coordinates":[92.11826,24.36978]}},{"type":"Feature","properties":{"kind":"health","name":"Dharmanagar District Hospital"},"geometry":{"type":"Point","coordinates":[92.15774,24.38992]}},{"type":"Feature","properties":{"kind":"health","name":"Panisagar, CHC"},"geometry":{"type":"Point","coordinates":[92.15438,24.26714]}},{"type":"Feature","properties":{"kind":"health","name":"Kadamtala, CHC"},"geometry":{"type":"Point","coordinates":[92.21162,24.45653]}},{"type":"Feature","properties":{"kind":"health","name":"Uptakhali, PHC"},"geometry":{"type":"Point","coordinates":[92.1771,24.322]}},{"type":"Feature","properties":{"kind":"health","name":"Jampui, PHC"},"geometry":{"type":"Point","coordinates":[92.27873,24.00215]}},{"type":"Feature","properties":{"kind":"health","name":"Khedacherra, PHC"},"geometry":{"type":"Point","coordinates":[92.32533,24.09887]}},{"type":"Feature","properties":{"kind":"police","name":"Badarpur Police Station"},"geometry":{"type":"Point","coordinates":[92.55703,24.8696]}},{"type":"Feature","properties":{"kind":"health","name":"Shangpung, PHC"},"geometry":{"type":"Point","coordinates":[92.35383,25.47529]}},{"type":"Feature","properties":{"kind":"health","name":"Dr. Norman Tunnel Hospital"},"geometry":{"type":"Point","coordinates":[92.1989,25.44401]}},{"type":"Feature","properties":{"kind":"health","name":"Laskein, CHC"},"geometry":{"type":"Point","coordinates":[92.41147,25.51612]}},{"type":"Feature","properties":{"kind":"health","name":"Iooksi, PHC"},"geometry":{"type":"Point","coordinates":[92.58122,25.51069]}},{"type":"Feature","properties":{"kind":"health","name":"Khliehtyrshi, PHC"},"geometry":{"type":"Point","coordinates":[92.17655,25.47595]}},{"type":"Feature","properties":{"kind":"health","name":"Diengpasoh, PHC"},"geometry":{"type":"Point","coordinates":[92.03923,25.59789]}},{"type":"Feature","properties":{"kind":"health","name":"Umkiang, PHC"},"geometry":{"type":"Point","coordinates":[92.38463,25.06228]}},{"type":"Feature","properties":{"kind":"health","name":"Rymbai, PHC"},"geometry":{"type":"Point","coordinates":[92.32852,25.33884]}},{"type":"Feature","properties":{"kind":"health","name":"Wapung, PHC"},"geometry":{"type":"Point","coordinates":[92.31432,25.40912]}},{"type":"Feature","properties":{"kind":"health","name":"Nongtalang, CHC"},"geometry":{"type":"Point","coordinates":[92.05937,25.21106]}},{"type":"Feature","properties":{"kind":"health","name":"Lumshnong, PHC"},"geometry":{"type":"Point","coordinates":[92.37667,25.18398]}},{"type":"Feature","properties":{"kind":"health","name":"Jowai Civil Hospital"},"geometry":{"type":"Point","coordinates":[92.26099,25.46795]}},{"type":"Feature","properties":{"kind":"health","name":"Pdengshkap, PHC"},"geometry":{"type":"Point","coordinates":[92.14962,25.23323]}},{"type":"Feature","properties":{"kind":"health","name":"Jarain, PHC"},"geometry":{"type":"Point","coordinates":[92.1335,25.32097]}},{"type":"Feature","properties":{"kind":"health","name":"Dawki, PHC"},"geometry":{"type":"Point","coordinates":[92.02037,25.18992]}},{"type":"Feature","properties":{"kind":"health","name":"Nartiang, PHC"},"geometry":{"type":"Point","coordinates":[92.22256,25.57578]}},{"type":"Feature","properties":{"kind":"health","name":"Sutnga, CHC"},"geometry":{"type":"Point","coordinates":[92.43324,25.3734]}},{"type":"Feature","properties":{"kind":"health","name":"Bataw, PHC"},"geometry":{"type":"Point","coordinates":[92.2491,25.2301]}},{"type":"Feature","properties":{"kind":"health","name":"Ummulong, CHC"},"geometry":{"type":"Point","coordinates":[92.15674,25.51572]}},{"type":"Feature","properties":{"kind":"health","name":"Mawryngkneng, PHC"},"geometry":{"type":"Point","coordinates":[92.0533,25.55047]}},{"type":"Feature","properties":{"kind":"health","name":"Sahsniang, PHC"},"geometry":{"type":"Point","coordinates":[92.51807,25.5551]}},{"type":"Feature","properties":{"kind":"health","name":"Jatah, PHC"},"geometry":{"type":"Point","coordinates":[92.0523,25.40413]}},{"type":"Feature","properties":{"kind":"health","name":"Sub Health Center ,South Padmabil"},"geometry":{"type":"Point","coordinates":[92.18817,24.28872]}},{"type":"Feature","properties":{"kind":"health","name":"Sub Centre, Khowrabill"},"geometry":{"type":"Point","coordinates":[92.01533,24.38081]}},{"type":"Feature","properties":{"kind":"health","name":"Health Sub Centre ,North Padmabill"},"geometry":{"type":"Point","coordinates":[92.19813,24.30399]}},{"type":"Feature","properties":{"kind":"health","name":"Sub Centre, Monacherra"},"geometry":{"type":"Point","coordinates":[92.32113,24.12334]}},{"type":"Feature","properties":{"kind":"health","name":"Sub Centre, Jalai"},"geometry":{"type":"Point","coordinates":[92.03779,24.25962]}},{"type":"Feature","properties":{"kind":"health","name":"Health Sub centre ,Joymoni para"},"geometry":{"type":"Point","coordinates":[92.15034,24.07067]}},{"type":"Feature","properties":{"kind":"health","name":"Health Sub Centre ,Betchhara"},"geometry":{"type":"Point","coordinates":[92.00641,24.11526]}},{"type":"Feature","properties":{"kind":"health","name":"Sub Centre, Thangrain"},"geometry":{"type":"Point","coordinates":[92.41654,25.57136]}},{"type":"Feature","properties":{"kind":"health","name":"Sub Centre, Sohkymphor"},"geometry":{"type":"Point","coordinates":[92.36922,25.42371]}},{"type":"Feature","properties":{"kind":"health","name":"Sub Centre, Trangblang"},"geometry":{"type":"Point","coordinates":[92.20701,25.20339]}},{"type":"Feature","properties":{"kind":"health","name":"Mini PHC, Chibitabichia"},"geometry":{"type":"Point","coordinates":[92.67161,24.75076]}},{"type":"Feature","properties":{"kind":"health","name":"Mini PHC, Kaliganj"},"geometry":{"type":"Point","coordinates":[92.41234,24.78955]}},{"type":"Feature","properties":{"kind":"health","name":"PHC, Kalinager"},"geometry":{"type":"Point","coordinates":[92.62806,24.84825]}},{"type":"Feature","properties":{"kind":"health","name":"State Dispensary, Maizgram"},"geometry":{"type":"Point","coordinates":[92.3112,24.84343]}},{"type":"Feature","properties":{"kind":"health","name":"Joypur Government Hospital"},"geometry":{"type":"Point","coordinates":[93.06376,24.88218]}},{"type":"Feature","properties":{"kind":"health","name":"F.R.U, Kalain"},"geometry":{"type":"Point","coordinates":[92.57301,24.96842]}},{"type":"Feature","properties":{"kind":"health","name":"BPHC, Udharbond"},"geometry":{"type":"Point","coordinates":[92.88559,24.88749]}},{"type":"Feature","properties":{"kind":"health","name":"SHC, Bazaricherra"},"geometry":{"type":"Point","coordinates":[92.31672,24.43435]}},{"type":"Feature","properties":{"kind":"health","name":"State Dispensary,Nityanandpur"},"geometry":{"type":"Point","coordinates":[92.59825,24.61337]}},{"type":"Feature","properties":{"kind":"health","name":"CHC, Lala"},"geometry":{"type":"Point","coordinates":[92.60414,24.55539]}},{"type":"Feature","properties":{"kind":"health","name":"PHC, Harina"},"geometry":{"type":"Point","coordinates":[92.93412,24.64048]}},{"type":"Feature","properties":{"kind":"health","name":"PHC, Algapur"},"geometry":{"type":"Point","coordinates":[92.59379,24.76153]}},{"type":"Feature","properties":{"kind":"health","name":"SHC, Sonabarighat"},"geometry":{"type":"Point","coordinates":[92.83407,24.75605]}},{"type":"Feature","properties":{"kind":"health","name":"NPHC, Chiporsangan"},"geometry":{"type":"Point","coordinates":[92.59264,24.8054]}},{"type":"Feature","properties":{"kind":"health","name":"Mahakal TC (PHC)"},"geometry":{"type":"Point","coordinates":[92.49274,24.84958]}},{"type":"Feature","properties":{"kind":"health","name":"Kachuadam MG Model Hospital"},"geometry":{"type":"Point","coordinates":[92.43217,24.82285]}},{"type":"Feature","properties":{"kind":"health","name":"Girishganj Model Hospital"},"geometry":{"type":"Point","coordinates":[92.3098,24.88309]}},{"type":"Feature","properties":{"kind":"health","name":"Bhanga Health centre"},"geometry":{"type":"Point","coordinates":[92.47613,24.86496]}},{"type":"Feature","properties":{"kind":"health","name":"BPHC, Harinagar"},"geometry":{"type":"Point","coordinates":[93.11365,24.91931]}},{"type":"Feature","properties":{"kind":"health","name":"Gharmura FV PHC"},"geometry":{"type":"Point","coordinates":[92.52125,24.27716]}},{"type":"Feature","properties":{"kind":"health","name":"CHC, Maibang"},"geometry":{"type":"Point","coordinates":[93.13676,25.29785]}},{"type":"Feature","properties":{"kind":"health","name":"Patherkandi MG Model Hospital"},"geometry":{"type":"Point","coordinates":[92.34119,24.5841]}},{"type":"Feature","properties":{"kind":"health","name":"PHC, R. K. Nagar"},"geometry":{"type":"Point","coordinates":[92.4632,24.56872]}},{"type":"Feature","properties":{"kind":"health","name":"Mini PHC, Narsingpur"},"geometry":{"type":"Point","coordinates":[92.84488,24.68378]}},{"type":"Feature","properties":{"kind":"health","name":"Mini PHC, Adarkona"},"geometry":{"type":"Point","coordinates":[92.52227,24.76164]}},{"type":"Feature","properties":{"kind":"health","name":"CHC, Mohanpur"},"geometry":{"type":"Point","coordinates":[92.62672,24.74247]}},{"type":"Feature","properties":{"kind":"health","name":"Jirighat Hospital"},"geometry":{"type":"Point","coordinates":[93.10589,24.80995]}},{"type":"Feature","properties":{"kind":"health","name":"BPHC, Lakhipur"},"geometry":{"type":"Point","coordinates":[92.99889,24.79253]}},{"type":"Feature","properties":{"kind":"health","name":"Salchapra Hospital"},"geometry":{"type":"Point","coordinates":[92.66217,24.82425]}},{"type":"Feature","properties":{"kind":"health","name":"PHC, Badarpur"},"geometry":{"type":"Point","coordinates":[92.55535,24.87001]}},{"type":"Feature","properties":{"kind":"health","name":"State Dispensary, Gonirgram"},"geometry":{"type":"Point","coordinates":[92.69662,24.86995]}},{"type":"Feature","properties":{"kind":"health","name":"BPHC, Jalalpur"},"geometry":{"type":"Point","coordinates":[92.45746,24.99175]}},{"type":"Feature","properties":{"kind":"health","name":"SHC, Hazaidisa"},"geometry":{"type":"Point","coordinates":[93.29592,25.37986]}},{"type":"Feature","properties":{"kind":"health","name":"PHC,Katlicherra"},"geometry":{"type":"Point","coordinates":[92.552,24.47239]}},{"type":"Feature","properties":{"kind":"health","name":"PHC, Harangajao"},"geometry":{"type":"Point","coordinates":[92.85466,25.11479]}},{"type":"Feature","properties":{"kind":"health","name":"BPHC, Dholai"},"geometry":{"type":"Point","coordinates":[92.84083,24.58911]}},{"type":"Feature","properties":{"kind":"health","name":"Vernerpur T.E. Hospital"},"geometry":{"type":"Point","coordinates":[92.61409,24.51636]}},{"type":"Feature","properties":{"kind":"health","name":"BPHC,Sonai"},"geometry":{"type":"Point","coordinates":[92.88961,24.73259]}},{"type":"Feature","properties":{"kind":"health","name":"Matijuri health centre"},"geometry":{"type":"Point","coordinates":[92.61268,24.64735]}},{"type":"Feature","properties":{"kind":"health","name":"PHC, Nilambazar"},"geometry":{"type":"Point","coordinates":[92.35004,24.74495]}},{"type":"Feature","properties":{"kind":"health","name":"SHC, Digar Fulertal"},"geometry":{"type":"Point","coordinates":[93.0311,24.79269]}},{"type":"Feature","properties":{"kind":"health","name":"SHC, Dasgram"},"geometry":{"type":"Point","coordinates":[92.27916,24.85148]}},{"type":"Feature","properties":{"kind":"health","name":"KATIGORAH MODEL HOSPITAL"},"geometry":{"type":"Point","coordinates":[92.57303,24.87665]}},{"type":"Feature","properties":{"kind":"health","name":"Mini PHC, Rajnagar"},"geometry":{"type":"Point","coordinates":[92.69791,24.85749]}},{"type":"Feature","properties":{"kind":"health","name":"SHC, Boro Arkap"},"geometry":{"type":"Point","coordinates":[93.19174,25.03279]}},{"type":"Feature","properties":{"kind":"health","name":"BPHC, Borkhola"},"geometry":{"type":"Point","coordinates":[92.74746,24.92587]}},{"type":"Feature","properties":{"kind":"health","name":"PHC, Tilbhum"},"geometry":{"type":"Point","coordinates":[92.26753,24.4876]}},{"type":"Feature","properties":{"kind":"health","name":"State Dispensary, Jatinga"},"geometry":{"type":"Point","coordinates":[93.01757,25.1327]}},{"type":"Feature","properties":{"kind":"health","name":"State Dispensary, Jamira"},"geometry":{"type":"Point","coordinates":[92.52681,24.31886]}},{"type":"Feature","properties":{"kind":"health","name":"Mini PHC, Belaipur"},"geometry":{"type":"Point","coordinates":[92.73349,24.52434]}},{"type":"Feature","properties":{"kind":"health","name":"Mini PHC, Borjalenga"},"geometry":{"type":"Point","coordinates":[92.73966,24.67598]}},{"type":"Feature","properties":{"kind":"health","name":"Civil Hospital, Hailakandi"},"geometry":{"type":"Point","coordinates":[92.56324,24.67183]}},{"type":"Feature","properties":{"kind":"health","name":"State Dispensary, Monosangan"},"geometry":{"type":"Point","coordinates":[92.48772,24.76375]}},{"type":"Feature","properties":{"kind":"health","name":"Mini PHC, Banskandi"},"geometry":{"type":"Point","coordinates":[92.90983,24.80229]}},{"type":"Feature","properties":{"kind":"health","name":"NPHC, Narainpur"},"geometry":{"type":"Point","coordinates":[92.64196,24.78221]}},{"type":"Feature","properties":{"kind":"health","name":"Mini PHC, Fulbari"},"geometry":{"type":"Point","coordinates":[92.65214,24.85621]}},{"type":"Feature","properties":{"kind":"health","name":"Srigouri, CHC"},"geometry":{"type":"Point","coordinates":[92.52042,24.86162]}},{"type":"Feature","properties":{"kind":"health","name":"Thaligram Hospital"},"geometry":{"type":"Point","coordinates":[92.92875,24.94471]}},{"type":"Feature","properties":{"kind":"health","name":"BPHC, Bikrampur"},"geometry":{"type":"Point","coordinates":[92.66585,24.93842]}},{"type":"Feature","properties":{"kind":"health","name":"Mahatma Gandhi Model Hospital"},"geometry":{"type":"Point","coordinates":[92.57338,24.41476]}},{"type":"Feature","properties":{"kind":"health","name":"BPHC, Langting"},"geometry":{"type":"Point","coordinates":[93.1168,25.49728]}},{"type":"Feature","properties":{"kind":"health","name":"PHC, Manipur"},"geometry":{"type":"Point","coordinates":[92.56171,24.39852]}},{"type":"Feature","properties":{"kind":"health","name":"PHC, Patherkandi"},"geometry":{"type":"Point","coordinates":[92.31937,24.6031]}},{"type":"Feature","properties":{"kind":"health","name":"CHC, Umrangso"},"geometry":{"type":"Point","coordinates":[92.7329,25.50512]}},{"type":"Feature","properties":{"kind":"health","name":"Mini PHC, Baraigram"},"geometry":{"type":"Point","coordinates":[92.34164,24.67941]}},{"type":"Feature","properties":{"kind":"health","name":"State Dispensary, Duhalia"},"geometry":{"type":"Point","coordinates":[92.35679,24.62583]}},{"type":"Feature","properties":{"kind":"health","name":"Health Sub Centre ,Buhchangphai"},"geometry":{"type":"Point","coordinates":[92.66094,24.33649]}},{"type":"Feature","properties":{"kind":"health","name":"Sub Centre, Bilkhawthlir"},"geometry":{"type":"Point","coordinates":[92.71869,24.33609]}},{"type":"Feature","properties":{"kind":"health","name":"Primary Health Sub Center, Longchai"},"geometry":{"type":"Point","coordinates":[93.27559,24.92693]}},{"type":"Feature","properties":{"kind":"shelter"},"geometry":{"type":"Point","coordinates":[92.14169,25.51908]}},{"type":"Feature","properties":{"kind":"police"},"geometry":{"type":"Point","coordinates":[93.15412,24.78621]}},{"type":"Feature","properties":{"kind":"police","name":"Kaimai Checkpoint"},"geometry":{"type":"Point","coordinates":[93.2601,24.72]}},{"type":"Feature","properties":{"kind":"police","name":"Kaiphundai Post"},"geometry":{"type":"Point","coordinates":[93.22302,24.78934]}},{"type":"Feature","properties":{"kind":"health","name":"Apollo Diagnostics"},"geometry":{"type":"Point","coordinates":[92.56511,24.67746]}},{"type":"Feature","properties":{"kind":"health","name":"Skin Care Clinic, Silchar"},"geometry":{"type":"Point","coordinates":[92.7957,24.81936]}},{"type":"Feature","properties":{"kind":"health","name":"Clinicare Diagnostic Centre"},"geometry":{"type":"Point","coordinates":[92.7975,24.81096]}},{"type":"Feature","properties":{"kind":"health","name":"Railway Hospital"},"geometry":{"type":"Point","coordinates":[92.3706,24.86078]}},{"type":"Feature","properties":{"kind":"health","name":"Cure Up Physiotherapy Clinic"},"geometry":{"type":"Point","coordinates":[92.79998,24.80649]}},{"type":"Feature","properties":{"kind":"health","name":"Arogya Niketan"},"geometry":{"type":"Point","coordinates":[92.3629,24.86912]}},{"type":"Feature","properties":{"kind":"health","name":"New Life Line Hospital"},"geometry":{"type":"Point","coordinates":[92.36892,24.85734]}},{"type":"Feature","properties":{"kind":"health","name":"Dr. Subhasish's Diabetes Clinic"},"geometry":{"type":"Point","coordinates":[92.36495,24.86802]}},{"type":"Feature","properties":{"kind":"health","name":"Songpijang Sub Center"},"geometry":{"type":"Point","coordinates":[93.02307,25.15797]}},{"type":"Feature","properties":{"kind":"health","name":"Good Samaritan First Aid Clinic"},"geometry":{"type":"Point","coordinates":[93.14524,25.29286]}},{"type":"Feature","properties":{"kind":"health","name":"Dr. Nandi Clinic"},"geometry":{"type":"Point","coordinates":[92.80062,24.81599]}},{"type":"Feature","properties":{"kind":"health","name":"Holy Spirit Hospital, Haflong"},"geometry":{"type":"Point","coordinates":[93.01282,25.16725]}},{"type":"Feature","properties":{"kind":"health","name":"Urban Health Centre, Haflong"},"geometry":{"type":"Point","coordinates":[93.01814,25.16853]}},{"type":"Feature","properties":{"kind":"health","name":"Apollo Diagnostics"},"geometry":{"type":"Point","coordinates":[92.35918,24.86495]}},{"type":"Feature","properties":{"kind":"health","name":"Aaroti Diagnostics Centre"},"geometry":{"type":"Point","coordinates":[92.5667,24.67644]}},{"type":"Feature","properties":{"kind":"health","name":"Ashirwad Hospital"},"geometry":{"type":"Point","coordinates":[92.3699,24.86206]}},{"type":"Feature","properties":{"kind":"health","name":"Chiranjib Clinic"},"geometry":{"type":"Point","coordinates":[92.83584,24.75302]}},{"type":"Feature","properties":{"kind":"health","name":"Joy Bijoy Diagnostics"},"geometry":{"type":"Point","coordinates":[92.36791,24.86451]}},{"type":"Feature","properties":{"kind":"health","name":"Shovana Clinic"},"geometry":{"type":"Point","coordinates":[92.36325,24.86742]}},{"type":"Feature","properties":{"kind":"health","name":"Shifa Hospital & Research Centre"},"geometry":{"type":"Point","coordinates":[92.56474,24.67394]}},{"type":"Feature","properties":{"kind":"health","name":"Urban Hospital"},"geometry":{"type":"Point","coordinates":[92.37185,24.87163]}},{"type":"Feature","properties":{"kind":"health","name":"Choudhury Eye Clinic"},"geometry":{"type":"Point","coordinates":[92.79752,24.82353]}},{"type":"Feature","properties":{"kind":"health","name":"IMS Hospital"},"geometry":{"type":"Point","coordinates":[92.35993,24.87125]}},{"type":"Feature","properties":{"kind":"health","name":"Mother & Child Health Wing,Civil Hospital"},"geometry":{"type":"Point","coordinates":[92.36229,24.86809]}},{"type":"Feature","properties":{"kind":"health","name":"North East Diagnostic & Research Centre"},"geometry":{"type":"Point","coordinates":[92.36108,24.8702]}},{"type":"Feature","properties":{"kind":"health","name":"Pain Control Clinic"},"geometry":{"type":"Point","coordinates":[92.56302,24.6803]}},{"type":"Feature","properties":{"kind":"health","name":"Binode Doctor's Clinic"},"geometry":{"type":"Point","coordinates":[92.78721,24.81901]}},{"type":"Feature","properties":{"kind":"health","name":"Red Cross Hospital, Karimganj"},"geometry":{"type":"Point","coordinates":[92.35837,24.86943]}},{"type":"Feature","properties":{"kind":"health","name":"Heart Care"},"geometry":{"type":"Point","coordinates":[92.79243,24.79725]}},{"type":"Feature","properties":{"kind":"health","name":"North Karimganj New Hospital"},"geometry":{"type":"Point","coordinates":[92.36247,24.86779]}},{"type":"Feature","properties":{"kind":"health","name":"Dr. N Chackraborty' S Clinic"},"geometry":{"type":"Point","coordinates":[92.35583,24.87235]}},{"type":"Feature","properties":{"kind":"health","name":"Physiotherapy Clinic, Hailakandi"},"geometry":{"type":"Point","coordinates":[92.55527,24.68698]}},{"type":"Feature","properties":{"kind":"health","name":"Ankur Diagnostics"},"geometry":{"type":"Point","coordinates":[92.34994,24.8669]}},{"type":"Feature","properties":{"kind":"health","name":"Shilliang Myntang Subcentre"},"geometry":{"type":"Point","coordinates":[92.36863,25.56273]}},{"type":"Feature","properties":{"kind":"health","name":"Rasongsli Nursing Home"},"geometry":{"type":"Point","coordinates":[92.09686,25.28736]}},{"type":"Feature","properties":{"kind":"health","name":"Civil Hospital"},"geometry":{"type":"Point","coordinates":[92.20525,25.43621]}},{"type":"Feature","properties":{"kind":"health","name":"Nazareth Hospital"},"geometry":{"type":"Point","coordinates":[92.28762,25.4682]}},{"type":"Feature","properties":{"kind":"health","name":"PHC, Saipung"},"geometry":{"type":"Point","coordinates":[92.62,25.3366]}},{"type":"Feature","properties":{"kind":"health","name":"Woodland Diagnostic Centre"},"geometry":{"type":"Point","coordinates":[92.20146,25.45236]}},{"type":"Feature","properties":{"kind":"health","name":"Woodland  WK Hospital"},"geometry":{"type":"Point","coordinates":[92.23917,25.4692]}},{"type":"Feature","properties":{"kind":"health","name":"CHC, Jiribam"},"geometry":{"type":"Point","coordinates":[93.11586,24.80694]}},{"type":"Feature","properties":{"kind":"health","name":"District Hospital"},"geometry":{"type":"Point","coordinates":[93.13963,24.77933]}},{"type":"Feature","properties":{"kind":"health","name":"Jiribam Hospital"},"geometry":{"type":"Point","coordinates":[93.13876,24.77868]}},{"type":"Feature","properties":{"kind":"health","name":"Irani Hospital"},"geometry":{"type":"Point","coordinates":[92.02097,24.36504]}},{"type":"Feature","properties":{"kind":"health","name":"Jalabasa Hospital"},"geometry":{"type":"Point","coordinates":[92.18191,24.25924]}},{"type":"Feature","properties":{"kind":"health","name":"Apollo Clinic"},"geometry":{"type":"Point","coordinates":[92.1656,24.37195]}},{"type":"Feature","properties":{"kind":"health","name":"Primary Health Centre"},"geometry":{"type":"Point","coordinates":[92.00032,24.08438]}},{"type":"Feature","properties":{"kind":"health","name":"Primary Health Centre"},"geometry":{"type":"Point","coordinates":[92.20142,24.03613]}},{"type":"Feature","properties":{"kind":"health","name":"Primary Health Care, Krishnatilla"},"geometry":{"type":"Point","coordinates":[92.15039,24.30058]}},{"type":"Feature","properties":{"kind":"health","name":"Eye Hospital"},"geometry":{"type":"Point","coordinates":[92.1517,24.37173]}},{"type":"Feature","properties":{"kind":"health","name":"Krishnatilla Hospital"},"geometry":{"type":"Point","coordinates":[92.11378,24.08722]}},{"type":"Feature","properties":{"kind":"health","name":"Zawlnuam Hospital"},"geometry":{"type":"Point","coordinates":[92.332,24.13312]}},{"type":"Feature","properties":{"kind":"health","name":"SubCentre, Wahïajer"},"geometry":{"type":"Point","coordinates":[92.16167,25.53668]}},{"type":"Feature","properties":{"kind":"health","name":"Khliehriāt CHC"},"geometry":{"type":"Point","coordinates":[92.36756,25.36107]}},{"type":"Feature","properties":{"kind":"health","name":"SubCentre,Cham Cham"},"geometry":{"type":"Point","coordinates":[92.22643,25.32874]}},{"type":"Feature","properties":{"kind":"health","name":"SubCentre, Ïongkaluh"},"geometry":{"type":"Point","coordinates":[92.28478,25.37364]}},{"type":"Feature","properties":{"kind":"health","name":"SubCentre, Sutnga"},"geometry":{"type":"Point","coordinates":[92.43965,25.37649]}},{"type":"Feature","properties":{"kind":"health","name":"SubCentre, Sahsniang"},"geometry":{"type":"Point","coordinates":[92.51888,25.56842]}},{"type":"Feature","properties":{"kind":"health","name":"SubCentre, Mupliang"},"geometry":{"type":"Point","coordinates":[92.23705,25.53203]}},{"type":"Feature","properties":{"kind":"health","name":"SubCentre, Tyrshang"},"geometry":{"type":"Point","coordinates":[92.15051,25.52932]}},{"type":"Feature","properties":{"kind":"health","name":"SubCentre,Iapmala"},"geometry":{"type":"Point","coordinates":[92.22459,25.26742]}},{"type":"Feature","properties":{"kind":"health","name":"SubCentre, Nongkhroh"},"geometry":{"type":"Point","coordinates":[92.13343,25.59954]}},{"type":"Feature","properties":{"kind":"health","name":"SubCentre, Samasi"},"geometry":{"type":"Point","coordinates":[92.5662,25.41318]}},{"type":"Feature","properties":{"kind":"health","name":"SubCentre, Sohphoh"},"geometry":{"type":"Point","coordinates":[92.16141,25.56508]}},{"type":"Feature","properties":{"kind":"health","name":"Primary Health Centre, Nongbah"},"geometry":{"type":"Point","coordinates":[92.25218,25.51748]}},{"type":"Feature","properties":{"kind":"health","name":"SubCentre, Moolamylliang"},"geometry":{"type":"Point","coordinates":[92.48785,25.32115]}},{"type":"Feature","properties":{"kind":"health","name":"SubCentre, Mynso"},"geometry":{"type":"Point","coordinates":[92.29948,25.52278]}},{"type":"Feature","properties":{"kind":"health","name":"SubCentre, Chiehruphi"},"geometry":{"type":"Point","coordinates":[92.3739,25.20784]}},{"type":"Feature","properties":{"kind":"health","name":"SubCentre, Sohmynting"},"geometry":{"type":"Point","coordinates":[92.14465,25.44492]}},{"type":"Feature","properties":{"kind":"health","name":"SubCentre, Sutnga"},"geometry":{"type":"Point","coordinates":[92.43538,25.37189]}},{"type":"Feature","properties":{"kind":"health","name":"SubCentre, Mihmyntdu"},"geometry":{"type":"Point","coordinates":[92.22861,25.47215]}},{"type":"Feature","properties":{"kind":"health","name":"SubCentre, Raliang"},"geometry":{"type":"Point","coordinates":[92.39013,25.4968]}},{"type":"Feature","properties":{"kind":"health","name":"SubCentre, Shnongrim"},"geometry":{"type":"Point","coordinates":[92.51529,25.35445]}},{"type":"Feature","properties":{"kind":"health","name":"State Dispensary padu"},"geometry":{"type":"Point","coordinates":[92.02825,25.27764]}},{"type":"Feature","properties":{"kind":"health","name":"SubCentre,Darrang"},"geometry":{"type":"Point","coordinates":[92.02022,25.20538]}},{"type":"Feature","properties":{"kind":"health","name":"SubCentre, Tyrshang"},"geometry":{"type":"Point","coordinates":[92.16201,25.52975]}},{"type":"Feature","properties":{"kind":"health","name":"West Maslichara Sub Centre"},"geometry":{"type":"Point","coordinates":[92.01037,24.02777]}},{"type":"Feature","properties":{"kind":"health","name":"East Maslichara Sub Centre"},"geometry":{"type":"Point","coordinates":[92.02813,24.01063]}},{"type":"Feature","properties":{"kind":"health","name":"SubCentre, New Vervek"},"geometry":{"type":"Point","coordinates":[92.9459,24.18633]}},{"type":"Feature","properties":{"kind":"health","name":"SubCentre, North Serzawl"},"geometry":{"type":"Point","coordinates":[92.89031,24.0282]}},{"type":"Feature","properties":{"kind":"health","name":"SubCentre, N.Khawlek"},"geometry":{"type":"Point","coordinates":[93.02044,24.06736]}},{"type":"Feature","properties":{"kind":"health","name":"SubCentre, Palsang"},"geometry":{"type":"Point","coordinates":[92.91361,24.28467]}},{"type":"Feature","properties":{"kind":"health","name":"SubCentre, Vanbawng"},"geometry":{"type":"Point","coordinates":[93.0494,24.04054]}},{"type":"Feature","properties":{"kind":"health","name":"SubCentre, Mauchar"},"geometry":{"type":"Point","coordinates":[92.91959,24.35351]}},{"type":"Feature","properties":{"kind":"health","name":"Primary Health Centre, Ratu"},"geometry":{"type":"Point","coordinates":[92.9204,24.10469]}},{"type":"Feature","properties":{"kind":"health","name":"SubCentre, Sailutar"},"geometry":{"type":"Point","coordinates":[92.91969,24.06763]}},{"type":"Feature","properties":{"kind":"health","name":"SubCentre, Daidou"},"geometry":{"type":"Point","coordinates":[93.14622,24.04652]}},{"type":"Feature","properties":{"kind":"health","name":"SubCentre, Thingsat"},"geometry":{"type":"Point","coordinates":[92.93926,24.19819]}},{"type":"Feature","properties":{"kind":"health","name":"SubCentre, Vaitin"},"geometry":{"type":"Point","coordinates":[92.97813,24.22542]}},{"type":"Feature","properties":{"kind":"health","name":"SubCentre, Tinghmun"},"geometry":{"type":"Point","coordinates":[92.98842,24.31602]}},{"type":"Feature","properties":{"kind":"health","name":"SubCentre, Darlawn"},"geometry":{"type":"Point","coordinates":[92.94746,24.28441]}},{"type":"Feature","properties":{"kind":"health","name":"SubCentre, Khawkawn"},"geometry":{"type":"Point","coordinates":[93.22123,24.01857]}},{"type":"Feature","properties":{"kind":"health","name":"SubCentre, Bualpui"},"geometry":{"type":"Point","coordinates":[92.68226,24.094]}},{"type":"Feature","properties":{"kind":"health","name":"SubCentre, North Chaltlang"},"geometry":{"type":"Point","coordinates":[92.7716,24.0217]}},{"type":"Feature","properties":{"kind":"health","name":"SubCentre, Phainuam"},"geometry":{"type":"Point","coordinates":[92.78026,24.46842]}},{"type":"Feature","properties":{"kind":"health","name":"SubCentre, Saiphai"},"geometry":{"type":"Point","coordinates":[92.79531,24.4063]}},{"type":"Feature","properties":{"kind":"health","name":"SubCentre, Hortoki"},"geometry":{"type":"Point","coordinates":[92.59626,24.06298]}},{"type":"Feature","properties":{"kind":"health","name":"SubCentre, Thingdawl"},"geometry":{"type":"Point","coordinates":[92.69594,24.1708]}},{"type":"Feature","properties":{"kind":"health","name":"SubCentre, Saipum"},"geometry":{"type":"Point","coordinates":[92.84991,24.35353]}},{"type":"Feature","properties":{"kind":"health","name":"SubCentre, North Chawnpui"},"geometry":{"type":"Point","coordinates":[92.78002,24.37664]}},{"type":"Feature","properties":{"kind":"health","name":"SubCentre, Khuangpuilam"},"geometry":{"type":"Point","coordinates":[92.67997,24.20967]}},{"type":"Feature","properties":{"kind":"health","name":"SubCentre, Rengdil"},"geometry":{"type":"Point","coordinates":[92.38809,24.06668]}},{"type":"Feature","properties":{"kind":"health","name":"SubCentre, Thinghlun"},"geometry":{"type":"Point","coordinates":[92.38378,24.24761]}},{"type":"Feature","properties":{"kind":"health","name":"SubCentre, Zamuang"},"geometry":{"type":"Point","coordinates":[92.39772,24.09988]}},{"type":"Feature","properties":{"kind":"health","name":"SubCentre, Bungthuam"},"geometry":{"type":"Point","coordinates":[92.33079,24.18805]}},{"type":"Feature","properties":{"kind":"health","name":"SubCentre, Milongmun"},"geometry":{"type":"Point","coordinates":[93.28748,24.38668]}},{"type":"Feature","properties":{"kind":"health","name":"SubCentre, Leisen"},"geometry":{"type":"Point","coordinates":[93.14907,24.1517]}},{"type":"Feature","properties":{"kind":"health","name":"SubCentre, Sinzawl"},"geometry":{"type":"Point","coordinates":[93.29813,24.09285]}},{"type":"Feature","properties":{"kind":"health","name":"SubCentre, Patpuihmun"},"geometry":{"type":"Point","coordinates":[93.07249,24.35455]}},{"type":"Feature","properties":{"kind":"health","name":"SubCentre, Tuolbung"},"geometry":{"type":"Point","coordinates":[93.15055,24.38718]}},{"type":"Feature","properties":{"kind":"health","name":"SubCentre, Bukpi"},"geometry":{"type":"Point","coordinates":[93.23945,24.21299]}},{"type":"Feature","properties":{"kind":"health","name":"SubCentre, Lungthulien"},"geometry":{"type":"Point","coordinates":[93.08492,24.2169]}},{"type":"Feature","properties":{"kind":"health","name":"SubCentre, Bungpilon"},"geometry":{"type":"Point","coordinates":[93.18768,24.0902]}},{"type":"Feature","properties":{"kind":"health","name":"SubCentre, Ngampabung"},"geometry":{"type":"Point","coordinates":[93.09479,24.41595]}},{"type":"Feature","properties":{"kind":"health","name":"SubCentre, Parvachom"},"geometry":{"type":"Point","coordinates":[93.1286,24.10646]}},{"type":"Feature","properties":{"kind":"health","name":"SubCentre, Pherzawl"},"geometry":{"type":"Point","coordinates":[93.19014,24.25987]}},{"type":"Feature","properties":{"kind":"health","name":"SubCentre, Aibulon"},"geometry":{"type":"Point","coordinates":[93.23935,24.11674]}},{"type":"Feature","properties":{"kind":"health","name":"SubCentre, Tinsuong"},"geometry":{"type":"Point","coordinates":[93.19731,24.28926]}},{"type":"Feature","properties":{"kind":"health","name":"SubCentre, Chingmun"},"geometry":{"type":"Point","coordinates":[93.1725,24.70255]}},{"type":"Feature","properties":{"kind":"health","name":"Primary Health Centre, Pherzawl"},"geometry":{"type":"Point","coordinates":[93.18788,24.26347]}},{"type":"Feature","properties":{"kind":"health","name":"SubCentre, Phailenthang Punjee"},"geometry":{"type":"Point","coordinates":[93.10631,24.68115]}},{"type":"Feature","properties":{"kind":"health","name":"SubCentre, Hanship"},"geometry":{"type":"Point","coordinates":[93.21229,24.15948]}},{"type":"Feature","properties":{"kind":"health","name":"SubCentre, Kangreng"},"geometry":{"type":"Point","coordinates":[93.10486,24.45689]}},{"type":"Feature","properties":{"kind":"health","name":"SubCentre, Bhutangkhal"},"geometry":{"type":"Point","coordinates":[93.1129,24.6573]}},{"type":"Feature","properties":{"kind":"health","name":"SubCentre, Kashimpur"},"geometry":{"type":"Point","coordinates":[93.13698,24.75506]}},{"type":"Feature","properties":{"kind":"health","name":"SubCentre, Jakuradhor"},"geometry":{"type":"Point","coordinates":[93.09548,24.61076]}},{"type":"Feature","properties":{"kind":"boat"},"geometry":{"type":"Point","coordinates":[92.07238,24.8095]}},{"type":"Feature","properties":{"kind":"boat"},"geometry":{"type":"Point","coordinates":[92.07373,24.80985]}},{"type":"Feature","properties":{"kind":"shelter","name":"Middle English School"},"geometry":{"type":"Point","coordinates":[92.72155,25.49013]}},{"type":"Feature","properties":{"kind":"shelter","name":"Lower Primary School"},"geometry":{"type":"Point","coordinates":[92.72267,25.49023]}},{"type":"Feature","properties":{"kind":"shelter","name":"Himalayan Acaemy"},"geometry":{"type":"Point","coordinates":[92.72351,25.48677]}},{"type":"Feature","properties":{"kind":"shelter","name":"AHMED SHOHAN SONALI JUNIOR SCHOOL"},"geometry":{"type":"Point","coordinates":[92.01221,24.4025]}},{"type":"Feature","properties":{"kind":"shelter","name":"HYDER GONJ HIGH SCHOOL"},"geometry":{"type":"Point","coordinates":[92.02117,24.41534]}},{"type":"Feature","properties":{"kind":"shelter","name":"KARMADHA HIGH SCHOOL"},"geometry":{"type":"Point","coordinates":[92.02047,24.44078]}},{"type":"Feature","properties":{"kind":"shelter","name":"MASTER SHARAFATH ALI HIGH SCHOOL"},"geometry":{"type":"Point","coordinates":[92.00817,24.4836]}},{"type":"Feature","properties":{"kind":"shelter","name":"SHAH  JALAL  HIGH SCHOOL"},"geometry":{"type":"Point","coordinates":[92.02769,24.49045]}},{"type":"Feature","properties":{"kind":"shelter","name":"SHAH SHUNDOR HIGH SCHOOL"},"geometry":{"type":"Point","coordinates":[92.04557,24.4943]}},{"type":"Feature","properties":{"kind":"shelter","name":"RAJKIE ALBINTILA MUKTHIJUDDHA HIGH SCHOOL"},"geometry":{"type":"Point","coordinates":[92.13476,24.42427]}},{"type":"Feature","properties":{"kind":"shelter","name":"RAGHNA BOTULI HIGH SCHOOL"},"geometry":{"type":"Point","coordinates":[92.15807,24.438]}},{"type":"Feature","properties":{"kind":"shelter","name":"FULTALA BASHIRULLAH HIGH SCHOOL"},"geometry":{"type":"Point","coordinates":[92.14821,24.45937]}},{"type":"Feature","properties":{"kind":"shelter","name":"SAGORNAL HIGH SCHOOL"},"geometry":{"type":"Point","coordinates":[92.14136,24.48761]}},{"type":"Feature","properties":{"kind":"shelter","name":"HAZI SUNA MIAH APTARUN NESSA HIGH SCHOOL"},"geometry":{"type":"Point","coordinates":[92.15092,24.51115]}},{"type":"Feature","properties":{"kind":"shelter","name":"JIBANJUTI NAGAR JUNIOR SCHOOL"},"geometry":{"type":"Point","coordinates":[92.14159,24.51573]}},{"type":"Feature","properties":{"kind":"shelter","name":"SILUYA HIGH SCHOOL"},"geometry":{"type":"Point","coordinates":[92.16002,24.53496]}},{"type":"Feature","properties":{"kind":"shelter","name":"KACHURGUL HIGH SCHOOL"},"geometry":{"type":"Point","coordinates":[92.20595,24.51593]}},{"type":"Feature","properties":{"kind":"shelter","name":"HAZI INZAD ALI HIGH SCHOOL"},"geometry":{"type":"Point","coordinates":[92.16009,24.56328]}},{"type":"Feature","properties":{"kind":"shelter","name":"HOSAIN ALI HIGH SCHOOL"},"geometry":{"type":"Point","coordinates":[92.15083,24.57476]}},{"type":"Feature","properties":{"kind":"shelter","name":"JURI MODEL GOVT. HIGH SCHOOL"},"geometry":{"type":"Point","coordinates":[92.11965,24.59372]}},{"type":"Feature","properties":{"kind":"shelter","name":"BELAGAON GOVT. PRIMARY SCHOOL"},"geometry":{"type":"Point","coordinates":[92.1053,24.59957]}},{"type":"Feature","properties":{"kind":"shelter"},"geometry":{"type":"Point","coordinates":[92.13146,24.60595]}},{"type":"Feature","properties":{"kind":"shelter","name":"KRISHNANAGAR GOVT. PRIMARY SCHOOL"},"geometry":{"type":"Point","coordinates":[92.14057,24.60769]}},{"type":"Feature","properties":{"kind":"shelter","name":"HAZI MONOHOR ALI M SAIFUR RAHMAN HIGH SCHOOL"},"geometry":{"type":"Point","coordinates":[92.19971,24.58512]}},{"type":"Feature","properties":{"kind":"shelter","name":"JAIFOR NAGAR HIGH SCHOOL"},"geometry":{"type":"Point","coordinates":[92.09194,24.58548]}},{"type":"Feature","properties":{"kind":"shelter","name":"SAPTAGRAM HIGH SCHOOL"},"geometry":{"type":"Point","coordinates":[92.05552,24.57598]}},{"type":"Feature","properties":{"kind":"shelter","name":"DILDAR PUR HIGH SCHOOL"},"geometry":{"type":"Point","coordinates":[92.07584,24.54679]}},{"type":"Feature","properties":{"kind":"shelter","name":"UTTAR KULAURA HIGH SCHOOL"},"geometry":{"type":"Point","coordinates":[92.04671,24.53783]}},{"type":"Feature","properties":{"kind":"shelter","name":"POURO GIRLS HIGH SCHOOL"},"geometry":{"type":"Point","coordinates":[92.04345,24.53022]}},{"type":"Feature","properties":{"kind":"shelter","name":"RABEYA ADARSHA GOVT. PRIMARY SCHOOL"},"geometry":{"type":"Point","coordinates":[92.03487,24.52698]}},{"type":"Feature","properties":{"kind":"shelter","name":"BASHIRUL HUSSAIN MODEL GOVT PRIMARY SCHOOL"},"geometry":{"type":"Point","coordinates":[92.03396,24.52283]}},{"type":"Feature","properties":{"kind":"shelter","name":"KULAURA GIRLS HIGH SCHOOL"},"geometry":{"type":"Point","coordinates":[92.03366,24.52029]}},{"type":"Feature","properties":{"kind":"shelter","name":"NABIN  CHANDRA  HIGH  SCHOOL"},"geometry":{"type":"Point","coordinates":[92.02816,24.51292]}},{"type":"Feature","properties":{"kind":"shelter","name":"AGRONI HIGH SCHOOL"},"geometry":{"type":"Point","coordinates":[92.04011,24.47433]}},{"type":"Feature","properties":{"kind":"shelter"},"geometry":{"type":"Point","coordinates":[92.03868,24.46511]}},{"type":"Feature","properties":{"kind":"shelter","name":"LANGLA  HIGH SCHOOL"},"geometry":{"type":"Point","coordinates":[92.01219,24.46702]}},{"type":"Feature","properties":{"kind":"shelter","name":"এম আর মজুমদার বিদ্যানিকেতন"},"geometry":{"type":"Point","coordinates":[92.47904,24.88988]}},{"type":"Feature","properties":{"kind":"shelter","name":"Shunashar Secondary School"},"geometry":{"type":"Point","coordinates":[92.46392,24.90406]}},{"type":"Feature","properties":{"kind":"shelter","name":"Wazed Ali Mozumder High School"},"geometry":{"type":"Point","coordinates":[92.48067,24.92314]}},{"type":"Feature","properties":{"kind":"shelter","name":"Hafiz Mazumder Bidyaniketon"},"geometry":{"type":"Point","coordinates":[92.44599,24.93051]}},{"type":"Feature","properties":{"kind":"shelter","name":"Manikpur Government Primary School"},"geometry":{"type":"Point","coordinates":[92.42344,24.94293]}},{"type":"Feature","properties":{"kind":"shelter","name":"Shimantik International High School"},"geometry":{"type":"Point","coordinates":[92.42255,24.9508]}},{"type":"Feature","properties":{"kind":"shelter","name":"KARABALLA BIDDAH NIKATON"},"geometry":{"type":"Point","coordinates":[92.40092,24.9926]}},{"type":"Feature","properties":{"kind":"shelter","name":"ABDUR RAZZAK SMRITI BIDDANLKATAN"},"geometry":{"type":"Point","coordinates":[92.3681,24.96763]}},{"type":"Feature","properties":{"kind":"shelter","name":"SARKER BAZAR HIGH SCHOOL"},"geometry":{"type":"Point","coordinates":[92.34416,24.99145]}},{"type":"Feature","properties":{"kind":"shelter","name":"SUROTUNNSA MEMORIAL HIGH SCHOOL"},"geometry":{"type":"Point","coordinates":[92.35718,25.01132]}},{"type":"Feature","properties":{"kind":"shelter","name":"JULY IDEAL HIGH SCHOOL"},"geometry":{"type":"Point","coordinates":[92.31263,24.99808]}},{"type":"Feature","properties":{"kind":"shelter","name":"MULAGUL HIGH SCHOOL"},"geometry":{"type":"Point","coordinates":[92.32453,25.04793]}},{"type":"Feature","properties":{"kind":"shelter","name":"SURAIGHAT HIGH SCHOOL"},"geometry":{"type":"Point","coordinates":[92.25522,25.06007]}},{"type":"Feature","properties":{"kind":"shelter","name":"KANAIGHAT PUBLIC HIGH SCHOOL"},"geometry":{"type":"Point","coordinates":[92.25728,25.01514]}},{"type":"Feature","properties":{"kind":"shelter","name":"RAMIJA GIRLS HIGH SCHOOL"},"geometry":{"type":"Point","coordinates":[92.25674,25.00139]}},{"type":"Feature","properties":{"kind":"shelter","name":"KANAIGHAT GOVT HIGH SCHOOL"},"geometry":{"type":"Point","coordinates":[92.25826,24.99828]}},{"type":"Feature","properties":{"kind":"shelter","name":"Moulovi Sair Ali High School"},"geometry":{"type":"Point","coordinates":[92.24919,24.95596]}},{"type":"Feature","properties":{"kind":"shelter"},"geometry":{"type":"Point","coordinates":[92.24345,24.98114]}},{"type":"Feature","properties":{"kind":"shelter","name":"MANIK GANJ HIGH SCHOOL"},"geometry":{"type":"Point","coordinates":[92.1928,24.9395]}},{"type":"Feature","properties":{"kind":"shelter","name":"Alhaz Boshir Ahmed High School"},"geometry":{"type":"Point","coordinates":[92.14657,24.96909]}},{"type":"Feature","properties":{"kind":"shelter","name":"গাছবাড়ি মডার্ন একাডেমি"},"geometry":{"type":"Point","coordinates":[92.15513,24.95117]}},{"type":"Feature","properties":{"kind":"shelter"},"geometry":{"type":"Point","coordinates":[92.10885,24.90957]}},{"type":"Feature","properties":{"kind":"shelter","name":"SURMA HIGH SCHOOL"},"geometry":{"type":"Point","coordinates":[92.05877,24.89674]}},{"type":"Feature","properties":{"kind":"shelter"},"geometry":{"type":"Point","coordinates":[92.0038,24.94827]}},{"type":"Feature","properties":{"kind":"shelter","name":"Hemu Tinpara High School"},"geometry":{"type":"Point","coordinates":[92.04838,25.00482]}},{"type":"Feature","properties":{"kind":"shelter","name":"বাঘের সড়ক উচ্চ বিদ্যালয় গোয়াইনঘাট সিলেট"},"geometry":{"type":"Point","coordinates":[92.06928,25.04118]}},{"type":"Feature","properties":{"kind":"shelter"},"geometry":{"type":"Point","coordinates":[92.09881,25.03039]}},{"type":"Feature","properties":{"kind":"shelter","name":"Dighirpar Girls High School"},"geometry":{"type":"Point","coordinates":[92.10063,25.05168]}},{"type":"Feature","properties":{"kind":"shelter"},"geometry":{"type":"Point","coordinates":[92.11063,25.06485]}},{"type":"Feature","properties":{"kind":"shelter"},"geometry":{"type":"Point","coordinates":[92.14871,25.06128]}},{"type":"Feature","properties":{"kind":"shelter"},"geometry":{"type":"Point","coordinates":[92.16453,25.09547]}},{"type":"Feature","properties":{"kind":"shelter"},"geometry":{"type":"Point","coordinates":[92.15432,25.11119]}},{"type":"Feature","properties":{"kind":"shelter"},"geometry":{"type":"Point","coordinates":[92.11943,25.10042]}},{"type":"Feature","properties":{"kind":"shelter","name":"BRIGADIAR MOJUMDER BIDYA NIKETON HIGH SCHOOL"},"geometry":{"type":"Point","coordinates":[92.11627,25.12312]}},{"type":"Feature","properties":{"kind":"shelter"},"geometry":{"type":"Point","coordinates":[92.125,25.13128]}},{"type":"Feature","properties":{"kind":"shelter"},"geometry":{"type":"Point","coordinates":[92.12962,25.13536]}},{"type":"Feature","properties":{"kind":"shelter"},"geometry":{"type":"Point","coordinates":[92.12286,25.13332]}},{"type":"Feature","properties":{"kind":"shelter"},"geometry":{"type":"Point","coordinates":[92.09905,25.13076]}},{"type":"Feature","properties":{"kind":"shelter"},"geometry":{"type":"Point","coordinates":[92.09939,25.16109]}},{"type":"Feature","properties":{"kind":"shelter","name":"NOLJURI SHAPTAGRAM JUNIOR SCHOOL"},"geometry":{"type":"Point","coordinates":[92.05455,25.17521]}},{"type":"Feature","properties":{"kind":"shelter"},"geometry":{"type":"Point","coordinates":[92.01688,25.15787]}},{"type":"Feature","properties":{"kind":"shelter","name":"Horipur ML High School"},"geometry":{"type":"Point","coordinates":[92.04359,24.99175]}},{"type":"Feature","properties":{"kind":"shelter","name":"Haflong Govt. College"},"geometry":{"type":"Point","coordinates":[93.0177,25.1725]}},{"type":"Feature","properties":{"kind":"police","name":"Haflong Police Station"},"geometry":{"type":"Point","coordinates":[93.0191,25.16808]}},{"type":"Feature","properties":{"kind":"police","name":"SP Office"},"geometry":{"type":"Point","coordinates":[93.01981,25.1635]}},{"type":"Feature","properties":{"kind":"shelter","name":"Dibarai High School"},"geometry":{"type":"Point","coordinates":[93.00864,25.17186]}},{"type":"Feature","properties":{"kind":"health","name":"Haflong Civil Hospital"},"geometry":{"type":"Point","coordinates":[93.01112,25.18216]}},{"type":"Feature","properties":{"kind":"health","name":"TB Hospital"},"geometry":{"type":"Point","coordinates":[93.0098,25.18091]}},{"type":"Feature","properties":{"kind":"fire","name":"Fire Brigade"},"geometry":{"type":"Point","coordinates":[93.01898,25.16873]}},{"type":"Feature","properties":{"kind":"police","name":"Sarkari Bhagan Police OutPost"},"geometry":{"type":"Point","coordinates":[93.01402,25.18322]}},{"type":"Feature","properties":{"kind":"shelter","name":"Kendria Vidyalaya School"},"geometry":{"type":"Point","coordinates":[93.01506,25.18747]}},{"type":"Feature","properties":{"kind":"shelter","name":"Bagetar LP School"},"geometry":{"type":"Point","coordinates":[93.00421,25.17929]}},{"type":"Feature","properties":{"kind":"shelter","name":"Fiangpui High School"},"geometry":{"type":"Point","coordinates":[93.00171,25.1714]}},{"type":"Feature","properties":{"kind":"shelter","name":"Iqra International School ইকরা ইন্টারন্যাশনাল স্কুল"},"geometry":{"type":"Point","coordinates":[92.18945,24.71386]}},{"type":"Feature","properties":{"kind":"police","name":"Barlekha POLICE STATION"},"geometry":{"type":"Point","coordinates":[92.18436,24.69428]}},{"type":"Feature","properties":{"kind":"police","name":"Sakawrdai Police  Station"},"geometry":{"type":"Point","coordinates":[92.95323,24.22197]}},{"type":"Feature","properties":{"kind":"police","name":"Darlawn Police Station"},"geometry":{"type":"Point","coordinates":[92.92476,24.00598]}},{"type":"Feature","properties":{"kind":"police","name":"Kawnpui Police Station"},"geometry":{"type":"Point","coordinates":[92.67336,24.03851]}},{"type":"Feature","properties":{"kind":"police","name":"Bairabi Police Station"},"geometry":{"type":"Point","coordinates":[92.53884,24.19291]}},{"type":"Feature","properties":{"kind":"police","name":"New Vervek Police Out Post"},"geometry":{"type":"Point","coordinates":[92.94467,24.17533]}},{"type":"Feature","properties":{"kind":"police","name":"Kolasib Police Station"},"geometry":{"type":"Point","coordinates":[92.67497,24.23396]}},{"type":"Feature","properties":{"kind":"police","name":"Bilkhawthlir Police Outpost"},"geometry":{"type":"Point","coordinates":[92.7168,24.33492]}},{"type":"Feature","properties":{"kind":"police","name":"Zawlnuam Police Out post"},"geometry":{"type":"Point","coordinates":[92.33846,24.14173]}},{"type":"Feature","properties":{"kind":"police","name":"Vairengte Police Station"},"geometry":{"type":"Point","coordinates":[92.75921,24.49177]}},{"type":"Feature","properties":{"kind":"police","name":"Kawrthah Police Station"},"geometry":{"type":"Point","coordinates":[92.37664,24.00807]}},{"type":"Feature","properties":{"kind":"police","name":"Saiphai Police Station"},"geometry":{"type":"Point","coordinates":[92.79722,24.41281]}},{"type":"Feature","properties":{"kind":"police","name":"Kanhmun Police Station"},"geometry":{"type":"Point","coordinates":[92.29859,24.23494]}},{"type":"Feature","properties":{"kind":"police","name":"5th Assam Police Battalion"},"geometry":{"type":"Point","coordinates":[93.01647,25.21509]}},{"type":"Feature","properties":{"kind":"shelter","name":"Jawaharlal Nehru Kendra Vidyalaya, Sontila"},"geometry":{"type":"Point","coordinates":[93.02094,25.21707]}},{"type":"Feature","properties":{"kind":"health","name":"A.Shylla Pharmacy"},"geometry":{"type":"Point","coordinates":[92.10649,25.28485]}},{"type":"Feature","properties":{"kind":"police","name":"Leishabithol police outpost"},"geometry":{"type":"Point","coordinates":[93.15475,24.74217]}},{"type":"Feature","properties":{"kind":"police","name":"Leingangpokpi outpost"},"geometry":{"type":"Point","coordinates":[93.1715,24.79552]}},{"type":"Feature","properties":{"kind":"boat"},"geometry":{"type":"Point","coordinates":[92.81394,24.84683]}},{"type":"Feature","properties":{"kind":"health"},"geometry":{"type":"Point","coordinates":[92.77751,24.91679]}},{"type":"Feature","properties":{"kind":"police","name":"Borobekra police station"},"geometry":{"type":"Point","coordinates":[93.09148,24.61082]}},{"type":"Feature","properties":{"kind":"police"},"geometry":{"type":"Point","coordinates":[92.77378,24.51235]}},{"type":"Feature","properties":{"kind":"health","name":"Bodor Uddin General Hospital,"},"geometry":{"type":"Point","coordinates":[92.11665,24.59917]}},{"type":"Feature","properties":{"kind":"shelter","name":"Juri Balika Madras, Middle school"},"geometry":{"type":"Point","coordinates":[92.10952,24.59527]}},{"type":"Feature","properties":{"kind":"shelter","name":"Juri Government Primary School"},"geometry":{"type":"Point","coordinates":[92.11526,24.5954]}},{"type":"Feature","properties":{"kind":"health","name":"JURI ADHUNIK PVT., HOSPITAL, Hospital"},"geometry":{"type":"Point","coordinates":[92.11427,24.59754]}},{"type":"Feature","properties":{"kind":"shelter","name":"Muktadir Girls High School"},"geometry":{"type":"Point","coordinates":[92.11557,24.59504]}},{"type":"Feature","properties":{"kind":"shelter","name":"Dakshinbhag Girls School"},"geometry":{"type":"Point","coordinates":[92.16349,24.63998]}},{"type":"Feature","properties":{"kind":"shelter","name":"Harirampur Government Primary School, School"},"geometry":{"type":"Point","coordinates":[92.12236,24.59939]}},{"type":"Feature","properties":{"kind":"shelter","name":"Amtoil Government Primary School, Primary school"},"geometry":{"type":"Point","coordinates":[92.13147,24.61544]}},{"type":"Feature","properties":{"kind":"shelter","name":"Navin Chand High School, High school"},"geometry":{"type":"Point","coordinates":[92.12033,24.60122]}},{"type":"Feature","properties":{"kind":"health","name":"Bodor Uddin General Hospital, Hospital"},"geometry":{"type":"Point","coordinates":[92.11666,24.59915]}},{"type":"Feature","properties":{"kind":"health","name":"Upazila Health Complex, Hospital"},"geometry":{"type":"Point","coordinates":[92.12702,24.60743]}},{"type":"Feature","properties":{"kind":"shelter","name":"Scholastic High School, High school"},"geometry":{"type":"Point","coordinates":[92.18324,24.69629]}},{"type":"Feature","properties":{"kind":"health","name":"M/S sorna pharmacy, Pharmacy"},"geometry":{"type":"Point","coordinates":[92.16018,24.63779]}},{"type":"Feature","properties":{"kind":"shelter","name":"Aerengabad Hifzul Quran Madrasa, Religious school"},"geometry":{"type":"Point","coordinates":[92.15841,24.63564]}},{"type":"Feature","properties":{"kind":"police","name":"Barlekha Police Station, Police station"},"geometry":{"type":"Point","coordinates":[92.18415,24.69416]}},{"type":"Feature","properties":{"kind":"health","name":"M/S ABIR PHARMACY, Pharmacy"},"geometry":{"type":"Point","coordinates":[92.18903,24.70133]}},{"type":"Feature","properties":{"kind":"health","name":"Barlekha City Clinik, Hospital"},"geometry":{"type":"Point","coordinates":[92.18329,24.69116]}},{"type":"Feature","properties":{"kind":"shelter","name":"Kathaltali High School, High school"},"geometry":{"type":"Point","coordinates":[92.1723,24.67365]}},{"type":"Feature","properties":{"kind":"shelter","name":"Nari Shikkha Academy Degree College, College"},"geometry":{"type":"Point","coordinates":[92.18042,24.68787]}},{"type":"Feature","properties":{"kind":"shelter","name":"Gangkul Panchagram Adarsha High School"},"geometry":{"type":"Point","coordinates":[92.16724,24.65446]}},{"type":"Feature","properties":{"kind":"shelter","name":"Tilla Bazar Mohamodia Madresa, Religious school"},"geometry":{"type":"Point","coordinates":[92.16312,24.64223]}},{"type":"Feature","properties":{"kind":"shelter","name":"Barlekha City School, High school"},"geometry":{"type":"Point","coordinates":[92.18331,24.6896]}},{"type":"Feature","properties":{"kind":"shelter","name":"Dakshinbhag Government Primary School, Primary school"},"geometry":{"type":"Point","coordinates":[92.16023,24.63669]}},{"type":"Feature","properties":{"kind":"health","name":"Life Care pharmacy, Pharmacy"},"geometry":{"type":"Point","coordinates":[92.16059,24.63823]}},{"type":"Feature","properties":{"kind":"shelter","name":"Amran Shahidul Model Academy, General education school"},"geometry":{"type":"Point","coordinates":[92.1607,24.63567]}},{"type":"Feature","properties":{"kind":"shelter","name":"Patharia Gangul Mansuriya Fazil Degree Madrasa, School"},"geometry":{"type":"Point","coordinates":[92.16643,24.65068]}},{"type":"Feature","properties":{"kind":"health","name":"Misbah Pharmacy, Hospital"},"geometry":{"type":"Point","coordinates":[92.18681,24.6946]}},{"type":"Feature","properties":{"kind":"shelter","name":"Barlekha Girls High School, Middle school"},"geometry":{"type":"Point","coordinates":[92.19005,24.70119]}},{"type":"Feature","properties":{"kind":"health","name":"Barlekha Upazila Health Complex, Hospital"},"geometry":{"type":"Point","coordinates":[92.18499,24.69374]}},{"type":"Feature","properties":{"kind":"shelter","name":"Singhogram Government Primary School, School"},"geometry":{"type":"Point","coordinates":[92.18707,24.69764]}},{"type":"Feature","properties":{"kind":"health","name":"MJ PHARMACY, Pharmacy"},"geometry":{"type":"Point","coordinates":[92.19513,24.71116]}},{"type":"Feature","properties":{"kind":"shelter","name":"PC Model High School, High school"},"geometry":{"type":"Point","coordinates":[92.19063,24.70241]}},{"type":"Feature","properties":{"kind":"shelter","name":"Al-Hera Academy, Language school"},"geometry":{"type":"Point","coordinates":[92.19305,24.71169]}},{"type":"Feature","properties":{"kind":"shelter","name":"Ailapur government primary school, School"},"geometry":{"type":"Point","coordinates":[92.18347,24.71974]}},{"type":"Feature","properties":{"kind":"shelter","name":"Shatma Model Government Primary School"},"geometry":{"type":"Point","coordinates":[92.19341,24.70688]}},{"type":"Feature","properties":{"kind":"shelter","name":"Shankarpur Hafizia Latifia Madrasa, Religious school"},"geometry":{"type":"Point","coordinates":[92.15606,24.73515]}},{"type":"Feature","properties":{"kind":"shelter","name":"Chandragram Government Primary School, School"},"geometry":{"type":"Point","coordinates":[92.16037,24.76438]}},{"type":"Feature","properties":{"kind":"shelter","name":"Sylhet Para Government Primary School, School"},"geometry":{"type":"Point","coordinates":[92.23198,24.87265]}},{"type":"Feature","properties":{"kind":"health","name":"Beanibazar Diabetic and Hormone Centre, Hospital"},"geometry":{"type":"Point","coordinates":[92.16098,24.82673]}},{"type":"Feature","properties":{"kind":"shelter","name":"Ghungadia Borodesh Girls High School, School"},"geometry":{"type":"Point","coordinates":[92.16891,24.8356]}},{"type":"Feature","properties":{"kind":"health","name":"New Life General Hospital, Hospital"},"geometry":{"type":"Point","coordinates":[92.16177,24.82793]}},{"type":"Feature","properties":{"kind":"shelter","name":"Mewa Government Primary School, Primary school"},"geometry":{"type":"Point","coordinates":[92.20353,24.87912]}},{"type":"Feature","properties":{"kind":"shelter","name":"Talimpur Government Primary School, Government school"},"geometry":{"type":"Point","coordinates":[92.16367,24.72723]}},{"type":"Feature","properties":{"kind":"shelter","name":"Uttar Dubagh Government Primary School, Primary school"},"geometry":{"type":"Point","coordinates":[92.21187,24.87634]}},{"type":"Feature","properties":{"kind":"shelter","name":"Lokman Chowdhury Academy, General education school"},"geometry":{"type":"Point","coordinates":[92.18842,24.86643]}},{"type":"Feature","properties":{"kind":"health","name":"Hill View Hospital, Hospital"},"geometry":{"type":"Point","coordinates":[92.16105,24.82369]}},{"type":"Feature","properties":{"kind":"shelter","name":"Poschim Shankarpur Primary School"},"geometry":{"type":"Point","coordinates":[92.1551,24.73478]}},{"type":"Feature","properties":{"kind":"health","name":"Beanibazar animal hospital, Hospital"},"geometry":{"type":"Point","coordinates":[92.1621,24.82986]}},{"type":"Feature","properties":{"kind":"shelter","name":"Mollapur Government Primary School, Primary school"},"geometry":{"type":"Point","coordinates":[92.16445,24.79768]}},{"type":"Feature","properties":{"kind":"shelter","name":"Dasher Bazar Government Primary School, School"},"geometry":{"type":"Point","coordinates":[92.15083,24.74401]}},{"type":"Feature","properties":{"kind":"shelter","name":"Al Amin Adarsha Bidda Niketon, Primary school"},"geometry":{"type":"Point","coordinates":[92.15518,24.77409]}},{"type":"Feature","properties":{"kind":"shelter","name":"Gaurinath Government Primary School, Primary school"},"geometry":{"type":"Point","coordinates":[92.15585,24.82159]}},{"type":"Feature","properties":{"kind":"health","name":"Ash-Shefa Medical Hall, Pharmacy"},"geometry":{"type":"Point","coordinates":[92.15682,24.77063]}},{"type":"Feature","properties":{"kind":"shelter","name":"Beanibazar Girls High School, School"},"geometry":{"type":"Point","coordinates":[92.15572,24.82146]}},{"type":"Feature","properties":{"kind":"shelter","name":"Dubag School And College, High school"},"geometry":{"type":"Point","coordinates":[92.20876,24.88294]}},{"type":"Feature","properties":{"kind":"shelter","name":"School"},"geometry":{"type":"Point","coordinates":[92.48925,25.23691]}},{"type":"Feature","properties":{"kind":"health"},"geometry":{"type":"Point","coordinates":[92.03863,24.52818]}},{"type":"Feature","properties":{"kind":"shelter"},"geometry":{"type":"Point","coordinates":[92.78695,24.75499]}},{"type":"Feature","properties":{"kind":"health","name":"Silchar Civil Hospital"},"geometry":{"type":"Point","coordinates":[92.79804,24.81821]}},{"type":"Feature","properties":{"kind":"shelter","name":"Govt Boys HS School"},"geometry":{"type":"Point","coordinates":[92.80294,24.82716]}},{"type":"Feature","properties":{"kind":"police","name":"Sadar Thana"},"geometry":{"type":"Point","coordinates":[92.80221,24.82344]}},{"type":"Feature","properties":{"kind":"health","name":"Silchar Medical College and Hospital"},"geometry":{"type":"Point","coordinates":[92.79764,24.77535]}},{"type":"Feature","properties":{"kind":"shelter","name":"Silchar Polytechnique"},"geometry":{"type":"Point","coordinates":[92.79447,24.78646]}},{"type":"Feature","properties":{"kind":"health","name":"Silchar Cancer Hopspital"},"geometry":{"type":"Point","coordinates":[92.79739,24.78881]}},{"type":"Feature","properties":{"kind":"shelter","name":"Holy Cross School"},"geometry":{"type":"Point","coordinates":[92.79875,24.80746]}},{"type":"Feature","properties":{"kind":"shelter","name":"Oriental School"},"geometry":{"type":"Point","coordinates":[92.79546,24.82214]}},{"type":"Feature","properties":{"kind":"health","name":"Mediland Hospital and Research Centre"},"geometry":{"type":"Point","coordinates":[92.80215,24.83673]}},{"type":"Feature","properties":{"kind":"shelter","name":"Bairagibazar High School Field"},"geometry":{"type":"Point","coordinates":[92.15927,24.85495]}},{"type":"Feature","properties":{"kind":"shelter","name":"The New Generation Ideal High School"},"geometry":{"type":"Point","coordinates":[92.1203,24.83442]}},{"type":"Feature","properties":{"kind":"shelter","name":"Dudbokshi Government Primary School"},"geometry":{"type":"Point","coordinates":[92.11546,24.83384]}},{"type":"Feature","properties":{"kind":"shelter","name":"Beanibazar Government College"},"geometry":{"type":"Point","coordinates":[92.15676,24.82128]}},{"type":"Feature","properties":{"kind":"police"},"geometry":{"type":"Point","coordinates":[92.15916,24.82512]}},{"type":"Feature","properties":{"kind":"health","name":"Beanibazar Hospital"},"geometry":{"type":"Point","coordinates":[92.16254,24.82846]}},{"type":"Feature","properties":{"kind":"health","name":"Beanibazar Cancer Hospital"},"geometry":{"type":"Point","coordinates":[92.15029,24.82227]}},{"type":"Feature","properties":{"kind":"police","name":"Jaintiapur Police Station"},"geometry":{"type":"Point","coordinates":[92.12275,25.13603]}},{"type":"Feature","properties":{"kind":"police","name":"Border Security Force"},"geometry":{"type":"Point","coordinates":[92.03193,25.18383]}},{"type":"Feature","properties":{"kind":"police","name":"Tamabil Immigration Police Check Post"},"geometry":{"type":"Point","coordinates":[92.03239,25.18306]}},{"type":"Feature","properties":{"kind":"shelter","name":"খাগড়া প্রাথমিক বিদ্যালয়।"},"geometry":{"type":"Point","coordinates":[92.07077,25.0369]}},{"type":"Feature","properties":{"kind":"health"},"geometry":{"type":"Point","coordinates":[92.15889,24.39019]}},{"type":"Feature","properties":{"kind":"health","name":"SubCentre, Tyrshang"},"geometry":{"type":"Point","coordinates":[92.16204,25.52974]}},{"type":"Feature","properties":{"kind":"police","name":"Zakiganj Police Station"},"geometry":{"type":"Point","coordinates":[92.36775,24.87574]}},{"type":"Feature","properties":{"kind":"shelter","name":"Nateshwar Primary School"},"geometry":{"type":"Point","coordinates":[92.17372,24.92355]}},{"type":"Feature","properties":{"kind":"shelter","name":"Central Jainta High School"},"geometry":{"type":"Point","coordinates":[92.11062,25.06465]}},{"type":"Feature","properties":{"kind":"shelter","name":"শাহবাগ হাই স্কুল এন্ড কলেজ"},"geometry":{"type":"Point","coordinates":[92.26661,24.96821]}},{"type":"Feature","properties":{"kind":"shelter","name":"৬৭ নং ব্রাহ্মণগ্রাম সরকারি প্রাথমিক বিদ্যালয়"},"geometry":{"type":"Point","coordinates":[92.42031,24.8735]}},{"type":"Feature","properties":{"kind":"shelter","name":"Kanaighat Ideal School"},"geometry":{"type":"Point","coordinates":[92.2563,25.00689]}},{"type":"Feature","properties":{"kind":"shelter","name":"Shahjalal Creative School"},"geometry":{"type":"Point","coordinates":[92.39122,24.97756]}},{"type":"Feature","properties":{"kind":"shelter","name":"রানাপিং আদর্শ উচ্চ বিদ্যালয় ও কলেজ"},"geometry":{"type":"Point","coordinates":[92.02828,24.87378]}},{"type":"Feature","properties":{"kind":"shelter","name":"July Adarsha High School"},"geometry":{"type":"Point","coordinates":[92.3012,24.9986]}},{"type":"Feature","properties":{"kind":"shelter","name":"Hafsa Majumder Mohila College"},"geometry":{"type":"Point","coordinates":[92.38845,24.86633]}},{"type":"Feature","properties":{"kind":"shelter","name":"দত্ত গ্রাম সরকারি প্রাথমিক বিদ্যালয়"},"geometry":{"type":"Point","coordinates":[92.1907,24.89782]}},{"type":"Feature","properties":{"kind":"health","name":"মতিন ডাক্তার হাসপাতাল"},"geometry":{"type":"Point","coordinates":[92.45694,24.91414]}},{"type":"Feature","properties":{"kind":"shelter","name":"Poilgram Government Primary School"},"geometry":{"type":"Point","coordinates":[92.20564,24.92873]}},{"type":"Feature","properties":{"kind":"shelter","name":"পাঁচপীর হাফিজিয়া মাদরাসা"},"geometry":{"type":"Point","coordinates":[92.14934,24.97194]}},{"type":"Feature","properties":{"kind":"shelter","name":"কমর উদ্দিন চৌধুরি উচ্চ বিদ্যালয়"},"geometry":{"type":"Point","coordinates":[92.44748,24.95974]}},{"type":"Feature","properties":{"kind":"shelter","name":"Icchamoti Degree College"},"geometry":{"type":"Point","coordinates":[92.41469,24.95265]}},{"type":"Feature","properties":{"kind":"shelter","name":"July Jamia Islamia Madrasa"},"geometry":{"type":"Point","coordinates":[92.30117,24.9917]}},{"type":"Feature","properties":{"kind":"shelter","name":"কেরাইয়া সরকারি প্রাথমিক বিদ্যালয়"},"geometry":{"type":"Point","coordinates":[92.40562,24.91254]}},{"type":"Feature","properties":{"kind":"shelter","name":"Chariya Government Primary School"},"geometry":{"type":"Point","coordinates":[92.21092,24.89356]}},{"type":"Feature","properties":{"kind":"shelter","name":"মাতারগ্রাম সরকারি প্রাথমিক বিদ্যালয়"},"geometry":{"type":"Point","coordinates":[92.44002,24.96013]}},{"type":"Feature","properties":{"kind":"shelter","name":"মালিক-নাহার মেমোরিয়াল একাডেমী"},"geometry":{"type":"Point","coordinates":[92.34604,24.99002]}},{"type":"Feature","properties":{"kind":"shelter","name":"কুশিয়ারা আদর্শ উচ্চ বিদ্যালয়"},"geometry":{"type":"Point","coordinates":[92.21515,24.89834]}},{"type":"Feature","properties":{"kind":"shelter","name":"মুমিনপুর সরকারী প্রাথমিক বিদ্যালয়"},"geometry":{"type":"Point","coordinates":[92.40342,24.86146]}},{"type":"Feature","properties":{"kind":"shelter","name":"হাড়িকান্দি সরকারী প্রাথমিক বিদ্যালয়"},"geometry":{"type":"Point","coordinates":[92.38962,24.95742]}},{"type":"Feature","properties":{"kind":"shelter","name":"মামর খানী সরকারী প্রাথমিক বিদ্যালয়"},"geometry":{"type":"Point","coordinates":[92.4748,24.91725]}},{"type":"Feature","properties":{"kind":"shelter","name":"Tahiriya Salafiya Dakhil Madrasah"},"geometry":{"type":"Point","coordinates":[92.12152,24.94591]}},{"type":"Feature","properties":{"kind":"shelter","name":"ফাগু বাঁশবাড়ী সরকারি প্রাথমিক বিদ্যালয়"},"geometry":{"type":"Point","coordinates":[92.12271,24.9465]}},{"type":"Feature","properties":{"kind":"shelter","name":"৬০ নং এলংজুরী সরকারি প্রাথমিক বিদ্যালয়"},"geometry":{"type":"Point","coordinates":[92.41874,24.87923]}},{"type":"Feature","properties":{"kind":"shelter","name":"নছিব আলী মাদ্রাসা"},"geometry":{"type":"Point","coordinates":[92.42072,24.88148]}},{"type":"Feature","properties":{"kind":"shelter","name":"আটগ্রাম সরকারি প্রাথমিক বিদ্যালয়"},"geometry":{"type":"Point","coordinates":[92.39819,24.98682]}},{"type":"Feature","properties":{"kind":"shelter","name":"বিয়াবাইল সরকারী প্রাথমিক বিদ্যালয়"},"geometry":{"type":"Point","coordinates":[92.45314,24.91802]}},{"type":"Feature","properties":{"kind":"shelter","name":"শহিদ জমশেদ আলি ইসলামিক একাডেমি"},"geometry":{"type":"Point","coordinates":[92.45211,24.91828]}},{"type":"Feature","properties":{"kind":"shelter","name":"Barohal Degree College"},"geometry":{"type":"Point","coordinates":[92.22962,24.94199]}},{"type":"Feature","properties":{"kind":"shelter","name":"Moricha Government primary school"},"geometry":{"type":"Point","coordinates":[92.41134,24.97929]}},{"type":"Feature","properties":{"kind":"shelter","name":"মির্জারচক সরকারি প্রাথমিক বিদ্যালয়"},"geometry":{"type":"Point","coordinates":[92.41768,24.91899]}},{"type":"Feature","properties":{"kind":"shelter","name":"Gachbari Summit Madrasah"},"geometry":{"type":"Point","coordinates":[92.15545,24.95006]}},{"type":"Feature","properties":{"kind":"shelter","name":"Gachhbari Jamiul Ulum Kamil (MA) Madrasah"},"geometry":{"type":"Point","coordinates":[92.15686,24.95035]}},{"type":"Feature","properties":{"kind":"shelter","name":"Gachhbari Ideal College"},"geometry":{"type":"Point","coordinates":[92.1558,24.95211]}},{"type":"Feature","properties":{"kind":"shelter","name":"শাহবাগ সরকারী প্রাথমিক বিদ্যালয়"},"geometry":{"type":"Point","coordinates":[92.26434,24.96768]}},{"type":"Feature","properties":{"kind":"shelter","name":"Zakiganj Senior Fazil Madrasa"},"geometry":{"type":"Point","coordinates":[92.36646,24.87765]}},{"type":"Feature","properties":{"kind":"shelter","name":"Hatidhohor government primary school"},"geometry":{"type":"Point","coordinates":[92.4384,24.92825]}},{"type":"Feature","properties":{"kind":"shelter"},"geometry":{"type":"Point","coordinates":[92.16114,24.80343]}},{"type":"Feature","properties":{"kind":"shelter","name":"Zakiganj Govt Girls High School"},"geometry":{"type":"Point","coordinates":[92.36831,24.87771]}},{"type":"Feature","properties":{"kind":"shelter","name":"সর্দারের মাটি সরকারি প্রাথমিক বিদ্যালয়"},"geometry":{"type":"Point","coordinates":[92.32663,24.98615]}},{"type":"Feature","properties":{"kind":"fire","name":"Zakiganj Fire Service"},"geometry":{"type":"Point","coordinates":[92.36482,24.88714]}},{"type":"Feature","properties":{"kind":"shelter"},"geometry":{"type":"Point","coordinates":[92.12024,24.60125]}},{"type":"Feature","properties":{"kind":"shelter","name":"লোহাজুরী সরকারি প্রাথমিক বিদ্যালয়"},"geometry":{"type":"Point","coordinates":[92.37938,25.0323]}},{"type":"Feature","properties":{"kind":"shelter","name":"লোহাজুরী বিদ্যানিকেতন"},"geometry":{"type":"Point","coordinates":[92.3792,25.03256]}},{"type":"Feature","properties":{"kind":"shelter","name":"হযরত ফাতাহ শাহ রহ দাখিল মাদরাসা,"},"geometry":{"type":"Point","coordinates":[92.38098,24.99907]}},{"type":"Feature","properties":{"kind":"shelter","name":"Kaskanakpur Gajir Mukam Dhakil Madrasah"},"geometry":{"type":"Point","coordinates":[92.45296,24.93755]}},{"type":"Feature","properties":{"kind":"shelter","name":"Husnabad Govt Primary School"},"geometry":{"type":"Point","coordinates":[92.38059,24.88335]}},{"type":"Feature","properties":{"kind":"shelter","name":"Darul Azkar Madrasah & Islamic Cultural Centre"},"geometry":{"type":"Point","coordinates":[92.4352,24.94141]}},{"type":"Feature","properties":{"kind":"shelter","name":"দুপড়ীরপার সরকারি প্রাথমিক বিদ্যালয়।"},"geometry":{"type":"Point","coordinates":[92.33792,24.9077]}},{"type":"Feature","properties":{"kind":"shelter","name":"ছবড়িয়া সরকারি প্রাথমিক বিদ্যালয়"},"geometry":{"type":"Point","coordinates":[92.38075,24.87175]}},{"type":"Feature","properties":{"kind":"shelter","name":"সদরপুর সরকারী প্রাথমিক বিদ্যালয়।"},"geometry":{"type":"Point","coordinates":[92.37505,24.90479]}},{"type":"Feature","properties":{"kind":"shelter","name":"Universal school Kanaighat"},"geometry":{"type":"Point","coordinates":[92.25608,25.00574]}},{"type":"Feature","properties":{"kind":"shelter","name":"Rowland's Memorial High School"},"geometry":{"type":"Point","coordinates":[92.35472,24.86739]}},{"type":"Feature","properties":{"kind":"police","name":"S.P. Office Karimganj."},"geometry":{"type":"Point","coordinates":[92.35636,24.86892]}},{"type":"Feature","properties":{"kind":"shelter","name":"আমলসীদ মহিলা মাদ্রাসা"},"geometry":{"type":"Point","coordinates":[92.48324,24.87975]}},{"type":"Feature","properties":{"kind":"shelter","name":"Jhingabari Fazil (Degree) Madrasah"},"geometry":{"type":"Point","coordinates":[92.13929,24.92111]}},{"type":"Feature","properties":{"kind":"shelter","name":"পাকড়ি সরকারি প্রাথমিক বিদ্যালয়"},"geometry":{"type":"Point","coordinates":[92.10988,25.0649]}},{"type":"Feature","properties":{"kind":"shelter","name":"হযরত শাহ বদল (রহ:) মতিনিয়া হিফজুল কুরআন ক্যাডেট মাদরাসা"},"geometry":{"type":"Point","coordinates":[92.41928,24.86934]}},{"type":"Feature","properties":{"kind":"shelter","name":"Zakigonj Govt College"},"geometry":{"type":"Point","coordinates":[92.3676,24.8886]}},{"type":"Feature","properties":{"kind":"shelter","name":"সুরানন্দপুর প্রাথমিক বিদ্যালয়"},"geometry":{"type":"Point","coordinates":[92.4647,24.96261]}},{"type":"Feature","properties":{"kind":"shelter","name":"Indra Kumari Girls' Higher Secondary School"},"geometry":{"type":"Point","coordinates":[92.56538,24.68044]}},{"type":"Feature","properties":{"kind":"shelter"},"geometry":{"type":"Point","coordinates":[92.10461,25.2871]}},{"type":"Feature","properties":{"kind":"shelter","name":"Gonipur Kamalganj School & College"},"geometry":{"type":"Point","coordinates":[92.45082,24.88001]}},{"type":"Feature","properties":{"kind":"shelter","name":"86 No Koshkonokpur Government Primary School"},"geometry":{"type":"Point","coordinates":[92.45518,24.9285]}},{"type":"Feature","properties":{"kind":"shelter","name":"মুলিকান্দি সরকারি প্রাথমিক বিদ্যালয়"},"geometry":{"type":"Point","coordinates":[92.40581,24.90585]}},{"type":"Feature","properties":{"kind":"shelter","name":"মইয়াখালী সরকারী প্রাথমিক বিদ্যালয়"},"geometry":{"type":"Point","coordinates":[92.22636,24.90468]}},{"type":"Feature","properties":{"kind":"health"},"geometry":{"type":"Point","coordinates":[92.03844,24.52801]}},{"type":"Feature","properties":{"kind":"shelter","name":"Luthfur-Nehar Memorial Girls Schoool"},"geometry":{"type":"Point","coordinates":[92.10414,24.88762]}},{"type":"Feature","properties":{"kind":"shelter","name":"জমশেদ আহমদ উচ্চ বিদ্যালয়"},"geometry":{"type":"Point","coordinates":[92.18174,24.923]}},{"type":"Feature","properties":{"kind":"shelter","name":"রাশিদিয়া বালিকা দাখিল মাদ্রাসা"},"geometry":{"type":"Point","coordinates":[92.4764,24.89846]}},{"type":"Feature","properties":{"kind":"shelter","name":"kazirpara, uttorkul govet praimery school."},"geometry":{"type":"Point","coordinates":[92.48235,24.90456]}},{"type":"Feature","properties":{"kind":"shelter","name":"কলাকুটা সরকারি প্রথমিক বিদ্যালয়"},"geometry":{"type":"Point","coordinates":[92.43436,24.94336]}},{"type":"Feature","properties":{"kind":"shelter","name":"কুওরঘড়ি ইসলামিয়া মাদ্রাসা"},"geometry":{"type":"Point","coordinates":[92.27596,25.02965]}},{"type":"Feature","properties":{"kind":"shelter","name":"কুওরঘরি সরকারি প্রাথমিক বিদ্যালয়"},"geometry":{"type":"Point","coordinates":[92.27364,25.03019]}},{"type":"Feature","properties":{"kind":"shelter","name":"Haji Abdul Aziz Tapadar Girls Academy"},"geometry":{"type":"Point","coordinates":[92.45474,24.879]}},{"type":"Feature","properties":{"kind":"shelter","name":"No. 110 Shah Sharif Government Primary School"},"geometry":{"type":"Point","coordinates":[92.46038,24.87886]}},{"type":"Feature","properties":{"kind":"shelter","name":"চাঁন্দপুর সরকারি প্রাথমিক বিদ্যালয়"},"geometry":{"type":"Point","coordinates":[92.4308,24.90407]}},{"type":"Feature","properties":{"kind":"shelter","name":"তিরাশী সরঃ প্রাঃ বিদ্যালয়"},"geometry":{"type":"Point","coordinates":[92.4167,24.90539]}},{"type":"Feature","properties":{"kind":"shelter","name":"লক্ষীরায়েরচক সরকারি প্রাথমিক বিদ্যালয়"},"geometry":{"type":"Point","coordinates":[92.4836,24.93476]}},{"type":"Feature","properties":{"kind":"shelter","name":"হাজী আব্দুল খালিক মহিলা দাখিল মাদ্রাসা"},"geometry":{"type":"Point","coordinates":[92.14456,24.9295]}},{"type":"Feature","properties":{"kind":"shelter","name":"গনিকান্দী লামার তালুক দারুস সুন্নাহ মাদ্রাসা"},"geometry":{"type":"Point","coordinates":[92.14542,24.97716]}},{"type":"Feature","properties":{"kind":"shelter","name":"জিনিয়াস বিদ্যা নিকেতন"},"geometry":{"type":"Point","coordinates":[92.1458,24.97779]}},{"type":"Feature","properties":{"kind":"shelter","name":"জকিগঞ্জ গার্লস হাইস্কুল"},"geometry":{"type":"Point","coordinates":[92.36461,24.88112]}},{"type":"Feature","properties":{"kind":"shelter","name":"সুরইঘাট শাহজালাল একাডেমী"},"geometry":{"type":"Point","coordinates":[92.25617,25.05903]}},{"type":"Feature","properties":{"kind":"fire","name":"Kanaighat Fire Service Station"},"geometry":{"type":"Point","coordinates":[92.25221,25.0169]}},{"type":"Feature","properties":{"kind":"shelter","name":"Kanaighat Women College"},"geometry":{"type":"Point","coordinates":[92.25725,25.0156]}},{"type":"Feature","properties":{"kind":"shelter","name":"Luthfur Rahman High School"},"geometry":{"type":"Point","coordinates":[92.39025,24.97853]}},{"type":"Feature","properties":{"kind":"health","name":"কসকনকপুর কমিটি ক্লিনিক"},"geometry":{"type":"Point","coordinates":[92.45614,24.93853]}},{"type":"Feature","properties":{"kind":"shelter","name":"টগর ঠাকুর সরকারি প্রাথমিক বিদ্যালয়"},"geometry":{"type":"Point","coordinates":[92.45311,24.93809]}},{"type":"Feature","properties":{"kind":"shelter","name":"Chotolikha Government Primary School"},"geometry":{"type":"Point","coordinates":[92.19809,24.7227]}},{"type":"Feature","properties":{"kind":"shelter","name":"Kendriya Vidyalaya"},"geometry":{"type":"Point","coordinates":[93.01409,25.18691]}},{"type":"Feature","properties":{"kind":"shelter","name":"Government V.M H.S School"},"geometry":{"type":"Point","coordinates":[92.56293,24.68526]}},{"type":"Feature","properties":{"kind":"shelter"},"geometry":{"type":"Point","coordinates":[92.26177,24.90532]}},{"type":"Feature","properties":{"kind":"shelter","name":"Jatinga LP School"},"geometry":{"type":"Point","coordinates":[93.025,25.12813]}},{"type":"Feature","properties":{"kind":"shelter","name":"Jatinga High School"},"geometry":{"type":"Point","coordinates":[93.02488,25.12765]}},{"type":"Feature","properties":{"kind":"shelter","name":"Synod School"},"geometry":{"type":"Point","coordinates":[93.01398,25.17451]}},{"type":"Feature","properties":{"kind":"shelter"},"geometry":{"type":"Point","coordinates":[93.01468,25.16977]}},{"type":"Feature","properties":{"kind":"shelter"},"geometry":{"type":"Point","coordinates":[93.01681,25.18331]}},{"type":"Feature","properties":{"kind":"shelter"},"geometry":{"type":"Point","coordinates":[93.00393,25.19007]}},{"type":"Feature","properties":{"kind":"shelter","name":"Govt. Boys Higher Secondary School"},"geometry":{"type":"Point","coordinates":[93.01472,25.16132]}},{"type":"Feature","properties":{"kind":"shelter","name":"Hills Degree College"},"geometry":{"type":"Point","coordinates":[93.01268,25.16912]}},{"type":"Feature","properties":{"kind":"shelter","name":"Saint Agnes Convent School"},"geometry":{"type":"Point","coordinates":[93.01157,25.16783]}},{"type":"Feature","properties":{"kind":"health","name":"Holy Spirit Hospital"},"geometry":{"type":"Point","coordinates":[93.01281,25.16671]}},{"type":"Feature","properties":{"kind":"shelter","name":"Sengya Sambhudan College"},"geometry":{"type":"Point","coordinates":[93.01474,25.18263]}},{"type":"Feature","properties":{"kind":"shelter","name":"Longmang High School"},"geometry":{"type":"Point","coordinates":[93.00777,25.18135]}},{"type":"Feature","properties":{"kind":"shelter","name":"Bikamchand balika vidyaniketan"},"geometry":{"type":"Point","coordinates":[92.37002,24.86866]}},{"type":"Feature","properties":{"kind":"shelter","name":"Bhanga Higher Secondary School"},"geometry":{"type":"Point","coordinates":[92.4781,24.85837]}},{"type":"Feature","properties":{"kind":"shelter"},"geometry":{"type":"Point","coordinates":[92.16347,24.64005]}},{"type":"Feature","properties":{"kind":"shelter"},"geometry":{"type":"Point","coordinates":[92.1315,24.61553]}},{"type":"Feature","properties":{"kind":"health"},"geometry":{"type":"Point","coordinates":[92.1269,24.60754]}},{"type":"Feature","properties":{"kind":"health"},"geometry":{"type":"Point","coordinates":[92.12672,24.60768]}},{"type":"Feature","properties":{"kind":"health"},"geometry":{"type":"Point","coordinates":[92.11655,24.59924]}},{"type":"Feature","properties":{"kind":"shelter","name":"St. Vincent School"},"geometry":{"type":"Point","coordinates":[92.53918,24.18204]}},{"type":"Feature","properties":{"kind":"shelter"},"geometry":{"type":"Point","coordinates":[92.45825,25.20285]}}]}