{"type":"FeatureCollection","country":"Colombia","features":[{"type":"Feature","properties":{"district":"Caldas","name":"Caldas","severity":"high"},"geometry":{"type":"Polygon","coordinates":[[[-75.867,5.488],[-75.86,5.373],[-75.726,5.397],[-75.635,5.316],[-75.692,5.256],[-75.748,5.284],[-75.823,5.27],[-75.802,5.202],[-75.836,5.115],[-75.889,5.129],[-75.913,5.084],[-75.896,4.963],[-75.815,4.919],[-75.748,5.046],[-75.699,4.944],[-75.639,4.976],[-75.618,4.932],[-75.481,4.917],[-75.427,4.818],[-75.375,4.804],[-75.322,4.872],[-75.352,4.934],[-75.317,5.005],[-75.343,5.082],[-75.288,5.138],[-75.116,5.16],[-75.056,5.275],[-75.01,5.294],[-74.827,5.319],[-74.734,5.286],[-74.652,5.443],[-74.674,5.512],[-74.64,5.539],[-74.623,5.697],[-74.681,5.779],[-74.774,5.689],[-74.865,5.748],[-74.993,5.716],[-75.014,5.679],[-75.094,5.656],[-75.092,5.584],[-75.137,5.527],[-75.219,5.503],[-75.276,5.419],[-75.281,5.477],[-75.317,5.47],[-75.341,5.603],[-75.383,5.622],[-75.376,5.674],[-75.427,5.696],[-75.478,5.663],[-75.6,5.739],[-75.57,5.521],[-75.686,5.525],[-75.731,5.564],[-75.867,5.488]]]}},{"type":"Feature","properties":{"district":"Meta","name":"Meta"},"geometry":{"type":"Polygon","coordinates":[[[-74.934,2.907],[-74.795,2.933],[-74.766,2.877],[-74.677,2.89],[-74.666,2.811],[-74.617,2.748],[-74.638,2.704],[-74.59,2.66],[-74.686,2.546],[-74.651,2.496],[-74.727,2.355],[-74.733,2.273],[-74.677,2.285],[-74.657,2.212],[-74.59,2.195],[-74.609,2.071],[-74.565,1.849],[-74.27,1.754],[-74.215,1.767],[-74.206,1.715],[-74.112,1.696],[-74.091,1.642],[-74,1.658],[-73.979,1.601],[-73.944,1.645],[-73.858,1.658],[-73.659,1.615],[-73.656,2.295],[-73.629,2.296],[-73.616,2.378],[-73.585,2.39],[-73.572,2.355],[-73.528,2.388],[-73.511,2.333],[-73.5,2.359],[-73.447,2.342],[-73.442,2.388],[-73.438,2.327],[-73.414,2.356],[-73.378,2.326],[-73.357,2.369],[-73.355,2.324],[-73.332,2.361],[-73.301,2.336],[-73.24,2.349],[-73.268,2.38],[-73.217,2.406],[-73.2,2.383],[-73.168,2.4],[-73.162,2.365],[-73.124,2.379],[-73.124,2.412],[-73.109,2.381],[-73.065,2.428],[-73.033,2.412],[-72.965,2.449],[-72.963,2.48],[-72.934,2.465],[-72.955,2.517],[-72.821,2.612],[-72.745,2.569],[-72.683,2.623],[-72.651,2.572],[-72.615,2.626],[-72.589,2.583],[-72.584,2.646],[-72.535,2.703],[-72.47,2.689],[-72.467,2.734],[-72.406,2.725],[-72.32,2.799],[-72.276,2.777],[-72.258,2.824],[-72.192,2.772],[-72.204,2.863],[-72.135,2.889],[-72.079,2.822],[-72.004,2.829],[-71.983,2.801],[-71.944,2.832],[-71.829,2.837],[-71.822,2.868],[-71.851,2.87],[-71.824,2.878],[-71.788,2.867],[-71.781,2.817],[-71.763,2.897],[-71.701,2.839],[-71.659,2.87],[-71.673,2.824],[-71.647,2.818],[-71.575,2.845],[-71.582,2.873],[-71.47,2.853],[-71.464,2.899],[-71.394,2.846],[-71.359,2.89],[-71.349,2.858],[-71.319,2.925],[-71.288,2.868],[-71.224,2.865],[-71.185,2.904],[-71.153,2.872],[-71.136,2.902],[-71.077,2.882],[-71.078,4.925],[-71.214,4.816],[-71.576,4.676],[-71.733,4.576],[-71.808,4.583],[-71.983,4.388],[-72.055,4.376],[-72.141,4.44],[-72.237,4.435],[-72.405,4.319],[-72.43,4.355],[-72.471,4.317],[-72.526,4.345],[-72.573,4.336],[-72.57,4.304],[-72.675,4.317],[-72.697,4.286],[-72.742,4.309],[-72.811,4.431],[-72.89,4.473],[-73.037,4.665],[-73.051,4.737],[-73.136,4.215],[-73.203,4.274],[-73.351,4.321],[-73.468,4.278],[-73.543,4.304],[-73.604,4.462],[-73.567,4.525],[-73.62,4.56],[-73.661,4.545],[-73.812,4.408],[-73.742,4.2],[-73.811,4.202],[-73.934,4.148],[-73.971,4.097],[-74.024,4.102],[-74.034,4.062],[-74.128,4.001],[-74.218,4.008],[-74.319,3.879],[-74.297,3.819],[-74.337,3.823],[-74.393,3.772],[-74.554,3.535],[-74.634,3.469],[-74.616,3.326],[-74.67,3.201],[-74.934,2.907]]]}},{"type":"Feature","properties":{"district":"Cundinamarca","name":"Cundinamarca","severity":"medium"},"geometry":{"type":"Polygon","coordinates":[[[-74.734,5.286],[-74.717,5.093],[-74.743,5.007],[-74.707,4.981],[-74.75,4.954],[-74.732,4.893],[-74.769,4.842],[-74.744,4.79],[-74.82,4.724],[-74.787,4.654],[-74.817,4.613],[-74.787,4.506],[-74.891,4.29],[-74.876,4.266],[-74.779,4.284],[-74.655,4.198],[-74.589,4.267],[-74.521,4.24],[-74.475,4.116],[-74.528,4.044],[-74.513,3.935],[-74.539,3.845],[-74.451,3.81],[-74.452,3.724],[-74.364,3.899],[-74.374,3.986],[-74.329,4.13],[-74.257,4.089],[-74.244,4.198],[-74.204,4.242],[-74.218,4.378],[-74.16,4.508],[-74.221,4.645],[-74.159,4.663],[-74.177,4.703],[-74.126,4.729],[-74.081,4.835],[-74,4.806],[-74.003,4.675],[-74.033,4.636],[-73.997,4.602],[-74.112,4.433],[-74.098,4.351],[-74.151,4.254],[-74.107,4.138],[-74.144,4.003],[-74.034,4.062],[-74.024,4.102],[-73.971,4.097],[-73.933,4.148],[-73.811,4.202],[-73.743,4.199],[-73.812,4.408],[-73.713,4.513],[-73.62,4.56],[-73.567,4.525],[-73.604,4.462],[-73.543,4.304],[-73.468,4.278],[-73.351,4.321],[-73.203,4.274],[-73.136,4.215],[-73.051,4.737],[-73.105,4.661],[-73.221,4.678],[-73.223,4.731],[-73.305,4.731],[-73.402,4.879],[-73.538,4.895],[-73.523,5.03],[-73.479,5.055],[-73.478,5.148],[-73.511,5.162],[-73.533,5.281],[-73.602,5.318],[-73.593,5.399],[-73.771,5.489],[-73.805,5.574],[-73.908,5.526],[-73.899,5.449],[-74.023,5.365],[-74.097,5.47],[-74.125,5.433],[-74.201,5.497],[-74.254,5.487],[-74.244,5.545],[-74.315,5.623],[-74.277,5.695],[-74.335,5.837],[-74.433,5.76],[-74.511,5.794],[-74.595,5.746],[-74.657,5.754],[-74.623,5.697],[-74.64,5.539],[-74.674,5.512],[-74.652,5.444],[-74.734,5.286]]]}},{"type":"Feature","properties":{"district":"Tolima","name":"Tolima","severity":"medium"},"geometry":{"type":"Polygon","coordinates":[[[-75.375,4.804],[-75.421,4.61],[-75.515,4.556],[-75.525,4.496],[-75.578,4.454],[-75.597,4.279],[-75.747,4.095],[-75.739,4.054],[-75.792,4.008],[-75.81,3.924],[-75.994,3.638],[-75.985,3.56],[-76.059,3.354],[-76.039,3.251],[-76.091,3.2],[-76.073,3.123],[-76.109,3.104],[-76.022,3.003],[-76.032,2.941],[-75.989,2.982],[-75.955,2.918],[-75.856,2.871],[-75.801,2.886],[-75.694,2.995],[-75.622,3.009],[-75.577,3.225],[-75.478,3.361],[-75.442,3.347],[-75.32,3.42],[-75.253,3.367],[-75.229,3.415],[-75.184,3.382],[-75.148,3.435],[-75.061,3.432],[-75.034,3.386],[-75.059,3.381],[-75.072,3.296],[-74.908,3.29],[-74.765,3.443],[-74.782,3.5],[-74.728,3.554],[-74.739,3.59],[-74.537,3.818],[-74.512,3.949],[-74.53,4.037],[-74.475,4.116],[-74.521,4.24],[-74.589,4.267],[-74.655,4.198],[-74.779,4.284],[-74.876,4.266],[-74.891,4.29],[-74.787,4.506],[-74.817,4.613],[-74.787,4.654],[-74.82,4.724],[-74.744,4.79],[-74.769,4.842],[-74.732,4.893],[-74.75,4.954],[-74.707,4.981],[-74.743,5.007],[-74.717,5.093],[-74.734,5.286],[-74.827,5.319],[-75.01,5.294],[-75.056,5.275],[-75.116,5.16],[-75.288,5.138],[-75.343,5.082],[-75.317,5.005],[-75.352,4.934],[-75.322,4.872],[-75.375,4.804]]]}},{"type":"Feature","properties":{"district":"Antioquia","name":"Antioquia","severity":"medium"},"geometry":{"type":"MultiPolygon","coordinates":[[[[-74.658,5.775],[-74.637,5.873],[-74.586,5.899],[-74.611,5.971],[-74.561,6.002],[-74.561,6.076],[-74.602,6.095],[-74.608,6.138],[-74.539,6.266],[-74.466,6.313],[-74.428,6.389],[-74.368,6.409],[-74.405,6.469],[-74.4,6.591],[-74.17,6.729],[-73.884,7.004],[-73.939,7.174],[-73.913,7.298],[-74.244,7.004],[-74.355,7.011],[-74.352,7.082],[-74.409,7.202],[-74.401,7.339],[-74.342,7.426],[-74.372,7.479],[-74.412,7.461],[-74.412,7.391],[-74.489,7.343],[-74.598,7.461],[-74.562,7.645],[-74.491,7.662],[-74.461,7.724],[-74.525,7.782],[-74.521,7.904],[-74.603,8.037],[-74.812,8.144],[-74.831,8.199],[-74.876,8.198],[-74.88,8.139],[-74.931,8.074],[-74.968,8.094],[-75.046,8.052],[-75.224,8.06],[-75.336,7.95],[-75.351,7.884],[-75.454,7.834],[-75.492,7.725],[-75.557,7.694],[-75.603,7.582],[-75.759,7.605],[-75.841,7.363],[-76.384,7.392],[-76.51,7.584],[-76.495,7.75],[-76.42,7.91],[-76.416,8.071],[-76.345,8.174],[-76.321,8.276],[-76.191,8.392],[-76.222,8.572],[-76.283,8.649],[-76.341,8.646],[-76.366,8.719],[-76.415,8.753],[-76.385,8.791],[-76.414,8.89],[-76.515,8.78],[-76.63,8.731],[-76.649,8.671],[-76.885,8.622],[-76.938,8.545],[-76.829,8.5],[-76.759,8.398],[-76.774,8.266],[-76.743,8.065],[-76.729,8.091],[-76.715,8.063],[-76.726,7.982],[-76.765,7.911],[-76.923,7.918],[-76.924,8.027],[-76.892,8.046],[-76.842,8.019],[-76.875,8.052],[-76.83,8.049],[-76.873,8.069],[-76.829,8.091],[-76.853,8.122],[-76.807,8.129],[-76.893,8.132],[-76.931,8.091],[-76.95,8.145],[-76.911,8.179],[-76.94,8.18],[-76.928,8.208],[-76.957,8.185],[-76.968,8.244],[-76.943,8.249],[-76.979,8.256],[-76.95,8.171],[-76.955,8.12],[-76.977,8.132],[-76.986,8.106],[-76.955,8.042],[-76.994,8.024],[-77.031,7.88],[-77.095,7.824],[-77.126,7.831],[-77.123,7.789],[-76.987,7.632],[-76.829,7.521],[-76.717,7.368],[-76.533,7.258],[-76.483,7.133],[-76.508,7.139],[-76.572,6.978],[-76.594,7.012],[-76.676,7.028],[-76.83,7.003],[-76.791,6.867],[-76.831,6.858],[-76.819,6.835],[-76.916,6.846],[-76.973,6.809],[-76.933,6.711],[-76.962,6.679],[-76.928,6.649],[-76.9,6.67],[-76.91,6.63],[-76.859,6.619],[-76.893,6.568],[-76.853,6.561],[-76.82,6.487],[-76.799,6.507],[-76.767,6.477],[-76.795,6.445],[-76.763,6.433],[-76.795,6.421],[-76.766,6.39],[-76.79,6.322],[-76.724,6.237],[-76.719,6.173],[-76.584,6.193],[-76.42,6.166],[-76.238,6.209],[-76.165,6.007],[-76.112,6.021],[-76.067,5.978],[-76.099,5.842],[-76.066,5.754],[-76.087,5.689],[-76.005,5.622],[-75.983,5.519],[-75.906,5.48],[-75.831,5.488],[-75.731,5.564],[-75.686,5.525],[-75.57,5.521],[-75.6,5.739],[-75.478,5.663],[-75.427,5.696],[-75.376,5.674],[-75.383,5.622],[-75.341,5.603],[-75.317,5.47],[-75.281,5.477],[-75.276,5.419],[-75.219,5.503],[-75.137,5.527],[-75.092,5.584],[-75.094,5.656],[-75.014,5.679],[-74.993,5.715],[-74.865,5.748],[-74.774,5.689],[-74.739,5.701],[-74.712,5.775],[-74.658,5.775]]],[[[-76.921,8.196],[-76.926,8.193],[-76.929,8.188],[-76.931,8.183],[-76.932,8.181],[-76.928,8.179],[-76.925,8.18],[-76.922,8.182],[-76.918,8.182],[-76.912,8.181],[-76.913,8.182],[-76.913,8.184],[-76.913,8.186],[-76.913,8.188],[-76.913,8.193],[-76.918,8.194],[-76.92,8.194],[-76.921,8.196]]]]}},{"type":"Feature","properties":{"district":"Bolívar","name":"Bolívar"},"geometry":{"type":"MultiPolygon","coordinates":[[[[-76.19,9.384],[-76.19,9.384],[-76.19,9.384],[-76.19,9.384],[-76.189,9.383],[-76.188,9.384],[-76.187,9.382],[-76.187,9.381],[-76.186,9.381],[-76.186,9.38],[-76.185,9.38],[-76.184,9.38],[-76.184,9.38],[-76.183,9.38],[-76.183,9.379],[-76.182,9.379],[-76.182,9.379],[-76.181,9.378],[-76.181,9.378],[-76.181,9.378],[-76.181,9.378],[-76.18,9.378],[-76.179,9.378],[-76.179,9.378],[-76.178,9.379],[-76.178,9.379],[-76.177,9.38],[-76.177,9.38],[-76.176,9.381],[-76.176,9.381],[-76.176,9.381],[-76.176,9.381],[-76.177,9.382],[-76.177,9.382],[-76.176,9.382],[-76.176,9.383],[-76.176,9.383],[-76.176,9.383],[-76.176,9.383],[-76.177,9.385],[-76.177,9.386],[-76.176,9.386],[-76.176,9.387],[-76.176,9.387],[-76.176,9.387],[-76.175,9.388],[-76.175,9.388],[-76.174,9.388],[-76.174,9.388],[-76.174,9.387],[-76.174,9.387],[-76.173,9.387],[-76.173,9.388],[-76.173,9.388],[-76.173,9.388],[-76.173,9.388],[-76.173,9.388],[-76.174,9.389],[-76.174,9.389],[-76.174,9.389],[-76.174,9.389],[-76.174,9.389],[-76.174,9.389],[-76.174,9.389],[-76.174,9.389],[-76.174,9.39],[-76.174,9.39],[-76.174,9.39],[-76.174,9.39],[-76.174,9.391],[-76.174,9.391],[-76.174,9.392],[-76.174,9.391],[-76.174,9.391],[-76.174,9.392],[-76.174,9.392],[-76.174,9.392],[-76.174,9.392],[-76.174,9.392],[-76.174,9.392],[-76.174,9.392],[-76.174,9.393],[-76.174,9.393],[-76.174,9.393],[-76.174,9.393],[-76.174,9.393],[-76.175,9.394],[-76.174,9.394],[-76.174,9.395],[-76.174,9.395],[-76.174,9.395],[-76.175,9.395],[-76.174,9.396],[-76.174,9.397],[-76.173,9.397],[-76.173,9.397],[-76.173,9.397],[-76.173,9.397],[-76.173,9.398],[-76.173,9.398],[-76.174,9.399],[-76.175,9.399],[-76.178,9.399],[-76.179,9.398],[-76.181,9.398],[-76.182,9.397],[-76.184,9.396],[-76.185,9.396],[-76.186,9.395],[-76.187,9.394],[-76.188,9.393],[-76.189,9.393],[-76.189,9.392],[-76.189,9.391],[-76.189,9.391],[-76.189,9.39],[-76.189,9.39],[-76.19,9.389],[-76.19,9.389],[-76.189,9.388],[-76.19,9.388],[-76.19,9.387],[-76.19,9.387],[-76.19,9.387],[-76.19,9.387],[-76.19,9.385],[-76.19,9.385],[-76.19,9.385],[-76.19,9.385],[-76.19,9.385],[-76.19,9.384]]],[[[-75.858,9.793],[-75.857,9.792],[-75.857,9.791],[-75.856,9.792],[-75.857,9.791],[-75.857,9.79],[-75.857,9.789],[-75.854,9.789],[-75.85,9.79],[-75.846,9.79],[-75.842,9.79],[-75.839,9.79],[-75.837,9.79],[-75.836,9.79],[-75.835,9.79],[-75.833,9.79],[-75.828,9.79],[-75.827,9.792],[-75.826,9.794],[-75.828,9.796],[-75.831,9.796],[-75.834,9.797],[-75.844,9.799],[-75.844,9.797],[-75.844,9.796],[-75.843,9.797],[-75.842,9.795],[-75.844,9.795],[-75.845,9.796],[-75.845,9.793],[-75.845,9.793],[-75.845,9.793],[-75.846,9.793],[-75.846,9.794],[-75.845,9.794],[-75.845,9.795],[-75.846,9.794],[-75.847,9.794],[-75.847,9.793],[-75.847,9.794],[-75.849,9.795],[-75.85,9.795],[-75.85,9.796],[-75.849,9.797],[-75.848,9.797],[-75.847,9.797],[-75.847,9.795],[-75.846,9.795],[-75.846,9.797],[-75.846,9.796],[-75.845,9.796],[-75.845,9.798],[-75.845,9.798],[-75.845,9.799],[-75.847,9.799],[-75.85,9.8],[-75.851,9.801],[-75.851,9.804],[-75.851,9.804],[-75.852,9.804],[-75.853,9.804],[-75.854,9.802],[-75.855,9.801],[-75.855,9.801],[-75.856,9.8],[-75.856,9.799],[-75.856,9.798],[-75.856,9.798],[-75.856,9.798],[-75.855,9.798],[-75.856,9.799],[-75.854,9.799],[-75.854,9.798],[-75.854,9.799],[-75.854,9.8],[-75.853,9.8],[-75.853,9.799],[-75.853,9.799],[-75.853,9.797],[-75.852,9.795],[-75.852,9.797],[-75.852,9.798],[-75.852,9.8],[-75.852,9.801],[-75.851,9.801],[-75.85,9.799],[-75.85,9.796],[-75.851,9.797],[-75.852,9.796],[-75.852,9.795],[-75.851,9.794],[-75.852,9.792],[-75.852,9.791],[-75.852,9.794],[-75.853,9.793],[-75.853,9.792],[-75.854,9.792],[-75.854,9.792],[-75.855,9.792],[-75.855,9.791],[-75.855,9.789],[-75.856,9.79],[-75.856,9.791],[-75.856,9.793],[-75.856,9.794],[-75.856,9.795],[-75.857,9.795],[-75.857,9.794],[-75.856,9.793],[-75.857,9.793],[-75.858,9.793]]],[[[-73.913,7.298],[-73.895,7.419],[-73.916,7.487],[-73.849,7.538],[-73.799,7.652],[-73.832,7.728],[-73.799,7.774],[-73.867,8.041],[-73.775,8.143],[-73.75,8.271],[-73.749,8.465],[-73.82,8.648],[-73.797,8.815],[-73.866,8.885],[-73.89,8.98],[-73.98,8.986],[-74.035,9.045],[-74.055,9.02],[-74.137,9.029],[-74.119,9.049],[-74.247,9.164],[-74.298,9.16],[-74.297,9.203],[-74.349,9.233],[-74.403,9.214],[-74.434,9.273],[-74.517,9.235],[-74.671,9.413],[-74.732,9.42],[-74.765,9.465],[-74.806,9.448],[-74.804,9.555],[-74.772,9.606],[-74.873,9.935],[-74.79,9.972],[-74.786,10.008],[-74.859,10.096],[-74.943,10.122],[-74.908,10.253],[-74.964,10.325],[-75.076,10.41],[-75.131,10.398],[-75.171,10.475],[-75.251,10.485],[-75.224,10.628],[-75.267,10.688],[-75.222,10.797],[-75.261,10.801],[-75.275,10.714],[-75.394,10.683],[-75.462,10.591],[-75.514,10.57],[-75.491,10.488],[-75.566,10.397],[-75.545,10.39],[-75.549,10.422],[-75.506,10.384],[-75.503,10.301],[-75.53,10.308],[-75.565,10.261],[-75.587,10.298],[-75.584,10.262],[-75.622,10.251],[-75.586,10.226],[-75.605,10.239],[-75.705,10.141],[-75.523,10.237],[-75.55,10.216],[-75.524,10.221],[-75.52,10.173],[-75.549,10.179],[-75.532,10.161],[-75.565,10.122],[-75.499,10.148],[-75.545,10.046],[-75.483,10.037],[-75.481,9.906],[-75.368,9.87],[-75.343,9.911],[-75.323,9.875],[-75.373,9.63],[-75.344,9.644],[-75.33,9.612],[-75.276,9.686],[-75.232,9.646],[-75.165,9.646],[-75.181,9.602],[-75.136,9.597],[-75.079,9.534],[-75.015,9.53],[-75.029,9.457],[-74.882,9.434],[-74.948,9.345],[-74.916,9.195],[-74.821,9.055],[-74.639,8.978],[-74.571,8.854],[-74.558,8.803],[-74.609,8.728],[-74.539,8.435],[-74.561,8.39],[-74.61,8.403],[-74.651,8.282],[-74.714,8.303],[-74.731,8.282],[-74.748,8.308],[-74.808,8.275],[-74.793,8.246],[-74.834,8.217],[-74.813,8.145],[-74.603,8.037],[-74.521,7.904],[-74.525,7.782],[-74.461,7.724],[-74.491,7.662],[-74.562,7.645],[-74.598,7.461],[-74.489,7.343],[-74.412,7.391],[-74.412,7.461],[-74.372,7.479],[-74.342,7.426],[-74.401,7.339],[-74.409,7.202],[-74.352,7.082],[-74.355,7.011],[-74.244,7.004],[-73.913,7.298]]],[[[-75.524,10.405],[-75.524,10.405]]],[[[-75.749,10.183],[-75.748,10.18],[-75.748,10.177],[-75.748,10.177],[-75.748,10.177],[-75.748,10.176],[-75.748,10.174],[-75.747,10.173],[-75.747,10.173],[-75.747,10.172],[-75.744,10.171],[-75.741,10.172],[-75.738,10.172],[-75.736,10.173],[-75.735,10.175],[-75.734,10.177],[-75.732,10.177],[-75.732,10.177],[-75.731,10.177],[-75.73,10.177],[-75.73,10.177],[-75.73,10.177],[-75.729,10.177],[-75.729,10.178],[-75.727,10.178],[-75.726,10.178],[-75.725,10.18],[-75.725,10.18],[-75.724,10.18],[-75.724,10.18],[-75.724,10.18],[-75.724,10.18],[-75.724,10.18],[-75.724,10.18],[-75.724,10.181],[-75.724,10.181],[-75.724,10.181],[-75.724,10.181],[-75.724,10.182],[-75.724,10.182],[-75.724,10.182],[-75.724,10.182],[-75.724,10.182],[-75.724,10.182],[-75.724,10.181],[-75.724,10.181],[-75.725,10.182],[-75.725,10.182],[-75.725,10.182],[-75.725,10.182],[-75.725,10.182],[-75.725,10.182],[-75.726,10.182],[-75.726,10.182],[-75.726,10.182],[-75.726,10.183],[-75.726,10.183],[-75.726,10.183],[-75.726,10.183],[-75.726,10.183],[-75.726,10.183],[-75.725,10.183],[-75.725,10.183],[-75.725,10.184],[-75.725,10.184],[-75.726,10.184],[-75.726,10.184],[-75.726,10.184],[-75.726,10.183],[-75.726,10.183],[-75.727,10.183],[-75.727,10.182],[-75.729,10.181],[-75.732,10.181],[-75.733,10.181],[-75.736,10.183],[-75.737,10.184],[-75.737,10.184],[-75.738,10.183],[-75.737,10.183],[-75.737,10.181],[-75.739,10.18],[-75.744,10.182],[-75.744,10.181],[-75.745,10.181],[-75.746,10.181],[-75.746,10.182],[-75.746,10.183],[-75.745,10.184],[-75.746,10.184],[-75.746,10.183],[-75.748,10.183],[-75.749,10.183]]],[[[-75.594,10.348],[-75.582,10.318],[-75.537,10.357],[-75.576,10.382],[-75.594,10.348]]]]}},{"type":"Feature","properties":{"district":"Córdoba","name":"Córdoba"},"geometry":{"type":"Polygon","coordinates":[[[-74.825,8.199],[-74.785,8.276],[-74.801,8.356],[-74.934,8.491],[-75.184,8.398],[-75.312,8.485],[-75.347,8.669],[-75.316,8.75],[-75.369,8.792],[-75.374,8.857],[-75.204,8.917],[-75.205,8.968],[-75.175,8.963],[-75.232,9.022],[-75.209,9.048],[-75.295,9.068],[-75.293,9.098],[-75.381,9.15],[-75.425,9.138],[-75.469,9.194],[-75.458,9.257],[-75.544,9.259],[-75.626,9.353],[-75.649,9.33],[-75.712,9.359],[-75.696,9.412],[-75.828,9.394],[-75.794,9.429],[-75.948,9.443],[-75.97,9.382],[-76.082,9.336],[-76.107,9.266],[-76.171,9.229],[-76.187,9.119],[-76.265,8.997],[-76.337,8.92],[-76.414,8.89],[-76.385,8.791],[-76.416,8.755],[-76.366,8.719],[-76.341,8.646],[-76.283,8.649],[-76.223,8.573],[-76.19,8.397],[-76.302,8.315],[-76.345,8.174],[-76.416,8.071],[-76.42,7.91],[-76.495,7.75],[-76.503,7.56],[-76.384,7.392],[-75.841,7.363],[-75.759,7.605],[-75.603,7.582],[-75.557,7.694],[-75.492,7.725],[-75.454,7.834],[-75.351,7.884],[-75.336,7.95],[-75.224,8.06],[-75.046,8.052],[-74.968,8.094],[-74.931,8.074],[-74.88,8.139],[-74.876,8.198],[-74.825,8.199]]]}},{"type":"Feature","properties":{"district":"Chocó","name":"Chocó","severity":"high"},"geometry":{"type":"MultiPolygon","coordinates":[[[[-76.98,8.255],[-77.037,8.253],[-77.13,8.412],[-77.249,8.473],[-77.358,8.675],[-77.371,8.638],[-77.409,8.645],[-77.394,8.589],[-77.445,8.555],[-77.448,8.472],[-77.398,8.462],[-77.356,8.394],[-77.35,8.298],[-77.295,8.266],[-77.251,8.187],[-77.218,8.086],[-77.235,8.026],[-77.139,7.954],[-77.179,7.959],[-77.153,7.929],[-77.179,7.917],[-77.335,7.894],[-77.366,7.83],[-77.342,7.766],[-77.399,7.772],[-77.398,7.725],[-77.44,7.658],[-77.466,7.663],[-77.491,7.567],[-77.517,7.583],[-77.565,7.508],[-77.612,7.542],[-77.645,7.651],[-77.729,7.7],[-77.749,7.614],[-77.701,7.507],[-77.754,7.461],[-77.818,7.472],[-77.894,7.223],[-77.681,7.041],[-77.657,6.965],[-77.699,6.939],[-77.702,6.842],[-77.666,6.875],[-77.587,6.818],[-77.527,6.648],[-77.494,6.704],[-77.406,6.687],[-77.4,6.621],[-77.325,6.55],[-77.376,6.425],[-77.359,6.394],[-77.412,6.384],[-77.37,6.357],[-77.395,6.236],[-77.473,6.296],[-77.483,6.192],[-77.351,5.995],[-77.363,6.059],[-77.348,6.039],[-77.307,5.873],[-77.235,5.763],[-77.242,5.743],[-77.256,5.782],[-77.269,5.705],[-77.337,5.619],[-77.488,5.608],[-77.54,5.48],[-77.462,5.49],[-77.424,5.432],[-77.389,5.442],[-77.385,5.389],[-77.412,5.404],[-77.378,5.345],[-77.404,5.326],[-77.361,5.329],[-77.371,5.268],[-77.344,5.248],[-77.374,5.236],[-77.388,5.289],[-77.396,5.169],[-77.34,5.206],[-77.377,5.18],[-77.358,5.143],[-77.356,5.175],[-77.353,5.141],[-77.326,5.148],[-77.377,5.15],[-77.364,5.122],[-77.386,5.151],[-77.376,4.96],[-77.322,4.962],[-77.368,4.931],[-77.336,4.856],[-77.362,4.863],[-77.348,4.802],[-77.327,4.808],[-77.347,4.783],[-77.286,4.74],[-77.327,4.736],[-77.304,4.677],[-77.305,4.644],[-77.327,4.658],[-77.334,4.431],[-77.439,4.311],[-77.413,4.293],[-77.49,4.254],[-77.483,4.293],[-77.515,4.279],[-77.526,4.128],[-77.45,4.065],[-77.438,4.143],[-77.391,4.148],[-77.352,4.197],[-77.305,4.166],[-77.256,4.234],[-77.224,4.158],[-77.157,4.182],[-77.107,4.102],[-76.948,4.118],[-76.816,4.008],[-76.685,3.965],[-76.624,4.009],[-76.591,3.97],[-76.494,4.07],[-76.445,4.176],[-76.455,4.229],[-76.522,4.284],[-76.555,4.399],[-76.364,4.491],[-76.397,4.539],[-76.318,4.608],[-76.288,4.712],[-76.305,4.759],[-76.211,4.83],[-76.137,4.842],[-76.098,4.922],[-76.061,5.13],[-76.129,5.18],[-76.212,5.347],[-76.184,5.411],[-76.087,5.445],[-76.075,5.547],[-76.012,5.565],[-76.003,5.602],[-76.087,5.689],[-76.066,5.754],[-76.099,5.842],[-76.067,5.978],[-76.112,6.021],[-76.165,6.007],[-76.238,6.209],[-76.42,6.166],[-76.584,6.193],[-76.718,6.172],[-76.724,6.237],[-76.79,6.322],[-76.766,6.39],[-76.795,6.421],[-76.763,6.433],[-76.795,6.445],[-76.767,6.478],[-76.799,6.507],[-76.82,6.487],[-76.853,6.561],[-76.893,6.568],[-76.859,6.619],[-76.91,6.63],[-76.9,6.67],[-76.928,6.649],[-76.964,6.682],[-76.933,6.711],[-76.966,6.741],[-76.971,6.812],[-76.878,6.852],[-76.819,6.835],[-76.831,6.858],[-76.791,6.868],[-76.835,6.999],[-76.676,7.028],[-76.594,7.012],[-76.572,6.978],[-76.508,7.139],[-76.483,7.133],[-76.533,7.258],[-76.717,7.368],[-76.829,7.521],[-76.987,7.632],[-77.123,7.789],[-77.126,7.831],[-77.095,7.824],[-77.031,7.88],[-76.994,8.024],[-76.955,8.042],[-76.986,8.106],[-76.977,8.132],[-76.955,8.12],[-76.95,8.171],[-76.98,8.255]]],[[[-77.694,7.039],[-77.688,7.036],[-77.688,7.039],[-77.692,7.042],[-77.696,7.044],[-77.699,7.047],[-77.701,7.05],[-77.704,7.053],[-77.708,7.062],[-77.709,7.063],[-77.711,7.06],[-77.709,7.062],[-77.715,7.064],[-77.716,7.065],[-77.719,7.067],[-77.719,7.068],[-77.72,7.07],[-77.722,7.069],[-77.725,7.071],[-77.731,7.077],[-77.732,7.077],[-77.734,7.078],[-77.737,7.081],[-77.738,7.082],[-77.74,7.083],[-77.743,7.086],[-77.744,7.087],[-77.745,7.088],[-77.747,7.087],[-77.74,7.081],[-77.73,7.073],[-77.716,7.061],[-77.713,7.059],[-77.709,7.054],[-77.705,7.051],[-77.706,7.05],[-77.704,7.049],[-77.703,7.048],[-77.701,7.046],[-77.7,7.045],[-77.694,7.039]]]]}},{"type":"Feature","properties":{"district":"Valle del Cauca","name":"Valle del Cauca","severity":"high"},"geometry":{"type":"Polygon","coordinates":[[[-75.753,4.077],[-75.84,4.102],[-75.787,4.293],[-75.801,4.392],[-75.896,4.426],[-75.865,4.454],[-75.864,4.615],[-75.826,4.663],[-75.706,4.655],[-75.714,4.713],[-75.856,4.728],[-75.851,4.779],[-75.924,4.761],[-75.936,4.807],[-75.901,4.854],[-75.989,4.873],[-76.05,5.008],[-76.093,5.037],[-76.091,4.947],[-76.137,4.842],[-76.211,4.83],[-76.305,4.759],[-76.288,4.712],[-76.318,4.608],[-76.397,4.539],[-76.364,4.491],[-76.555,4.399],[-76.522,4.284],[-76.455,4.229],[-76.445,4.176],[-76.494,4.07],[-76.591,3.97],[-76.624,4.009],[-76.685,3.965],[-76.816,4.008],[-76.948,4.118],[-77.107,4.102],[-77.157,4.182],[-77.224,4.158],[-77.256,4.234],[-77.305,4.166],[-77.352,4.197],[-77.391,4.148],[-77.438,4.143],[-77.437,4.012],[-77.389,3.99],[-77.359,3.927],[-77.282,4.062],[-77.184,4.053],[-77.249,3.988],[-77.235,3.969],[-77.265,3.951],[-77.273,3.986],[-77.317,3.952],[-77.321,3.902],[-77.275,3.897],[-77.304,3.874],[-77.281,3.839],[-77.181,3.831],[-77.107,3.908],[-77.045,3.905],[-77.06,3.852],[-77.137,3.81],[-77.123,3.793],[-77.148,3.809],[-77.138,3.752],[-77.195,3.748],[-77.189,3.678],[-77.173,3.698],[-77.147,3.64],[-77.188,3.655],[-77.233,3.577],[-77.302,3.565],[-77.414,3.358],[-77.493,3.306],[-77.54,3.218],[-77.476,3.209],[-77.429,3.253],[-77.363,3.145],[-77.316,3.174],[-77.234,3.107],[-77.16,3.174],[-77.086,3.186],[-76.939,3.114],[-76.908,3.201],[-76.773,3.234],[-76.733,3.125],[-76.666,3.099],[-76.629,3.127],[-76.607,3.091],[-76.574,3.128],[-76.546,3.103],[-76.513,3.121],[-76.533,3.136],[-76.5,3.144],[-76.46,3.247],[-76.494,3.293],[-76.461,3.329],[-76.373,3.288],[-76.23,3.276],[-76.191,3.228],[-76.064,3.212],[-76.039,3.251],[-76.042,3.437],[-75.985,3.56],[-75.994,3.638],[-75.81,3.924],[-75.792,4.008],[-75.739,4.054],[-75.753,4.077]]]}},{"type":"Feature","properties":{"district":"Norte de Santander","name":"Norte de Santander"},"geometry":{"type":"Polygon","coordinates":[[[-73.637,7.749],[-73.575,7.726],[-73.49,7.592],[-73.385,7.58],[-73.355,7.544],[-73.256,7.531],[-73.259,7.588],[-73.221,7.633],[-73.123,7.607],[-72.983,7.62],[-72.978,7.529],[-72.896,7.48],[-72.9,7.435],[-72.838,7.359],[-72.834,7.303],[-72.877,7.266],[-72.832,7.208],[-72.859,7.155],[-72.838,7.099],[-72.79,7.049],[-72.75,7.06],[-72.734,6.988],[-72.677,7.008],[-72.666,6.972],[-72.563,7.001],[-72.544,6.889],[-72.508,6.886],[-72.483,6.93],[-72.392,6.873],[-72.321,6.924],[-72.276,7.015],[-72.246,6.977],[-72.185,7.053],[-72.048,7.038],[-72.174,7.252],[-72.154,7.327],[-72.196,7.384],[-72.439,7.403],[-72.476,7.488],[-72.453,7.56],[-72.474,7.759],[-72.444,7.858],[-72.488,7.944],[-72.419,7.995],[-72.416,8.034],[-72.347,8.016],[-72.388,8.349],[-72.655,8.615],[-72.766,9.106],[-72.822,9.141],[-72.948,9.092],[-72.987,9.142],[-72.956,9.181],[-73.007,9.29],[-73.25,9.158],[-73.347,9.173],[-73.349,9.213],[-73.424,9.124],[-73.448,8.871],[-73.414,8.767],[-73.515,8.672],[-73.517,8.527],[-73.578,8.496],[-73.475,8.468],[-73.527,8.383],[-73.442,8.341],[-73.393,8.383],[-73.414,8.46],[-73.362,8.443],[-73.35,8.333],[-73.435,8.147],[-73.377,8.106],[-73.366,8.013],[-73.309,8.016],[-73.276,7.945],[-73.351,7.894],[-73.351,7.795],[-73.441,7.695],[-73.49,7.676],[-73.637,7.749]]]}},{"type":"Feature","properties":{"district":"Quindío","name":"Quindío","severity":"high"},"geometry":{"type":"Polygon","coordinates":[[[-75.388,4.716],[-75.484,4.665],[-75.703,4.721],[-75.706,4.655],[-75.823,4.664],[-75.849,4.638],[-75.881,4.535],[-75.865,4.454],[-75.895,4.417],[-75.803,4.396],[-75.787,4.293],[-75.838,4.099],[-75.755,4.076],[-75.693,4.136],[-75.658,4.225],[-75.597,4.28],[-75.578,4.454],[-75.525,4.496],[-75.515,4.556],[-75.421,4.61],[-75.388,4.716]]]}},{"type":"Feature","properties":{"district":"Santander","name":"Santander"},"geometry":{"type":"Polygon","coordinates":[[[-74.521,6.276],[-74.449,6.098],[-74.38,6.041],[-74.297,6.082],[-74.26,6.065],[-74.223,5.967],[-74.232,5.906],[-74.28,5.865],[-74.263,5.826],[-74.197,5.855],[-74.181,5.911],[-74.026,5.807],[-73.982,5.721],[-73.89,5.739],[-73.874,5.707],[-73.826,5.74],[-73.813,5.714],[-73.715,5.781],[-73.647,5.712],[-73.6,5.868],[-73.63,5.914],[-73.498,6.109],[-73.414,6.075],[-73.371,6.004],[-73.406,5.89],[-73.442,5.886],[-73.433,5.85],[-73.471,5.819],[-73.389,5.752],[-73.347,5.843],[-73.369,5.872],[-73.279,5.855],[-73.248,5.816],[-73.196,5.834],[-73.196,5.871],[-73.241,5.901],[-73.2,6.004],[-73.157,5.982],[-73.147,6.025],[-73.094,5.99],[-73.031,6.025],[-73.009,5.966],[-72.916,6.108],[-72.831,6.147],[-72.805,6.216],[-72.745,6.228],[-72.76,6.303],[-72.725,6.458],[-72.809,6.558],[-72.764,6.583],[-72.719,6.553],[-72.648,6.436],[-72.54,6.488],[-72.543,6.583],[-72.486,6.657],[-72.476,6.842],[-72.501,6.909],[-72.546,6.891],[-72.563,7.001],[-72.666,6.972],[-72.677,7.008],[-72.734,6.988],[-72.75,7.06],[-72.79,7.049],[-72.838,7.099],[-72.859,7.155],[-72.832,7.208],[-72.877,7.266],[-72.834,7.303],[-72.838,7.359],[-72.9,7.435],[-72.896,7.48],[-72.978,7.529],[-72.983,7.62],[-73.123,7.607],[-73.221,7.633],[-73.259,7.588],[-73.256,7.531],[-73.355,7.544],[-73.385,7.58],[-73.49,7.592],[-73.575,7.726],[-73.755,7.752],[-73.751,7.825],[-73.672,7.892],[-73.672,7.928],[-73.723,7.97],[-73.775,8.143],[-73.867,8.041],[-73.799,7.774],[-73.832,7.728],[-73.799,7.652],[-73.849,7.538],[-73.916,7.487],[-73.895,7.414],[-73.939,7.174],[-73.882,7.009],[-74.17,6.729],[-74.4,6.591],[-74.405,6.469],[-74.368,6.409],[-74.428,6.389],[-74.521,6.276]]]}},{"type":"Feature","properties":{"district":"Risaralda","name":"Risaralda","severity":"high"},"geometry":{"type":"Polygon","coordinates":[[[-75.867,5.488],[-75.906,5.48],[-76.037,5.565],[-76.075,5.547],[-76.087,5.445],[-76.196,5.393],[-76.212,5.347],[-76.129,5.18],[-76.061,5.13],[-76.096,5.035],[-76.05,5.008],[-75.989,4.873],[-75.901,4.854],[-75.936,4.807],[-75.915,4.755],[-75.851,4.779],[-75.856,4.727],[-75.552,4.703],[-75.484,4.665],[-75.444,4.681],[-75.378,4.73],[-75.375,4.804],[-75.427,4.818],[-75.481,4.917],[-75.618,4.932],[-75.639,4.976],[-75.698,4.944],[-75.748,5.046],[-75.815,4.919],[-75.896,4.963],[-75.913,5.084],[-75.889,5.129],[-75.836,5.115],[-75.802,5.202],[-75.823,5.27],[-75.748,5.284],[-75.692,5.256],[-75.635,5.316],[-75.726,5.397],[-75.86,5.373],[-75.867,5.488]]]}},{"type":"Feature","properties":{"district":"Nariño","name":"Nariño","severity":"medium"},"geometry":{"type":"MultiPolygon","coordinates":[[[[-78.754,1.819],[-78.756,1.819],[-78.755,1.819],[-78.754,1.817],[-78.756,1.813],[-78.756,1.813],[-78.756,1.812],[-78.756,1.811],[-78.756,1.81],[-78.755,1.809],[-78.755,1.807],[-78.755,1.807],[-78.753,1.806],[-78.748,1.804],[-78.742,1.806],[-78.739,1.807],[-78.737,1.81],[-78.736,1.812],[-78.735,1.815],[-78.734,1.817],[-78.733,1.818],[-78.73,1.819],[-78.729,1.821],[-78.728,1.821],[-78.727,1.82],[-78.726,1.821],[-78.723,1.823],[-78.722,1.824],[-78.725,1.828],[-78.727,1.829],[-78.729,1.829],[-78.73,1.83],[-78.73,1.83],[-78.73,1.83],[-78.73,1.83],[-78.73,1.83],[-78.73,1.83],[-78.73,1.83],[-78.731,1.831],[-78.734,1.83],[-78.735,1.83],[-78.739,1.828],[-78.744,1.823],[-78.745,1.823],[-78.754,1.819]]],[[[-78.82,1.464],[-78.816,1.466],[-78.816,1.467],[-78.817,1.467],[-78.818,1.467],[-78.825,1.463],[-78.826,1.462],[-78.826,1.462],[-78.827,1.461],[-78.828,1.461],[-78.828,1.461],[-78.829,1.46],[-78.83,1.46],[-78.831,1.46],[-78.831,1.46],[-78.832,1.459],[-78.832,1.459],[-78.833,1.458],[-78.833,1.458],[-78.834,1.457],[-78.833,1.45],[-78.819,1.453],[-78.817,1.455],[-78.817,1.456],[-78.817,1.456],[-78.818,1.456],[-78.818,1.457],[-78.82,1.457],[-78.821,1.458],[-78.821,1.458],[-78.821,1.458],[-78.822,1.459],[-78.822,1.46],[-78.822,1.46],[-78.823,1.461],[-78.823,1.462],[-78.823,1.462],[-78.822,1.463],[-78.822,1.463],[-78.822,1.464],[-78.821,1.464],[-78.821,1.464],[-78.82,1.464]]],[[[-76.921,1.346],[-76.93,1.5],[-76.858,1.523],[-76.835,1.615],[-76.936,1.729],[-77.137,1.655],[-77.151,1.686],[-77.238,1.657],[-77.331,1.682],[-77.288,1.849],[-77.203,1.951],[-77.335,2.054],[-77.308,2.107],[-77.323,2.222],[-77.359,2.262],[-77.459,2.286],[-77.488,2.195],[-77.556,2.203],[-77.739,2.134],[-77.839,2.178],[-77.919,2.417],[-77.917,2.607],[-77.971,2.662],[-78.039,2.644],[-78.055,2.609],[-78.026,2.579],[-78.05,2.556],[-78.081,2.636],[-78.122,2.623],[-78.151,2.683],[-78.21,2.666],[-78.186,2.583],[-78.245,2.665],[-78.303,2.66],[-78.286,2.605],[-78.311,2.588],[-78.333,2.655],[-78.449,2.595],[-78.618,2.379],[-78.711,2.173],[-78.703,2.115],[-78.669,2.123],[-78.66,2.098],[-78.688,2.107],[-78.679,2.059],[-78.647,2.049],[-78.672,2.046],[-78.672,1.976],[-78.637,2.012],[-78.601,1.994],[-78.597,1.894],[-78.553,1.901],[-78.534,1.858],[-78.554,1.757],[-78.582,1.741],[-78.589,1.771],[-78.602,1.745],[-78.6,1.792],[-78.651,1.793],[-78.688,1.782],[-78.686,1.749],[-78.717,1.794],[-78.727,1.737],[-78.761,1.825],[-78.786,1.801],[-78.832,1.819],[-79.008,1.652],[-78.99,1.603],[-78.903,1.542],[-78.871,1.555],[-78.854,1.48],[-78.799,1.485],[-78.821,1.462],[-78.784,1.447],[-78.792,1.409],[-78.662,1.319],[-78.622,1.25],[-78.551,1.249],[-78.516,1.187],[-78.438,1.194],[-78.426,1.139],[-78.311,1.191],[-78.251,1.1],[-78.282,1.056],[-78.206,1.002],[-78.185,0.937],[-78.112,0.932],[-77.936,0.816],[-77.843,0.802],[-77.713,0.851],[-77.671,0.823],[-77.698,0.742],[-77.666,0.705],[-77.56,0.65],[-77.48,0.656],[-77.526,0.401],[-77.431,0.439],[-77.389,0.388],[-77.288,0.363],[-77.089,0.394],[-77.13,0.526],[-77.117,0.593],[-77.187,0.631],[-77.14,0.82],[-77.102,0.834],[-77.119,0.901],[-77.027,1.012],[-77.091,1.071],[-77.086,1.181],[-77.122,1.215],[-76.975,1.322],[-76.923,1.275],[-76.921,1.346]]],[[[-78.631,2.328],[-78.627,2.334],[-78.624,2.341],[-78.625,2.346],[-78.623,2.354],[-78.62,2.356],[-78.623,2.358],[-78.627,2.348],[-78.629,2.341],[-78.632,2.332],[-78.632,2.328],[-78.631,2.328]]],[[[-78.047,2.588],[-78.052,2.586],[-78.064,2.58],[-78.066,2.574],[-78.056,2.565],[-78.046,2.564],[-78.036,2.57],[-78.035,2.579],[-78.037,2.586],[-78.047,2.588]]]]}},{"type":"Feature","properties":{"district":"Guaviare","name":"Guaviare"},"geometry":{"type":"Polygon","coordinates":[[[-73.659,1.615],[-73.54,1.402],[-73.425,1.289],[-73.393,1.149],[-73.24,1.012],[-73.176,0.997],[-73.188,0.968],[-73.137,0.916],[-73.009,0.912],[-72.932,1.015],[-72.869,1.027],[-72.883,1.098],[-72.851,1.105],[-72.854,1.162],[-72.772,1.183],[-72.751,1.129],[-72.726,1.186],[-72.661,1.152],[-72.649,1.182],[-72.511,1.068],[-72.456,1.08],[-72.376,0.96],[-72.392,0.919],[-72.338,0.925],[-72.328,0.839],[-72.322,0.876],[-72.289,0.875],[-72.309,0.809],[-72.27,0.764],[-72.271,0.794],[-72.248,0.788],[-72.22,0.705],[-72.127,0.739],[-72.07,0.692],[-72.086,0.657],[-72.051,0.654],[-71.779,0.904],[-71.742,0.986],[-71.663,0.973],[-71.586,1.046],[-71.584,1.127],[-71.54,1.115],[-71.556,1.157],[-71.485,1.11],[-71.553,1.208],[-71.553,1.277],[-71.526,1.278],[-71.478,1.404],[-71.49,1.447],[-71.39,1.599],[-71.39,1.735],[-71.254,1.668],[-71.094,1.801],[-70.963,1.841],[-70.879,1.933],[-70.866,1.909],[-70.77,1.927],[-70.637,1.903],[-70.532,1.957],[-70.487,1.946],[-70.435,1.999],[-70.351,1.983],[-70.249,2.03],[-70.181,2.024],[-69.995,2.222],[-70.064,2.296],[-70.085,2.263],[-70.15,2.276],[-70.142,2.251],[-70.194,2.23],[-70.247,2.243],[-70.243,2.265],[-70.274,2.237],[-70.305,2.253],[-70.312,2.208],[-70.399,2.268],[-70.497,2.234],[-70.511,2.283],[-70.63,2.314],[-70.754,2.537],[-70.793,2.52],[-70.853,2.57],[-70.924,2.567],[-70.942,2.607],[-70.507,2.786],[-70.585,2.841],[-70.618,2.792],[-70.658,2.856],[-70.64,2.801],[-70.711,2.737],[-70.721,2.794],[-70.811,2.759],[-70.819,2.813],[-70.868,2.775],[-70.932,2.858],[-70.949,2.787],[-70.958,2.842],[-70.989,2.828],[-71.136,2.902],[-71.147,2.874],[-71.185,2.904],[-71.224,2.865],[-71.288,2.868],[-71.319,2.925],[-71.345,2.86],[-71.377,2.89],[-71.387,2.847],[-71.464,2.899],[-71.47,2.853],[-71.582,2.873],[-71.575,2.845],[-71.647,2.818],[-71.673,2.824],[-71.659,2.87],[-71.701,2.839],[-71.763,2.897],[-71.781,2.817],[-71.788,2.867],[-71.824,2.878],[-71.851,2.87],[-71.822,2.868],[-71.829,2.837],[-71.944,2.832],[-71.983,2.801],[-72.004,2.829],[-72.079,2.822],[-72.133,2.889],[-72.204,2.863],[-72.192,2.772],[-72.258,2.824],[-72.276,2.777],[-72.32,2.799],[-72.406,2.725],[-72.467,2.734],[-72.47,2.689],[-72.535,2.703],[-72.584,2.646],[-72.589,2.583],[-72.615,2.626],[-72.651,2.572],[-72.683,2.623],[-72.745,2.569],[-72.821,2.612],[-72.955,2.517],[-72.934,2.465],[-72.963,2.48],[-72.965,2.449],[-73.033,2.412],[-73.065,2.428],[-73.109,2.381],[-73.124,2.412],[-73.124,2.379],[-73.162,2.365],[-73.168,2.4],[-73.2,2.383],[-73.217,2.406],[-73.268,2.38],[-73.24,2.349],[-73.301,2.336],[-73.332,2.361],[-73.355,2.324],[-73.357,2.369],[-73.378,2.326],[-73.414,2.356],[-73.438,2.327],[-73.442,2.388],[-73.447,2.342],[-73.5,2.359],[-73.511,2.333],[-73.528,2.388],[-73.572,2.355],[-73.585,2.39],[-73.618,2.377],[-73.629,2.296],[-73.656,2.295],[-73.659,1.615]]]}},{"type":"Feature","properties":{"district":"Bogota Capital District","name":"Bogota Capital District"},"geometry":{"type":"Polygon","coordinates":[[[-74.144,4.003],[-74.107,4.138],[-74.151,4.254],[-74.098,4.351],[-74.112,4.433],[-73.997,4.602],[-74.033,4.636],[-74.003,4.675],[-74,4.806],[-74.075,4.837],[-74.126,4.729],[-74.177,4.703],[-74.159,4.663],[-74.221,4.645],[-74.16,4.508],[-74.218,4.378],[-74.204,4.242],[-74.244,4.198],[-74.257,4.089],[-74.329,4.13],[-74.374,3.986],[-74.364,3.899],[-74.449,3.736],[-74.401,3.739],[-74.337,3.823],[-74.297,3.819],[-74.319,3.879],[-74.218,4.008],[-74.144,4.003]]]}},{"type":"Feature","properties":{"district":"Boyacá","name":"Boyacá"},"geometry":{"type":"Polygon","coordinates":[[[-74.659,5.751],[-74.595,5.746],[-74.511,5.794],[-74.433,5.76],[-74.335,5.837],[-74.277,5.695],[-74.315,5.623],[-74.244,5.545],[-74.254,5.487],[-74.201,5.497],[-74.125,5.433],[-74.097,5.47],[-74.023,5.365],[-73.899,5.449],[-73.908,5.526],[-73.805,5.574],[-73.771,5.489],[-73.593,5.399],[-73.602,5.318],[-73.533,5.281],[-73.511,5.162],[-73.478,5.148],[-73.479,5.055],[-73.523,5.03],[-73.538,4.896],[-73.403,4.879],[-73.305,4.73],[-73.225,4.733],[-73.222,4.678],[-73.104,4.661],[-73.047,4.745],[-73.074,4.818],[-73.03,4.983],[-73.016,5.003],[-72.972,4.976],[-72.903,5.069],[-72.973,5.149],[-72.878,5.359],[-72.853,5.348],[-72.797,5.395],[-72.7,5.274],[-72.636,5.341],[-72.58,5.353],[-72.417,5.567],[-72.344,5.507],[-72.281,5.606],[-72.264,5.669],[-72.299,5.688],[-72.256,5.793],[-72.392,5.82],[-72.324,5.887],[-72.366,6.037],[-72.318,6.079],[-72.369,6.081],[-72.374,6.151],[-72.419,6.185],[-72.4,6.273],[-72.351,6.346],[-72.318,6.335],[-72.261,6.431],[-72.127,6.511],[-72.089,6.645],[-72.098,6.746],[-72.05,6.771],[-71.946,7.011],[-72.178,7.055],[-72.219,6.986],[-72.281,7.011],[-72.321,6.924],[-72.388,6.874],[-72.488,6.929],[-72.486,6.659],[-72.543,6.583],[-72.535,6.494],[-72.648,6.436],[-72.719,6.553],[-72.764,6.583],[-72.808,6.559],[-72.725,6.458],[-72.76,6.303],[-72.745,6.229],[-72.805,6.216],[-72.831,6.147],[-72.916,6.108],[-73.009,5.966],[-73.031,6.025],[-73.094,5.99],[-73.147,6.025],[-73.157,5.982],[-73.201,6.003],[-73.241,5.906],[-73.188,5.859],[-73.206,5.826],[-73.249,5.816],[-73.279,5.855],[-73.369,5.872],[-73.347,5.843],[-73.378,5.764],[-73.431,5.768],[-73.471,5.824],[-73.433,5.85],[-73.442,5.886],[-73.406,5.89],[-73.371,6.004],[-73.414,6.075],[-73.498,6.109],[-73.63,5.914],[-73.6,5.868],[-73.647,5.712],[-73.715,5.781],[-73.813,5.714],[-73.826,5.74],[-73.874,5.707],[-73.89,5.739],[-73.982,5.721],[-74.026,5.807],[-74.18,5.911],[-74.197,5.855],[-74.263,5.826],[-74.28,5.865],[-74.232,5.906],[-74.223,5.967],[-74.26,6.065],[-74.297,6.082],[-74.38,6.041],[-74.449,6.098],[-74.521,6.276],[-74.611,6.131],[-74.561,6.076],[-74.561,6.002],[-74.611,5.971],[-74.586,5.899],[-74.637,5.873],[-74.659,5.751]]]}},{"type":"Feature","properties":{"district":"Casanare","name":"Casanare"},"geometry":{"type":"Polygon","coordinates":[[[-71.078,4.925],[-71.007,4.97],[-70.94,5.13],[-70.845,5.158],[-70.691,5.289],[-70.686,5.385],[-70.577,5.428],[-70.356,5.592],[-70.287,5.561],[-70.13,5.621],[-69.826,6.044],[-69.892,6.052],[-69.988,6.167],[-70.058,6.16],[-70.035,6.186],[-70.16,6.298],[-70.271,6.273],[-70.381,6.301],[-70.529,6.229],[-70.579,6.249],[-70.725,6.216],[-70.801,6.255],[-70.867,6.221],[-70.985,6.229],[-71.034,6.266],[-71.157,6.263],[-71.222,6.299],[-71.232,6.264],[-71.269,6.283],[-71.378,6.225],[-71.449,6.247],[-71.439,6.216],[-71.509,6.196],[-71.533,6.225],[-71.571,6.189],[-71.636,6.228],[-71.672,6.188],[-71.955,6.172],[-72.137,6.067],[-72.269,6.127],[-72.282,6.193],[-72.343,6.224],[-72.375,6.305],[-72.419,6.185],[-72.374,6.151],[-72.369,6.081],[-72.318,6.081],[-72.366,6.037],[-72.324,5.887],[-72.392,5.82],[-72.256,5.793],[-72.299,5.688],[-72.264,5.669],[-72.281,5.606],[-72.344,5.507],[-72.417,5.567],[-72.58,5.353],[-72.636,5.341],[-72.7,5.274],[-72.797,5.395],[-72.853,5.348],[-72.878,5.359],[-72.973,5.149],[-72.903,5.069],[-72.972,4.976],[-73.02,5.002],[-73.073,4.802],[-73.037,4.665],[-72.89,4.473],[-72.811,4.431],[-72.807,4.387],[-72.785,4.4],[-72.801,4.378],[-72.769,4.334],[-72.697,4.286],[-72.675,4.317],[-72.565,4.306],[-72.561,4.343],[-72.471,4.317],[-72.429,4.355],[-72.405,4.319],[-72.237,4.435],[-72.141,4.44],[-72.055,4.376],[-71.986,4.387],[-71.808,4.583],[-71.733,4.576],[-71.576,4.676],[-71.214,4.816],[-71.078,4.925]]]}},{"type":"Feature","properties":{"district":"Cauca","name":"Cauca","severity":"medium"},"geometry":{"type":"Polygon","coordinates":[[[-76.057,3.224],[-76.191,3.228],[-76.23,3.276],[-76.373,3.288],[-76.461,3.329],[-76.494,3.293],[-76.46,3.247],[-76.5,3.144],[-76.533,3.136],[-76.513,3.121],[-76.546,3.103],[-76.574,3.128],[-76.607,3.091],[-76.629,3.127],[-76.666,3.099],[-76.733,3.125],[-76.773,3.234],[-76.908,3.201],[-76.939,3.114],[-77.086,3.186],[-77.16,3.174],[-77.234,3.107],[-77.316,3.174],[-77.363,3.145],[-77.43,3.253],[-77.476,3.209],[-77.54,3.218],[-77.667,3.046],[-77.703,2.968],[-77.661,2.978],[-77.655,2.941],[-77.699,2.897],[-77.666,2.854],[-77.705,2.863],[-77.764,2.795],[-77.735,2.771],[-77.797,2.752],[-77.772,2.652],[-77.805,2.639],[-77.808,2.689],[-77.842,2.704],[-77.879,2.669],[-77.907,2.681],[-77.886,2.612],[-77.928,2.64],[-77.919,2.417],[-77.841,2.18],[-77.734,2.134],[-77.556,2.203],[-77.488,2.195],[-77.459,2.286],[-77.356,2.26],[-77.308,2.196],[-77.335,2.054],[-77.203,1.951],[-77.288,1.849],[-77.331,1.682],[-77.238,1.657],[-77.151,1.686],[-77.137,1.655],[-76.936,1.729],[-76.834,1.614],[-76.858,1.523],[-76.93,1.5],[-76.921,1.346],[-76.676,1.467],[-76.647,1.455],[-76.574,1.388],[-76.583,1.281],[-76.538,1.21],[-76.567,1.087],[-76.546,1.038],[-76.493,1.028],[-76.426,0.96],[-76.371,0.984],[-76.238,0.964],[-76.18,1.027],[-76.125,1.007],[-76.075,1.027],[-76.124,1.1],[-76.252,1.12],[-76.302,1.176],[-76.303,1.237],[-76.215,1.322],[-76.149,1.546],[-76.164,1.585],[-76.199,1.58],[-76.214,1.663],[-76.267,1.658],[-76.291,1.687],[-76.384,1.665],[-76.374,1.749],[-76.424,1.723],[-76.433,1.792],[-76.586,1.872],[-76.624,1.974],[-76.573,2.022],[-76.59,2.099],[-76.552,2.138],[-76.467,2.101],[-76.432,2.12],[-76.435,2.188],[-76.374,2.279],[-76.299,2.282],[-76.209,2.199],[-76.144,2.204],[-76.121,2.224],[-76.147,2.293],[-76.126,2.38],[-76.09,2.416],[-76.038,2.401],[-75.978,2.503],[-75.861,2.429],[-75.814,2.484],[-75.838,2.567],[-75.748,2.719],[-76.033,2.943],[-76.022,3.003],[-76.109,3.104],[-76.073,3.123],[-76.091,3.198],[-76.057,3.224]]]}},{"type":"Feature","properties":{"district":"Caquetá","name":"Caquetá"},"geometry":{"type":"Polygon","coordinates":[[[-71.323,0.112],[-71.333,0.154],[-71.361,0.144],[-71.401,0.187],[-71.419,0.143],[-71.466,0.15],[-71.472,0.185],[-71.533,0.121],[-71.53,0.166],[-71.588,0.166],[-71.559,0.217],[-71.636,0.184],[-71.623,0.215],[-71.723,0.274],[-71.703,0.317],[-71.738,0.286],[-71.753,0.332],[-71.787,0.334],[-71.766,0.37],[-71.851,0.349],[-71.824,0.406],[-71.855,0.455],[-71.921,0.454],[-71.901,0.471],[-71.939,0.57],[-71.953,0.539],[-72.012,0.597],[-71.981,0.628],[-71.998,0.658],[-72.086,0.657],[-72.07,0.692],[-72.127,0.739],[-72.222,0.707],[-72.248,0.788],[-72.271,0.794],[-72.27,0.764],[-72.309,0.809],[-72.289,0.875],[-72.322,0.876],[-72.328,0.839],[-72.338,0.925],[-72.392,0.919],[-72.376,0.96],[-72.456,1.08],[-72.511,1.068],[-72.649,1.182],[-72.661,1.152],[-72.726,1.186],[-72.751,1.129],[-72.772,1.183],[-72.819,1.179],[-72.872,1.143],[-72.851,1.108],[-72.883,1.098],[-72.869,1.027],[-72.932,1.015],[-73.009,0.912],[-73.079,0.895],[-73.393,1.149],[-73.425,1.289],[-73.54,1.402],[-73.659,1.615],[-73.858,1.658],[-73.944,1.645],[-73.981,1.602],[-74,1.658],[-74.091,1.642],[-74.112,1.696],[-74.206,1.715],[-74.215,1.767],[-74.27,1.754],[-74.563,1.847],[-74.609,2.071],[-74.59,2.195],[-74.657,2.212],[-74.677,2.285],[-74.733,2.273],[-74.727,2.355],[-74.651,2.496],[-74.686,2.546],[-74.591,2.666],[-74.638,2.704],[-74.617,2.748],[-74.666,2.811],[-74.677,2.89],[-74.766,2.877],[-74.795,2.933],[-74.934,2.907],[-75.064,2.746],[-75.148,2.722],[-75.134,2.599],[-75.176,2.517],[-75.229,2.515],[-75.307,2.361],[-75.385,2.315],[-75.443,2.153],[-75.532,2.119],[-75.739,1.785],[-75.907,1.715],[-76.048,1.572],[-76.12,1.555],[-76.168,1.587],[-76.149,1.545],[-76.215,1.322],[-76.306,1.229],[-76.258,1.123],[-76.128,1.102],[-76.084,1.057],[-76.002,1.054],[-75.997,1.027],[-75.999,1.071],[-75.923,1.031],[-75.949,0.978],[-75.906,0.971],[-75.849,0.878],[-75.799,0.894],[-75.758,0.837],[-75.643,0.879],[-75.608,0.838],[-75.54,0.831],[-75.512,0.77],[-75.408,0.736],[-75.338,0.772],[-75.267,0.725],[-75.274,0.666],[-75.226,0.645],[-75.21,0.592],[-75.235,0.574],[-75.198,0.506],[-75.22,0.483],[-75.105,0.514],[-75.104,0.473],[-75.028,0.482],[-74.984,0.415],[-75.017,0.385],[-74.98,0.31],[-75.004,0.273],[-74.96,0.242],[-74.726,0.207],[-74.677,0.159],[-74.675,0.097],[-74.712,0.092],[-74.655,0.072],[-74.704,0.038],[-74.656,-0.011],[-74.679,-0.06],[-74.619,-0.053],[-74.633,-0.088],[-74.53,-0.127],[-74.516,-0.089],[-74.496,-0.138],[-74.454,-0.071],[-74.422,-0.104],[-74.449,-0.139],[-74.349,-0.107],[-74.269,-0.141],[-74.288,-0.202],[-74.234,-0.238],[-74.201,-0.209],[-74.181,-0.265],[-74.119,-0.232],[-74.084,-0.279],[-74.044,-0.273],[-74.014,-0.337],[-73.824,-0.409],[-73.717,-0.381],[-73.64,-0.418],[-73.651,-0.458],[-73.583,-0.448],[-73.568,-0.518],[-73.534,-0.488],[-73.488,-0.529],[-73.428,-0.512],[-73.38,-0.535],[-73.33,-0.507],[-73.202,-0.627],[-73.075,-0.624],[-73.05,-0.544],[-73.014,-0.528],[-72.921,-0.616],[-72.749,-0.557],[-72.563,-0.706],[-72.434,-0.565],[-72.352,-0.639],[-72.263,-0.624],[-72.23,-0.59],[-72.233,-0.491],[-72.194,-0.47],[-72.153,-0.363],[-72.071,-0.324],[-72.038,-0.267],[-71.75,-0.251],[-71.717,-0.225],[-71.732,-0.141],[-71.688,-0.069],[-71.597,-0.006],[-71.398,0.031],[-71.323,0.112]]]}},{"type":"Feature","properties":{"district":"Huila","name":"Huila","severity":"medium"},"geometry":{"type":"Polygon","coordinates":[[[-74.416,3.741],[-74.452,3.724],[-74.451,3.81],[-74.539,3.845],[-74.557,3.768],[-74.739,3.59],[-74.728,3.554],[-74.782,3.5],[-74.765,3.443],[-74.908,3.29],[-75.073,3.296],[-75.044,3.429],[-75.148,3.435],[-75.184,3.382],[-75.228,3.415],[-75.253,3.367],[-75.32,3.42],[-75.365,3.409],[-75.378,3.374],[-75.478,3.361],[-75.526,3.32],[-75.636,2.994],[-75.694,2.995],[-75.845,2.871],[-75.954,2.917],[-75.989,2.982],[-76.022,2.973],[-76.025,2.932],[-75.963,2.874],[-75.753,2.743],[-75.757,2.683],[-75.838,2.565],[-75.814,2.484],[-75.886,2.428],[-75.978,2.503],[-76.038,2.401],[-76.103,2.407],[-76.147,2.293],[-76.121,2.224],[-76.149,2.201],[-76.209,2.199],[-76.279,2.276],[-76.374,2.279],[-76.435,2.188],[-76.432,2.12],[-76.467,2.101],[-76.556,2.137],[-76.59,2.099],[-76.576,2.013],[-76.624,1.974],[-76.586,1.872],[-76.433,1.792],[-76.424,1.723],[-76.374,1.749],[-76.384,1.665],[-76.291,1.687],[-76.267,1.658],[-76.217,1.665],[-76.199,1.58],[-76.12,1.555],[-76.031,1.582],[-75.901,1.719],[-75.739,1.785],[-75.532,2.119],[-75.443,2.153],[-75.385,2.315],[-75.307,2.361],[-75.229,2.515],[-75.176,2.517],[-75.134,2.599],[-75.148,2.722],[-75.056,2.754],[-74.67,3.201],[-74.616,3.326],[-74.634,3.469],[-74.554,3.535],[-74.416,3.741]]]}}]}