{"type":"FeatureCollection","source":"OSDMA/press (Aug 2026)","features":[{"type":"Feature","properties":{"name":"Angul","district":"Angul","severity":"medium","source":"OSDMA"},"geometry":{"type":"Polygon","coordinates":[[[85.245,21.672],[85.259,21.624],[85.286,21.598],[85.282,21.583],[85.307,21.562],[85.296,21.535],[85.318,21.527],[85.328,21.477],[85.303,21.444],[85.257,21.45],[85.255,21.441],[85.299,21.409],[85.301,21.39],[85.338,21.354],[85.321,21.314],[85.31,21.324],[85.269,21.297],[85.268,21.27],[85.281,21.26],[85.294,21.271],[85.363,21.236],[85.389,21.179],[85.375,21.164],[85.335,21.174],[85.315,21.155],[85.285,21.175],[85.268,21.169],[85.238,21.119],[85.245,21.109],[85.227,21.066],[85.18,21.075],[85.163,21.052],[85.258,20.974],[85.239,20.954],[85.236,20.901],[85.262,20.885],[85.243,20.878],[85.254,20.863],[85.251,20.79],[85.193,20.777],[85.21,20.743],[85.191,20.671],[85.162,20.653],[85.169,20.694],[85.147,20.725],[85.134,20.723],[85.109,20.676],[85.131,20.633],[85.117,20.604],[85.087,20.605],[85.061,20.571],[85.021,20.581],[84.986,20.576],[84.98,20.561],[84.945,20.575],[84.892,20.574],[84.845,20.522],[84.772,20.596],[84.728,20.612],[84.631,20.619],[84.565,20.682],[84.45,20.738],[84.42,20.736],[84.365,20.758],[84.35,20.776],[84.35,20.83],[84.261,20.884],[84.276,20.922],[84.395,20.969],[84.429,21.009],[84.404,21.026],[84.435,21.03],[84.478,21.078],[84.529,21.084],[84.583,21.059],[84.645,21.079],[84.677,21.059],[84.664,21.09],[84.679,21.144],[84.719,21.144],[84.739,21.166],[84.794,21.129],[84.813,21.14],[84.793,21.162],[84.817,21.168],[84.874,21.16],[84.916,21.137],[84.93,21.152],[84.928,21.176],[84.944,21.171],[84.957,21.144],[84.968,21.156],[84.962,21.186],[84.937,21.192],[84.924,21.227],[84.895,21.254],[84.957,21.294],[84.986,21.284],[85.031,21.289],[85.007,21.313],[84.99,21.406],[84.998,21.435],[85.015,21.439],[85.018,21.452],[85.054,21.438],[85.071,21.453],[85.151,21.456],[85.2,21.516],[85.209,21.55],[85.185,21.583],[85.144,21.59],[85.148,21.6],[85.165,21.618],[85.185,21.62],[85.191,21.636],[85.177,21.65],[85.188,21.659],[85.245,21.672]]]}},{"type":"Feature","properties":{"name":"Baleshwar","district":"Baleshwar","severity":"high","source":"OSDMA"},"geometry":{"type":"MultiPolygon","coordinates":[[[[87.124,21.52],[87.124,21.518],[87.124,21.517],[87.124,21.515],[87.124,21.515],[87.124,21.514],[87.123,21.514],[87.122,21.515],[87.122,21.515],[87.122,21.516],[87.122,21.516],[87.122,21.516],[87.121,21.516],[87.121,21.516],[87.121,21.516],[87.121,21.516],[87.12,21.516],[87.119,21.517],[87.119,21.517],[87.119,21.517],[87.119,21.518],[87.119,21.518],[87.119,21.518],[87.119,21.519],[87.119,21.519],[87.12,21.519],[87.12,21.519],[87.121,21.519],[87.122,21.521],[87.122,21.521],[87.123,21.521],[87.124,21.521],[87.124,21.52]]],[[[87.188,21.957],[87.235,21.954],[87.232,21.94],[87.252,21.918],[87.235,21.896],[87.272,21.803],[87.293,21.805],[87.337,21.779],[87.352,21.786],[87.37,21.76],[87.383,21.771],[87.444,21.761],[87.451,21.732],[87.443,21.729],[87.465,21.726],[87.471,21.707],[87.459,21.645],[87.482,21.626],[87.482,21.609],[87.461,21.605],[87.404,21.556],[87.386,21.567],[87.391,21.55],[87.38,21.546],[87.304,21.556],[87.201,21.548],[87.13,21.513],[87.107,21.518],[87.114,21.508],[87.089,21.484],[87.073,21.471],[87.044,21.475],[87.061,21.473],[87.063,21.461],[86.981,21.411],[86.911,21.34],[86.838,21.206],[86.805,21.224],[86.768,21.218],[86.755,21.193],[86.771,21.165],[86.705,21.177],[86.667,21.158],[86.651,21.103],[86.663,21.09],[86.659,21.077],[86.641,21.076],[86.644,21.057],[86.627,21.063],[86.624,21.087],[86.587,21.092],[86.553,21.151],[86.535,21.154],[86.506,21.131],[86.43,21.154],[86.439,21.172],[86.427,21.178],[86.444,21.195],[86.433,21.215],[86.412,21.204],[86.369,21.226],[86.356,21.295],[86.423,21.326],[86.438,21.35],[86.484,21.375],[86.53,21.422],[86.58,21.516],[86.632,21.524],[86.648,21.574],[86.683,21.589],[86.701,21.579],[86.75,21.6],[86.845,21.6],[86.863,21.587],[86.884,21.606],[86.874,21.63],[86.908,21.574],[86.92,21.587],[86.954,21.567],[86.956,21.59],[86.96,21.576],[87.003,21.593],[86.984,21.621],[87.001,21.62],[87.008,21.643],[86.989,21.644],[86.985,21.662],[87.011,21.669],[87.027,21.655],[87.05,21.678],[87.034,21.691],[87.023,21.736],[87.044,21.734],[87.044,21.706],[87.067,21.701],[87.09,21.722],[87.083,21.733],[87.091,21.727],[87.097,21.746],[87.118,21.75],[87.101,21.778],[87.115,21.781],[87.12,21.766],[87.141,21.759],[87.155,21.763],[87.17,21.806],[87.18,21.785],[87.174,21.807],[87.101,21.852],[87.089,21.895],[87.105,21.918],[87.158,21.931],[87.167,21.973],[87.188,21.957]]]]}},{"type":"Feature","properties":{"name":"Baragarh","district":"Baragarh","severity":"medium","source":"OSDMA"},"geometry":{"type":"Polygon","coordinates":[[[83.72,21.628],[83.786,21.571],[83.808,21.536],[83.84,21.524],[83.88,21.435],[83.843,21.406],[83.874,21.386],[83.865,21.307],[83.871,21.29],[83.885,21.293],[83.907,21.235],[83.888,21.174],[83.838,21.093],[83.793,21.112],[83.778,21.148],[83.763,21.151],[83.711,21.117],[83.607,21.125],[83.545,21.073],[83.491,21.058],[83.492,21.038],[83.459,21.056],[83.421,21.028],[83.391,21.064],[83.351,21.066],[83.318,21.052],[83.29,21.012],[83.323,20.981],[83.357,21.002],[83.379,20.989],[83.376,20.939],[83.409,20.906],[83.406,20.892],[83.344,20.872],[83.326,20.88],[83.313,20.859],[83.276,20.84],[83.247,20.915],[83.212,20.931],[83.187,20.894],[83.141,20.879],[83.125,20.86],[83.097,20.872],[83.084,20.857],[83.007,20.857],[82.986,20.845],[82.962,20.893],[82.922,20.884],[82.912,20.9],[82.884,20.907],[82.769,20.804],[82.741,20.769],[82.73,20.722],[82.683,20.726],[82.691,20.754],[82.678,20.869],[82.694,20.937],[82.682,20.969],[82.686,21.018],[82.661,21.066],[82.632,21.087],[82.648,21.125],[82.636,21.149],[82.752,21.16],[82.789,21.139],[82.812,21.159],[82.869,21.16],[82.879,21.149],[82.956,21.175],[82.965,21.156],[82.993,21.154],[83.041,21.119],[83.134,21.105],[83.161,21.131],[83.193,21.139],[83.219,21.224],[83.218,21.26],[83.242,21.276],[83.268,21.269],[83.275,21.291],[83.254,21.32],[83.27,21.375],[83.375,21.34],[83.403,21.348],[83.394,21.399],[83.37,21.436],[83.35,21.444],[83.335,21.496],[83.366,21.55],[83.362,21.573],[83.381,21.613],[83.441,21.649],[83.441,21.618],[83.463,21.606],[83.47,21.627],[83.485,21.626],[83.483,21.64],[83.52,21.67],[83.553,21.74],[83.688,21.699],[83.72,21.628]]]}},{"type":"Feature","properties":{"name":"Bhadrak","district":"Bhadrak","severity":"high","source":"OSDMA"},"geometry":{"type":"MultiPolygon","coordinates":[[[[86.948,20.785],[86.948,20.784],[86.948,20.784],[86.947,20.784],[86.947,20.784],[86.946,20.784],[86.945,20.784],[86.945,20.784],[86.944,20.784],[86.944,20.784],[86.944,20.784],[86.944,20.785],[86.944,20.785],[86.945,20.787],[86.946,20.787],[86.946,20.786],[86.947,20.786],[86.947,20.785],[86.948,20.785],[86.948,20.785]]],[[[87.017,20.803],[87.003,20.832],[87.019,20.823],[87.017,20.803]]],[[[86.409,21.206],[86.428,21.216],[86.444,21.195],[86.427,21.178],[86.439,21.172],[86.43,21.154],[86.506,21.131],[86.535,21.154],[86.557,21.149],[86.587,21.092],[86.624,21.087],[86.638,21.055],[86.641,21.076],[86.659,21.077],[86.663,21.09],[86.651,21.103],[86.667,21.158],[86.705,21.177],[86.771,21.165],[86.756,21.181],[86.765,21.215],[86.814,21.221],[86.831,21.199],[86.819,21.178],[86.828,21.177],[86.823,21.138],[86.844,21.082],[86.889,21.016],[86.962,20.858],[86.97,20.826],[86.962,20.789],[86.864,20.792],[86.822,20.766],[86.808,20.723],[86.78,20.737],[86.758,20.731],[86.756,20.764],[86.709,20.756],[86.706,20.77],[86.656,20.792],[86.641,20.783],[86.612,20.791],[86.62,20.803],[86.592,20.851],[86.565,20.859],[86.493,20.862],[86.447,20.838],[86.396,20.858],[86.35,20.847],[86.324,20.859],[86.33,20.873],[86.277,20.9],[86.285,21.012],[86.302,21.011],[86.31,21.051],[86.321,21.054],[86.302,21.082],[86.305,21.106],[86.285,21.112],[86.269,21.141],[86.288,21.17],[86.335,21.174],[86.349,21.23],[86.366,21.233],[86.409,21.206]]]]}},{"type":"Feature","properties":{"name":"Bolangir","district":"Bolangir","severity":"medium","source":"OSDMA"},"geometry":{"type":"Polygon","coordinates":[[[83.368,21.06],[83.391,21.064],[83.421,21.028],[83.452,21.051],[83.444,21.015],[83.502,20.979],[83.634,20.978],[83.604,20.929],[83.614,20.899],[83.573,20.869],[83.567,20.848],[83.618,20.822],[83.617,20.811],[83.59,20.818],[83.59,20.798],[83.629,20.792],[83.63,20.767],[83.649,20.768],[83.646,20.747],[83.671,20.737],[83.615,20.626],[83.589,20.599],[83.588,20.537],[83.599,20.525],[83.576,20.519],[83.565,20.479],[83.578,20.481],[83.659,20.418],[83.642,20.381],[83.648,20.362],[83.623,20.363],[83.618,20.345],[83.57,20.36],[83.55,20.395],[83.501,20.41],[83.485,20.401],[83.48,20.449],[83.416,20.398],[83.405,20.367],[83.363,20.337],[83.353,20.31],[83.293,20.298],[83.278,20.276],[83.232,20.251],[83.219,20.2],[83.176,20.167],[83.138,20.165],[83.121,20.189],[83.084,20.193],[83.006,20.165],[82.925,20.174],[82.902,20.143],[82.81,20.164],[82.811,20.183],[82.835,20.187],[82.85,20.209],[82.855,20.266],[82.843,20.283],[82.818,20.278],[82.807,20.29],[82.816,20.317],[82.83,20.316],[82.833,20.29],[82.843,20.288],[82.848,20.332],[82.81,20.354],[82.807,20.323],[82.785,20.321],[82.81,20.379],[82.764,20.35],[82.712,20.353],[82.725,20.38],[82.679,20.446],[82.7,20.496],[82.706,20.563],[82.723,20.577],[82.736,20.619],[82.717,20.668],[82.689,20.677],[82.696,20.722],[82.73,20.722],[82.741,20.769],[82.769,20.804],[82.884,20.907],[82.912,20.9],[82.922,20.884],[82.962,20.893],[82.986,20.845],[83.007,20.857],[83.084,20.857],[83.097,20.872],[83.125,20.86],[83.141,20.879],[83.187,20.894],[83.212,20.931],[83.247,20.915],[83.276,20.84],[83.313,20.859],[83.326,20.88],[83.344,20.872],[83.406,20.892],[83.409,20.906],[83.376,20.939],[83.379,20.989],[83.357,21.002],[83.323,20.981],[83.29,21.012],[83.318,21.052],[83.351,21.066],[83.368,21.06]]]}},{"type":"Feature","properties":{"name":"Boudh","district":"Boudh","severity":"medium","source":"OSDMA"},"geometry":{"type":"Polygon","coordinates":[[[84.745,20.606],[84.776,20.592],[84.79,20.554],[84.764,20.525],[84.738,20.534],[84.71,20.515],[84.678,20.457],[84.686,20.436],[84.657,20.419],[84.615,20.428],[84.555,20.407],[84.54,20.416],[84.481,20.381],[84.456,20.391],[84.459,20.436],[84.449,20.462],[84.422,20.478],[84.428,20.503],[84.386,20.526],[84.379,20.597],[84.354,20.668],[84.312,20.689],[84.271,20.669],[84.276,20.637],[84.249,20.6],[84.215,20.582],[84.182,20.585],[84.171,20.599],[84.139,20.579],[84.067,20.593],[84,20.564],[83.965,20.581],[83.936,20.577],[83.931,20.598],[83.91,20.611],[83.908,20.575],[83.851,20.567],[83.836,20.539],[83.817,20.542],[83.812,20.519],[83.789,20.504],[83.823,20.446],[83.805,20.444],[83.803,20.427],[83.78,20.438],[83.772,20.407],[83.715,20.429],[83.688,20.411],[83.673,20.424],[83.659,20.418],[83.578,20.481],[83.565,20.479],[83.576,20.519],[83.641,20.532],[83.682,20.556],[83.724,20.601],[83.728,20.617],[83.712,20.635],[83.752,20.711],[83.756,20.77],[83.774,20.794],[83.838,20.819],[83.892,20.811],[83.934,20.836],[84.048,20.823],[84.106,20.841],[84.211,20.897],[84.249,20.89],[84.345,20.836],[84.354,20.822],[84.35,20.776],[84.377,20.751],[84.45,20.738],[84.565,20.682],[84.631,20.619],[84.745,20.606]]]}},{"type":"Feature","properties":{"name":"Cuttack","district":"Cuttack","severity":"medium","source":"OSDMA"},"geometry":{"type":"Polygon","coordinates":[[[85.961,20.66],[85.976,20.658],[86.043,20.583],[86.077,20.592],[86.087,20.611],[86.114,20.611],[86.144,20.637],[86.171,20.638],[86.176,20.652],[86.191,20.639],[86.164,20.63],[86.184,20.617],[86.205,20.626],[86.209,20.611],[86.25,20.601],[86.257,20.582],[86.278,20.577],[86.248,20.532],[86.272,20.51],[86.263,20.444],[86.274,20.439],[86.266,20.391],[86.276,20.39],[86.248,20.371],[86.25,20.359],[86.197,20.356],[86.17,20.371],[86.132,20.35],[86.082,20.36],[86.022,20.394],[86.009,20.374],[86.03,20.333],[86.027,20.29],[86.064,20.264],[86.074,20.238],[86.146,20.215],[86.141,20.138],[86.162,20.104],[86.152,20.086],[86.184,20.046],[86.165,20.033],[86.117,20.034],[86.123,20.052],[86.076,20.061],[86.08,20.097],[86.031,20.136],[86.043,20.135],[86.049,20.158],[86.037,20.173],[86.022,20.163],[86.002,20.217],[85.928,20.265],[85.932,20.28],[85.909,20.31],[85.915,20.316],[85.926,20.304],[85.923,20.321],[85.896,20.344],[85.895,20.36],[85.865,20.329],[85.886,20.305],[85.879,20.28],[85.797,20.314],[85.793,20.329],[85.825,20.397],[85.802,20.427],[85.781,20.426],[85.781,20.403],[85.768,20.396],[85.762,20.405],[85.71,20.392],[85.673,20.317],[85.642,20.318],[85.621,20.285],[85.547,20.306],[85.517,20.286],[85.455,20.288],[85.449,20.26],[85.416,20.265],[85.402,20.249],[85.377,20.279],[85.331,20.265],[85.365,20.359],[85.272,20.351],[85.154,20.372],[84.939,20.486],[84.878,20.493],[84.845,20.522],[84.892,20.574],[84.945,20.575],[84.98,20.561],[84.986,20.576],[85.021,20.581],[85.061,20.571],[85.087,20.605],[85.123,20.609],[85.203,20.569],[85.194,20.561],[85.207,20.541],[85.246,20.512],[85.38,20.492],[85.397,20.479],[85.401,20.503],[85.452,20.479],[85.506,20.529],[85.584,20.506],[85.594,20.53],[85.653,20.543],[85.705,20.598],[85.703,20.62],[85.724,20.639],[85.752,20.628],[85.761,20.654],[85.786,20.666],[85.804,20.654],[85.861,20.661],[85.879,20.651],[85.916,20.693],[85.953,20.677],[85.961,20.66]]]}},{"type":"Feature","properties":{"name":"Deogarh","district":"Deogarh","severity":"medium","source":"OSDMA"},"geometry":{"type":"Polygon","coordinates":[[[85.144,21.59],[85.195,21.575],[85.209,21.55],[85.2,21.516],[85.151,21.456],[85.071,21.453],[85.054,21.438],[85.018,21.452],[85.015,21.439],[85.001,21.438],[84.99,21.406],[85.005,21.321],[85.031,21.289],[84.986,21.284],[84.957,21.294],[84.895,21.254],[84.924,21.227],[84.937,21.192],[84.962,21.186],[84.968,21.156],[84.957,21.144],[84.944,21.171],[84.924,21.176],[84.93,21.152],[84.916,21.137],[84.874,21.16],[84.817,21.168],[84.793,21.162],[84.813,21.14],[84.806,21.132],[84.758,21.145],[84.739,21.166],[84.735,21.195],[84.716,21.204],[84.738,21.23],[84.755,21.222],[84.766,21.25],[84.729,21.298],[84.702,21.316],[84.666,21.313],[84.626,21.274],[84.564,21.249],[84.564,21.319],[84.543,21.37],[84.495,21.374],[84.494,21.361],[84.476,21.391],[84.487,21.443],[84.485,21.472],[84.473,21.479],[84.496,21.494],[84.479,21.51],[84.505,21.558],[84.538,21.568],[84.538,21.579],[84.568,21.571],[84.521,21.621],[84.485,21.637],[84.495,21.671],[84.507,21.682],[84.54,21.676],[84.564,21.697],[84.621,21.694],[84.639,21.738],[84.672,21.732],[84.691,21.703],[84.714,21.711],[84.743,21.677],[84.753,21.621],[84.787,21.628],[84.787,21.664],[84.859,21.648],[84.911,21.666],[84.936,21.656],[84.954,21.679],[84.974,21.669],[84.994,21.678],[85.021,21.667],[85.03,21.602],[85.046,21.585],[85.082,21.599],[85.144,21.59]]]}},{"type":"Feature","properties":{"name":"Dhenkanal","district":"Dhenkanal","severity":"medium","source":"OSDMA"},"geometry":{"type":"Polygon","coordinates":[[[85.682,21.18],[85.705,21.176],[85.723,21.138],[85.695,21.134],[85.679,21.112],[85.7,21.068],[85.725,21.057],[85.719,20.977],[85.737,20.986],[85.774,20.976],[85.798,20.961],[85.822,20.92],[85.914,20.921],[85.916,20.892],[85.896,20.84],[86.028,20.803],[86.02,20.72],[85.98,20.729],[85.903,20.706],[85.905,20.676],[85.879,20.651],[85.861,20.661],[85.804,20.654],[85.786,20.666],[85.761,20.654],[85.752,20.628],[85.724,20.639],[85.703,20.62],[85.705,20.598],[85.653,20.543],[85.594,20.53],[85.584,20.506],[85.506,20.529],[85.452,20.479],[85.401,20.503],[85.397,20.479],[85.38,20.492],[85.341,20.49],[85.241,20.514],[85.196,20.558],[85.203,20.569],[85.123,20.609],[85.131,20.633],[85.109,20.676],[85.134,20.723],[85.147,20.725],[85.169,20.694],[85.162,20.653],[85.191,20.671],[85.21,20.743],[85.193,20.777],[85.251,20.79],[85.254,20.863],[85.243,20.878],[85.262,20.885],[85.236,20.901],[85.239,20.954],[85.258,20.974],[85.224,21.011],[85.167,21.039],[85.174,21.07],[85.227,21.066],[85.245,21.109],[85.238,21.119],[85.263,21.165],[85.285,21.175],[85.315,21.155],[85.335,21.174],[85.375,21.164],[85.389,21.179],[85.457,21.122],[85.492,21.108],[85.543,21.161],[85.605,21.132],[85.632,21.16],[85.659,21.161],[85.682,21.18]]]}},{"type":"Feature","properties":{"name":"Gajapati","district":"Gajapati","severity":null,"source":"OSDMA"},"geometry":{"type":"Polygon","coordinates":[[[84.234,19.568],[84.244,19.564],[84.25,19.489],[84.298,19.488],[84.318,19.548],[84.357,19.531],[84.365,19.538],[84.368,19.476],[84.4,19.437],[84.375,19.373],[84.434,19.354],[84.409,19.325],[84.421,19.29],[84.404,19.217],[84.391,19.192],[84.354,19.177],[84.384,19.132],[84.37,19.132],[84.381,19.116],[84.375,19.08],[84.344,19.013],[84.375,18.981],[84.393,18.997],[84.419,18.975],[84.435,18.977],[84.441,18.967],[84.416,18.938],[84.429,18.914],[84.418,18.901],[84.406,18.906],[84.412,18.894],[84.398,18.886],[84.365,18.896],[84.388,18.878],[84.383,18.869],[84.351,18.883],[84.372,18.867],[84.362,18.851],[84.336,18.867],[84.344,18.812],[84.329,18.809],[84.332,18.792],[84.309,18.778],[84.284,18.791],[84.252,18.772],[84.217,18.787],[84.18,18.769],[84.151,18.776],[84.123,18.748],[84.082,18.745],[84.027,18.802],[83.94,18.797],[83.902,18.817],[83.887,18.805],[83.837,18.865],[83.838,18.909],[83.817,18.909],[83.815,18.953],[83.789,18.998],[83.794,19.019],[83.81,19.021],[83.855,18.971],[83.89,18.975],[83.906,19.009],[83.951,18.978],[83.98,19.012],[83.958,19.036],[83.964,19.057],[83.983,19.061],[84.011,19.042],[84.023,19.049],[84.006,19.085],[84.007,19.119],[84.023,19.128],[83.977,19.153],[83.991,19.18],[83.976,19.201],[84.004,19.243],[84.023,19.338],[84.01,19.366],[83.94,19.39],[83.937,19.412],[83.971,19.478],[83.953,19.492],[83.97,19.523],[83.937,19.543],[83.92,19.623],[84.004,19.61],[84.022,19.625],[84.054,19.623],[84.083,19.609],[84.085,19.622],[84.12,19.626],[84.151,19.574],[84.193,19.584],[84.234,19.568]]]}},{"type":"Feature","properties":{"name":"Ganjam","district":"Ganjam","severity":"medium","source":"OSDMA"},"geometry":{"type":"MultiPolygon","coordinates":[[[[84.77,19.106],[84.77,19.105],[84.77,19.105],[84.77,19.104],[84.769,19.104],[84.769,19.104],[84.769,19.104],[84.769,19.104],[84.769,19.104],[84.769,19.103],[84.768,19.103],[84.768,19.103],[84.768,19.103],[84.768,19.103],[84.768,19.103],[84.768,19.102],[84.767,19.102],[84.767,19.102],[84.767,19.102],[84.767,19.102],[84.767,19.102],[84.767,19.101],[84.766,19.101],[84.766,19.101],[84.766,19.101],[84.766,19.101],[84.765,19.101],[84.765,19.102],[84.765,19.102],[84.765,19.102],[84.765,19.102],[84.765,19.102],[84.765,19.102],[84.765,19.102],[84.766,19.102],[84.766,19.103],[84.766,19.103],[84.766,19.103],[84.766,19.103],[84.766,19.104],[84.767,19.104],[84.767,19.105],[84.767,19.105],[84.767,19.105],[84.767,19.105],[84.767,19.105],[84.768,19.105],[84.768,19.106],[84.769,19.106],[84.769,19.106],[84.77,19.106]]],[[[84.757,19.111],[84.757,19.11],[84.757,19.11],[84.757,19.11],[84.757,19.11],[84.757,19.11],[84.757,19.11],[84.757,19.109],[84.757,19.109],[84.757,19.108],[84.758,19.108],[84.758,19.109],[84.758,19.109],[84.758,19.11],[84.759,19.11],[84.759,19.11],[84.761,19.11],[84.761,19.109],[84.76,19.109],[84.76,19.109],[84.76,19.109],[84.76,19.108],[84.759,19.108],[84.759,19.108],[84.759,19.108],[84.759,19.107],[84.758,19.107],[84.758,19.107],[84.758,19.107],[84.758,19.106],[84.758,19.106],[84.758,19.105],[84.758,19.105],[84.758,19.105],[84.76,19.105],[84.76,19.105],[84.761,19.105],[84.761,19.105],[84.761,19.105],[84.761,19.106],[84.762,19.106],[84.762,19.106],[84.763,19.106],[84.763,19.107],[84.763,19.107],[84.763,19.107],[84.764,19.107],[84.764,19.107],[84.765,19.107],[84.765,19.107],[84.766,19.107],[84.766,19.105],[84.765,19.105],[84.765,19.104],[84.765,19.104],[84.765,19.104],[84.765,19.104],[84.765,19.103],[84.764,19.103],[84.764,19.103],[84.764,19.103],[84.764,19.103],[84.764,19.103],[84.764,19.102],[84.763,19.102],[84.763,19.102],[84.762,19.102],[84.762,19.102],[84.76,19.102],[84.76,19.103],[84.759,19.103],[84.759,19.102],[84.759,19.102],[84.759,19.102],[84.758,19.102],[84.758,19.102],[84.758,19.102],[84.758,19.102],[84.757,19.102],[84.757,19.102],[84.757,19.102],[84.757,19.104],[84.757,19.104],[84.757,19.105],[84.757,19.105],[84.757,19.105],[84.757,19.105],[84.757,19.106],[84.757,19.106],[84.757,19.106],[84.757,19.106],[84.757,19.106],[84.756,19.106],[84.756,19.107],[84.756,19.107],[84.756,19.107],[84.756,19.107],[84.756,19.107],[84.756,19.107],[84.756,19.108],[84.756,19.108],[84.756,19.109],[84.756,19.109],[84.756,19.109],[84.756,19.109],[84.756,19.109],[84.755,19.109],[84.755,19.11],[84.755,19.11],[84.755,19.111],[84.755,19.111],[84.755,19.111],[84.757,19.111]]],[[[84.783,19.111],[84.761,19.071],[84.73,19.089],[84.751,19.082],[84.759,19.101],[84.783,19.111]]],[[[84.737,20.238],[84.763,20.241],[84.828,20.21],[84.815,20.116],[84.797,20.108],[84.793,20.088],[84.85,20.023],[84.856,19.993],[84.895,19.986],[84.917,19.934],[84.9,19.904],[84.934,19.89],[84.93,19.865],[84.966,19.845],[85.003,19.795],[85.038,19.799],[85.071,19.784],[85.081,19.759],[85.122,19.741],[85.178,19.669],[85.16,19.65],[85.169,19.622],[85.136,19.611],[85.119,19.587],[85.151,19.555],[85.119,19.555],[85.087,19.505],[85.099,19.489],[85.117,19.504],[85.12,19.464],[85.144,19.489],[85.165,19.462],[85.065,19.364],[84.919,19.265],[84.906,19.27],[84.913,19.26],[84.842,19.193],[84.778,19.11],[84.746,19.118],[84.725,19.097],[84.75,19.136],[84.735,19.144],[84.703,19.121],[84.719,19.096],[84.694,19.12],[84.705,19.149],[84.665,19.157],[84.661,19.122],[84.592,19.124],[84.62,19.077],[84.654,19.081],[84.665,19.066],[84.655,19.052],[84.613,19.055],[84.588,19.013],[84.574,19.035],[84.578,19.062],[84.566,19.065],[84.554,19.047],[84.489,19.021],[84.472,18.981],[84.415,19.014],[84.422,18.975],[84.393,18.997],[84.375,18.981],[84.344,19.013],[84.375,19.08],[84.381,19.116],[84.37,19.132],[84.384,19.132],[84.354,19.177],[84.391,19.192],[84.404,19.217],[84.421,19.29],[84.409,19.325],[84.434,19.354],[84.375,19.373],[84.4,19.437],[84.368,19.476],[84.365,19.538],[84.357,19.531],[84.318,19.548],[84.298,19.488],[84.246,19.493],[84.244,19.564],[84.22,19.618],[84.24,19.634],[84.234,19.653],[84.183,19.696],[84.196,19.723],[84.178,19.729],[84.151,19.716],[84.126,19.773],[84.167,19.785],[84.167,19.813],[84.195,19.828],[84.178,19.853],[84.271,19.871],[84.301,19.899],[84.314,19.87],[84.376,19.835],[84.444,19.828],[84.439,19.836],[84.456,19.852],[84.459,19.945],[84.386,19.948],[84.352,19.981],[84.329,19.971],[84.318,19.981],[84.349,20.03],[84.409,20.047],[84.394,20.07],[84.421,20.138],[84.434,20.144],[84.422,20.179],[84.431,20.199],[84.447,20.193],[84.446,20.163],[84.472,20.14],[84.499,20.134],[84.515,20.148],[84.523,20.137],[84.558,20.134],[84.552,20.154],[84.58,20.167],[84.578,20.184],[84.6,20.173],[84.641,20.2],[84.667,20.267],[84.701,20.273],[84.737,20.238]]]]}},{"type":"Feature","properties":{"name":"Jagatsinghpur","district":"Jagatsinghpur","severity":"medium","source":"OSDMA"},"geometry":{"type":"MultiPolygon","coordinates":[[[[86.387,19.963],[86.387,19.962],[86.386,19.961],[86.386,19.961],[86.385,19.96],[86.384,19.96],[86.384,19.96],[86.384,19.96],[86.384,19.96],[86.384,19.96],[86.383,19.959],[86.383,19.959],[86.382,19.959],[86.382,19.959],[86.381,19.959],[86.381,19.959],[86.381,19.959],[86.38,19.959],[86.38,19.959],[86.379,19.959],[86.379,19.959],[86.379,19.96],[86.38,19.96],[86.38,19.96],[86.381,19.96],[86.381,19.961],[86.381,19.961],[86.382,19.961],[86.382,19.961],[86.382,19.961],[86.383,19.961],[86.383,19.962],[86.383,19.962],[86.384,19.962],[86.384,19.962],[86.384,19.962],[86.385,19.962],[86.385,19.963],[86.386,19.963],[86.386,19.963],[86.386,19.963],[86.386,19.963],[86.387,19.963]]],[[[86.392,19.966],[86.392,19.966],[86.392,19.966],[86.391,19.966],[86.39,19.966],[86.39,19.966],[86.391,19.966],[86.392,19.967],[86.392,19.967],[86.393,19.968],[86.394,19.969],[86.396,19.97],[86.396,19.971],[86.397,19.971],[86.398,19.972],[86.399,19.972],[86.399,19.973],[86.399,19.972],[86.399,19.972],[86.399,19.972],[86.398,19.971],[86.398,19.97],[86.396,19.969],[86.395,19.968],[86.393,19.966],[86.393,19.966],[86.393,19.966],[86.392,19.966]]],[[[86.369,19.974],[86.369,19.974],[86.37,19.974],[86.372,19.974],[86.373,19.974],[86.373,19.973],[86.373,19.973],[86.373,19.973],[86.373,19.972],[86.373,19.972],[86.371,19.972],[86.371,19.972],[86.372,19.971],[86.372,19.969],[86.372,19.969],[86.371,19.968],[86.371,19.968],[86.37,19.968],[86.37,19.968],[86.369,19.968],[86.369,19.968],[86.368,19.968],[86.368,19.968],[86.367,19.968],[86.367,19.969],[86.365,19.969],[86.365,19.969],[86.364,19.969],[86.364,19.97],[86.364,19.97],[86.365,19.971],[86.365,19.971],[86.365,19.971],[86.365,19.972],[86.366,19.972],[86.366,19.973],[86.366,19.973],[86.366,19.973],[86.367,19.973],[86.367,19.973],[86.367,19.973],[86.368,19.974],[86.368,19.974],[86.368,19.974],[86.369,19.974]]],[[[86.336,19.991],[86.336,19.99],[86.336,19.99],[86.335,19.989],[86.335,19.989],[86.335,19.988],[86.335,19.988],[86.334,19.989],[86.334,19.989],[86.333,19.99],[86.333,19.99],[86.332,19.99],[86.332,19.99],[86.331,19.991],[86.33,19.992],[86.33,19.994],[86.329,19.996],[86.328,19.997],[86.327,19.999],[86.327,20],[86.327,20],[86.327,20.001],[86.327,20.001],[86.327,20.001],[86.327,20.002],[86.326,20.002],[86.326,20.003],[86.326,20.003],[86.326,20.004],[86.327,20.004],[86.327,20.006],[86.328,20.007],[86.328,20.008],[86.328,20.009],[86.328,20.009],[86.329,20.01],[86.329,20.011],[86.331,20.01],[86.331,20.009],[86.331,20.009],[86.331,20.009],[86.333,20.007],[86.333,20.007],[86.335,20.006],[86.335,20.006],[86.335,20.005],[86.335,20.005],[86.335,20.005],[86.335,20.004],[86.335,20.004],[86.335,20.004],[86.336,20.004],[86.336,20.003],[86.336,20.003],[86.336,20.003],[86.336,20.002],[86.336,20.002],[86.336,20.002],[86.336,20.001],[86.336,20.001],[86.336,20.001],[86.336,20],[86.337,20],[86.337,20],[86.337,19.998],[86.337,19.996],[86.336,19.994],[86.336,19.994],[86.336,19.992],[86.336,19.991]]],[[[86.411,20.018],[86.41,20.018],[86.41,20.018],[86.41,20.017],[86.409,20.017],[86.409,20.018],[86.409,20.019],[86.409,20.019],[86.409,20.02],[86.409,20.02],[86.409,20.021],[86.41,20.021],[86.41,20.022],[86.41,20.022],[86.41,20.022],[86.41,20.023],[86.411,20.023],[86.411,20.024],[86.411,20.024],[86.411,20.024],[86.411,20.024],[86.411,20.025],[86.412,20.025],[86.412,20.025],[86.412,20.026],[86.412,20.026],[86.413,20.025],[86.413,20.025],[86.413,20.025],[86.413,20.025],[86.412,20.024],[86.412,20.024],[86.412,20.024],[86.412,20.023],[86.412,20.023],[86.412,20.022],[86.412,20.021],[86.412,20.021],[86.412,20.02],[86.412,20.02],[86.412,20.019],[86.411,20.019],[86.411,20.018]]],[[[86.32,20.029],[86.321,20.029],[86.321,20.029],[86.321,20.029],[86.322,20.029],[86.322,20.029],[86.322,20.029],[86.323,20.029],[86.323,20.028],[86.324,20.027],[86.324,20.027],[86.324,20.027],[86.324,20.026],[86.326,20.025],[86.326,20.025],[86.327,20.024],[86.327,20.024],[86.326,20.024],[86.326,20.024],[86.326,20.023],[86.325,20.023],[86.324,20.022],[86.323,20.022],[86.322,20.023],[86.322,20.023],[86.322,20.024],[86.322,20.024],[86.321,20.024],[86.321,20.024],[86.321,20.025],[86.321,20.025],[86.32,20.026],[86.32,20.026],[86.32,20.027],[86.32,20.027],[86.32,20.027],[86.32,20.028],[86.32,20.028],[86.32,20.029],[86.32,20.029],[86.32,20.029],[86.32,20.029]]],[[[86.315,20.032],[86.322,20.011],[86.301,20.026],[86.315,20.032]]],[[[86.31,20.041],[86.31,20.041],[86.311,20.041],[86.311,20.04],[86.313,20.04],[86.313,20.04],[86.313,20.04],[86.314,20.039],[86.313,20.038],[86.311,20.038],[86.311,20.039],[86.31,20.039],[86.31,20.039],[86.309,20.039],[86.309,20.039],[86.309,20.04],[86.309,20.04],[86.309,20.041],[86.31,20.041],[86.31,20.041]]],[[[86.301,20.042],[86.301,20.042],[86.301,20.042],[86.303,20.04],[86.303,20.04],[86.304,20.04],[86.303,20.039],[86.303,20.039],[86.303,20.039],[86.302,20.039],[86.302,20.039],[86.301,20.039],[86.301,20.039],[86.301,20.039],[86.301,20.039],[86.3,20.039],[86.3,20.04],[86.3,20.04],[86.299,20.04],[86.299,20.041],[86.299,20.041],[86.299,20.041],[86.299,20.041],[86.299,20.042],[86.299,20.042],[86.299,20.042],[86.299,20.042],[86.3,20.042],[86.301,20.042]]],[[[86.426,20.039],[86.426,20.038],[86.426,20.038],[86.425,20.038],[86.425,20.037],[86.425,20.037],[86.425,20.036],[86.424,20.036],[86.424,20.036],[86.423,20.034],[86.423,20.034],[86.423,20.034],[86.422,20.033],[86.422,20.033],[86.421,20.032],[86.421,20.032],[86.421,20.032],[86.421,20.032],[86.421,20.033],[86.42,20.033],[86.421,20.033],[86.421,20.033],[86.421,20.034],[86.421,20.034],[86.421,20.034],[86.421,20.035],[86.421,20.035],[86.421,20.036],[86.422,20.036],[86.422,20.036],[86.421,20.036],[86.421,20.038],[86.422,20.038],[86.422,20.038],[86.424,20.04],[86.424,20.041],[86.424,20.041],[86.424,20.041],[86.424,20.042],[86.424,20.042],[86.425,20.042],[86.425,20.042],[86.426,20.044],[86.426,20.044],[86.427,20.043],[86.427,20.042],[86.427,20.042],[86.427,20.042],[86.427,20.041],[86.427,20.041],[86.427,20.041],[86.427,20.04],[86.427,20.04],[86.427,20.039],[86.426,20.039],[86.426,20.039]]],[[[86.295,20.05],[86.296,20.049],[86.296,20.049],[86.296,20.05],[86.297,20.05],[86.298,20.048],[86.298,20.048],[86.299,20.048],[86.299,20.048],[86.299,20.047],[86.299,20.047],[86.299,20.047],[86.299,20.046],[86.299,20.046],[86.299,20.046],[86.3,20.046],[86.3,20.045],[86.3,20.045],[86.3,20.044],[86.3,20.044],[86.299,20.044],[86.298,20.044],[86.298,20.044],[86.298,20.045],[86.297,20.045],[86.297,20.045],[86.296,20.045],[86.296,20.046],[86.296,20.046],[86.296,20.046],[86.295,20.046],[86.295,20.046],[86.295,20.046],[86.294,20.046],[86.294,20.046],[86.294,20.047],[86.293,20.047],[86.293,20.047],[86.292,20.047],[86.292,20.047],[86.292,20.047],[86.291,20.048],[86.291,20.049],[86.291,20.049],[86.291,20.049],[86.291,20.05],[86.292,20.05],[86.293,20.05],[86.293,20.051],[86.293,20.051],[86.294,20.051],[86.295,20.05]]],[[[86.27,20.058],[86.308,20.034],[86.268,20.036],[86.277,20.047],[86.254,20.046],[86.27,20.058]]],[[[86.263,20.058],[86.262,20.056],[86.261,20.056],[86.26,20.055],[86.26,20.055],[86.26,20.055],[86.259,20.055],[86.259,20.054],[86.258,20.054],[86.258,20.054],[86.258,20.054],[86.257,20.054],[86.257,20.054],[86.257,20.054],[86.257,20.054],[86.256,20.053],[86.256,20.053],[86.256,20.053],[86.255,20.052],[86.254,20.053],[86.254,20.052],[86.254,20.053],[86.253,20.053],[86.253,20.052],[86.253,20.052],[86.253,20.052],[86.252,20.052],[86.252,20.052],[86.252,20.052],[86.251,20.051],[86.251,20.051],[86.251,20.052],[86.251,20.052],[86.25,20.053],[86.251,20.053],[86.251,20.053],[86.252,20.054],[86.252,20.054],[86.253,20.056],[86.254,20.056],[86.254,20.056],[86.254,20.056],[86.254,20.056],[86.255,20.056],[86.255,20.056],[86.255,20.056],[86.256,20.057],[86.256,20.057],[86.256,20.057],[86.257,20.057],[86.257,20.058],[86.257,20.058],[86.257,20.058],[86.258,20.058],[86.259,20.058],[86.259,20.058],[86.259,20.058],[86.261,20.058],[86.262,20.059],[86.262,20.059],[86.263,20.058]]],[[[86.437,20.059],[86.438,20.059],[86.438,20.058],[86.438,20.058],[86.437,20.058],[86.437,20.058],[86.436,20.058],[86.436,20.058],[86.435,20.057],[86.435,20.056],[86.434,20.055],[86.434,20.055],[86.434,20.054],[86.434,20.053],[86.434,20.052],[86.434,20.052],[86.435,20.052],[86.435,20.052],[86.434,20.051],[86.434,20.051],[86.433,20.051],[86.433,20.051],[86.432,20.051],[86.432,20.052],[86.432,20.053],[86.432,20.054],[86.432,20.055],[86.432,20.055],[86.432,20.056],[86.432,20.056],[86.433,20.056],[86.433,20.057],[86.434,20.058],[86.434,20.058],[86.434,20.059],[86.435,20.059],[86.436,20.059],[86.436,20.059],[86.436,20.059],[86.437,20.059],[86.437,20.059],[86.437,20.059]]],[[[86.491,20.15],[86.491,20.149],[86.492,20.149],[86.492,20.148],[86.492,20.148],[86.493,20.148],[86.493,20.148],[86.493,20.149],[86.494,20.149],[86.495,20.149],[86.495,20.148],[86.494,20.147],[86.494,20.147],[86.493,20.146],[86.493,20.146],[86.492,20.146],[86.491,20.146],[86.491,20.146],[86.49,20.146],[86.49,20.146],[86.49,20.146],[86.489,20.147],[86.489,20.147],[86.489,20.147],[86.489,20.148],[86.489,20.148],[86.489,20.149],[86.49,20.149],[86.491,20.149],[86.491,20.15],[86.491,20.15]]],[[[86.502,20.176],[86.502,20.176],[86.503,20.176],[86.503,20.175],[86.504,20.175],[86.504,20.175],[86.504,20.175],[86.505,20.174],[86.505,20.174],[86.505,20.174],[86.506,20.174],[86.506,20.174],[86.507,20.174],[86.508,20.173],[86.508,20.173],[86.507,20.171],[86.507,20.171],[86.506,20.17],[86.505,20.17],[86.505,20.17],[86.504,20.169],[86.503,20.169],[86.503,20.169],[86.502,20.169],[86.502,20.169],[86.502,20.168],[86.5,20.168],[86.5,20.168],[86.5,20.168],[86.5,20.167],[86.5,20.167],[86.5,20.166],[86.499,20.166],[86.499,20.165],[86.499,20.165],[86.498,20.164],[86.498,20.164],[86.498,20.163],[86.497,20.163],[86.497,20.162],[86.497,20.162],[86.496,20.162],[86.496,20.162],[86.495,20.162],[86.495,20.162],[86.494,20.162],[86.494,20.162],[86.494,20.163],[86.493,20.163],[86.494,20.163],[86.494,20.164],[86.494,20.164],[86.494,20.165],[86.494,20.165],[86.494,20.165],[86.495,20.165],[86.494,20.166],[86.494,20.166],[86.494,20.166],[86.494,20.166],[86.493,20.166],[86.493,20.166],[86.492,20.165],[86.492,20.165],[86.492,20.165],[86.491,20.165],[86.491,20.166],[86.491,20.166],[86.491,20.167],[86.491,20.167],[86.491,20.168],[86.491,20.168],[86.49,20.169],[86.49,20.169],[86.49,20.17],[86.49,20.17],[86.49,20.171],[86.491,20.171],[86.491,20.171],[86.492,20.172],[86.492,20.172],[86.493,20.172],[86.493,20.172],[86.493,20.172],[86.493,20.172],[86.494,20.173],[86.494,20.173],[86.494,20.173],[86.494,20.173],[86.495,20.173],[86.495,20.173],[86.496,20.173],[86.496,20.173],[86.496,20.173],[86.496,20.174],[86.497,20.174],[86.497,20.175],[86.497,20.175],[86.497,20.175],[86.497,20.176],[86.498,20.176],[86.498,20.176],[86.498,20.177],[86.499,20.177],[86.499,20.177],[86.5,20.176],[86.501,20.176],[86.501,20.176],[86.502,20.176]]],[[[86.553,20.205],[86.553,20.205],[86.553,20.206],[86.553,20.206],[86.554,20.207],[86.555,20.207],[86.555,20.207],[86.555,20.207],[86.555,20.206],[86.554,20.206],[86.554,20.206],[86.553,20.205]]],[[[86.088,20.358],[86.132,20.35],[86.17,20.371],[86.197,20.356],[86.272,20.365],[86.273,20.354],[86.317,20.349],[86.339,20.363],[86.348,20.346],[86.386,20.349],[86.393,20.361],[86.452,20.326],[86.524,20.336],[86.557,20.32],[86.593,20.337],[86.648,20.329],[86.69,20.295],[86.719,20.29],[86.68,20.263],[86.671,20.282],[86.68,20.258],[86.554,20.21],[86.51,20.177],[86.494,20.182],[86.497,20.19],[86.468,20.147],[86.46,20.162],[86.466,20.146],[86.485,20.17],[86.491,20.158],[86.475,20.141],[86.484,20.142],[86.48,20.126],[86.462,20.115],[86.471,20.097],[86.464,20.115],[86.488,20.141],[86.489,20.121],[86.504,20.164],[86.559,20.2],[86.522,20.171],[86.437,20.061],[86.412,20.056],[86.427,20.05],[86.412,20.036],[86.411,20],[86.384,19.976],[86.382,19.996],[86.374,19.98],[86.342,19.986],[86.327,20.031],[86.29,20.061],[86.286,20.05],[86.262,20.062],[86.242,20.031],[86.22,20.03],[86.165,20.066],[86.152,20.086],[86.162,20.104],[86.155,20.127],[86.141,20.138],[86.146,20.215],[86.074,20.238],[86.064,20.264],[86.025,20.293],[86.03,20.333],[86.009,20.374],[86.022,20.394],[86.088,20.358]]]]}},{"type":"Feature","properties":{"name":"Jajpur","district":"Jajpur","severity":"high","source":"OSDMA"},"geometry":{"type":"Polygon","coordinates":[[[85.926,21.126],[85.955,21.123],[85.973,21.138],[86.018,21.132],[86.033,21.151],[86.082,21.162],[86.068,21.122],[86.023,21.067],[86.043,21.018],[86.084,21.012],[86.09,21.045],[86.129,21.068],[86.257,21.033],[86.286,21.009],[86.277,20.9],[86.33,20.873],[86.324,20.859],[86.35,20.847],[86.396,20.858],[86.447,20.838],[86.493,20.862],[86.565,20.859],[86.592,20.851],[86.621,20.784],[86.605,20.767],[86.562,20.769],[86.539,20.747],[86.538,20.728],[86.558,20.733],[86.542,20.689],[86.526,20.683],[86.514,20.693],[86.485,20.673],[86.466,20.681],[86.45,20.67],[86.452,20.644],[86.425,20.637],[86.421,20.619],[86.401,20.62],[86.37,20.588],[86.328,20.603],[86.321,20.625],[86.315,20.577],[86.269,20.577],[86.25,20.601],[86.209,20.611],[86.205,20.626],[86.184,20.617],[86.164,20.63],[86.191,20.639],[86.176,20.652],[86.171,20.638],[86.144,20.637],[86.114,20.611],[86.087,20.611],[86.077,20.592],[86.043,20.583],[85.976,20.658],[85.901,20.701],[85.98,20.729],[86.02,20.72],[86.028,20.803],[85.896,20.84],[85.916,20.892],[85.914,20.921],[85.822,20.92],[85.798,20.961],[85.774,20.976],[85.737,20.986],[85.719,20.977],[85.725,21.057],[85.7,21.068],[85.681,21.1],[85.682,21.125],[85.695,21.134],[85.752,21.143],[85.77,21.098],[85.882,21.08],[85.913,21.088],[85.926,21.126]]]}},{"type":"Feature","properties":{"name":"Jharsuguda","district":"Jharsuguda","severity":"medium","source":"OSDMA"},"geometry":{"type":"Polygon","coordinates":[[[84.263,22.011],[84.283,22.014],[84.293,22.031],[84.351,22.033],[84.382,22.021],[84.386,21.989],[84.369,21.971],[84.37,21.951],[84.284,21.763],[84.214,21.763],[84.183,21.751],[84.108,21.786],[84.032,21.756],[84.008,21.783],[83.984,21.749],[83.963,21.763],[83.937,21.724],[83.966,21.705],[83.974,21.592],[83.957,21.568],[83.879,21.572],[83.816,21.591],[83.793,21.563],[83.72,21.628],[83.688,21.699],[83.553,21.74],[83.52,21.67],[83.483,21.64],[83.42,21.675],[83.428,21.692],[83.456,21.694],[83.478,21.728],[83.484,21.742],[83.467,21.783],[83.491,21.815],[83.537,21.794],[83.531,21.832],[83.586,21.823],[83.623,21.846],[83.636,21.814],[83.715,21.783],[83.776,21.853],[83.794,21.866],[83.807,21.852],[83.81,21.88],[83.823,21.875],[83.828,21.893],[83.858,21.908],[83.847,21.92],[83.874,21.921],[83.89,21.943],[83.954,21.938],[83.974,21.903],[84.022,21.95],[84.072,21.934],[84.083,21.964],[84.066,21.987],[84.103,21.99],[84.114,22.008],[84.226,21.972],[84.263,22.011]]]}},{"type":"Feature","properties":{"name":"Kalahandi","district":"Kalahandi","severity":null,"source":"OSDMA"},"geometry":{"type":"Polygon","coordinates":[[[83.48,20.449],[83.485,20.401],[83.501,20.41],[83.55,20.395],[83.57,20.36],[83.618,20.345],[83.623,20.363],[83.648,20.362],[83.645,20.384],[83.698,20.365],[83.713,20.233],[83.734,20.219],[83.725,20.207],[83.779,20.207],[83.784,20.175],[83.767,20.156],[83.727,20.143],[83.704,20.096],[83.671,20.107],[83.628,20.084],[83.577,20.109],[83.582,20.094],[83.561,20.051],[83.537,20.016],[83.499,19.991],[83.489,19.954],[83.445,19.967],[83.436,19.927],[83.401,19.917],[83.432,19.8],[83.452,19.79],[83.448,19.734],[83.423,19.692],[83.379,19.661],[83.366,19.592],[83.348,19.599],[83.295,19.585],[83.26,19.594],[83.241,19.502],[83.221,19.497],[83.198,19.457],[83.211,19.429],[83.18,19.457],[83.178,19.419],[83.16,19.425],[83.143,19.462],[83.152,19.479],[83.128,19.503],[83.114,19.494],[83.102,19.503],[83.1,19.533],[83.081,19.534],[83.063,19.556],[83.031,19.546],[83.019,19.506],[82.986,19.484],[82.984,19.441],[82.921,19.435],[82.945,19.384],[82.95,19.318],[82.897,19.278],[82.883,19.247],[82.894,19.223],[82.871,19.177],[82.865,19.193],[82.843,19.199],[82.831,19.228],[82.798,19.23],[82.819,19.25],[82.841,19.317],[82.792,19.322],[82.773,19.337],[82.749,19.321],[82.735,19.343],[82.72,19.34],[82.701,19.377],[82.702,19.412],[82.686,19.411],[82.626,19.476],[82.635,19.505],[82.601,19.514],[82.609,19.532],[82.561,19.537],[82.551,19.574],[82.524,19.576],[82.542,19.604],[82.52,19.624],[82.55,19.639],[82.571,19.674],[82.561,19.678],[82.567,19.708],[82.556,19.721],[82.596,19.741],[82.585,19.771],[82.623,19.789],[82.646,19.825],[82.703,19.831],[82.718,19.871],[82.701,19.893],[82.711,19.983],[82.698,19.993],[82.731,20.019],[82.741,20.037],[82.732,20.047],[82.749,20.05],[82.783,20.097],[82.808,20.097],[82.817,20.161],[82.902,20.143],[82.925,20.174],[83.006,20.165],[83.084,20.193],[83.121,20.189],[83.138,20.165],[83.176,20.167],[83.219,20.2],[83.232,20.251],[83.278,20.276],[83.293,20.298],[83.353,20.31],[83.363,20.337],[83.405,20.367],[83.416,20.398],[83.48,20.449]]]}},{"type":"Feature","properties":{"name":"Kandhamal","district":"Kandhamal","severity":null,"source":"OSDMA"},"geometry":{"type":"Polygon","coordinates":[[[84.336,20.669],[84.352,20.671],[84.368,20.639],[84.386,20.526],[84.424,20.509],[84.422,20.478],[84.449,20.462],[84.456,20.391],[84.481,20.381],[84.506,20.392],[84.513,20.366],[84.481,20.336],[84.506,20.334],[84.51,20.315],[84.537,20.32],[84.541,20.238],[84.58,20.167],[84.552,20.154],[84.558,20.134],[84.511,20.148],[84.499,20.134],[84.479,20.136],[84.446,20.163],[84.451,20.185],[84.431,20.199],[84.422,20.179],[84.434,20.144],[84.421,20.138],[84.394,20.07],[84.409,20.047],[84.349,20.03],[84.324,19.999],[84.318,19.981],[84.329,19.971],[84.349,19.982],[84.386,19.948],[84.459,19.945],[84.456,19.852],[84.439,19.836],[84.444,19.828],[84.376,19.835],[84.314,19.87],[84.301,19.899],[84.271,19.871],[84.178,19.853],[84.195,19.828],[84.167,19.813],[84.167,19.785],[84.126,19.773],[84.151,19.716],[84.178,19.729],[84.196,19.723],[84.183,19.696],[84.234,19.653],[84.24,19.634],[84.22,19.618],[84.232,19.564],[84.198,19.583],[84.151,19.574],[84.12,19.626],[84.085,19.622],[84.083,19.609],[84.022,19.625],[84.004,19.61],[83.997,19.62],[83.969,19.613],[83.936,19.628],[83.919,19.656],[83.931,19.662],[83.925,19.67],[83.867,19.667],[83.836,19.703],[83.807,19.71],[83.762,19.706],[83.756,19.673],[83.733,19.648],[83.687,19.681],[83.642,19.651],[83.63,19.666],[83.637,19.697],[83.621,19.736],[83.603,19.748],[83.615,19.771],[83.612,19.809],[83.595,19.826],[83.582,19.816],[83.522,19.851],[83.521,19.871],[83.555,19.922],[83.489,19.954],[83.499,19.991],[83.537,20.016],[83.561,20.051],[83.582,20.094],[83.577,20.109],[83.628,20.084],[83.671,20.107],[83.704,20.096],[83.727,20.143],[83.767,20.156],[83.784,20.175],[83.779,20.207],[83.725,20.207],[83.734,20.219],[83.713,20.233],[83.698,20.365],[83.647,20.382],[83.653,20.411],[83.673,20.424],[83.688,20.411],[83.715,20.429],[83.772,20.407],[83.78,20.438],[83.806,20.428],[83.805,20.444],[83.823,20.446],[83.789,20.504],[83.812,20.519],[83.817,20.542],[83.836,20.539],[83.851,20.567],[83.908,20.575],[83.91,20.611],[83.931,20.598],[83.936,20.577],[83.965,20.581],[84,20.564],[84.067,20.593],[84.139,20.579],[84.171,20.599],[84.182,20.585],[84.215,20.582],[84.255,20.607],[84.276,20.637],[84.271,20.669],[84.286,20.682],[84.32,20.687],[84.336,20.669]]]}},{"type":"Feature","properties":{"name":"Kendrapara","district":"Kendrapara","severity":"medium","source":"OSDMA"},"geometry":{"type":"MultiPolygon","coordinates":[[[[86.792,20.374],[86.792,20.373],[86.792,20.373],[86.793,20.373],[86.794,20.373],[86.794,20.373],[86.794,20.373],[86.794,20.373],[86.794,20.373],[86.795,20.373],[86.796,20.372],[86.796,20.372],[86.796,20.372],[86.795,20.371],[86.795,20.37],[86.795,20.37],[86.795,20.369],[86.795,20.369],[86.794,20.368],[86.794,20.368],[86.794,20.367],[86.794,20.367],[86.794,20.367],[86.792,20.365],[86.792,20.365],[86.792,20.365],[86.791,20.366],[86.791,20.366],[86.791,20.366],[86.791,20.367],[86.791,20.367],[86.79,20.368],[86.79,20.369],[86.79,20.369],[86.79,20.37],[86.79,20.371],[86.791,20.371],[86.791,20.372],[86.791,20.373],[86.791,20.373],[86.792,20.374]]],[[[86.794,20.38],[86.794,20.38],[86.795,20.379],[86.795,20.379],[86.795,20.379],[86.795,20.378],[86.795,20.378],[86.796,20.378],[86.796,20.377],[86.796,20.377],[86.797,20.377],[86.797,20.376],[86.797,20.375],[86.796,20.375],[86.796,20.374],[86.796,20.374],[86.796,20.374],[86.795,20.375],[86.794,20.376],[86.794,20.376],[86.794,20.375],[86.794,20.375],[86.793,20.375],[86.793,20.375],[86.792,20.375],[86.792,20.376],[86.792,20.376],[86.791,20.376],[86.791,20.378],[86.791,20.378],[86.791,20.378],[86.791,20.379],[86.791,20.379],[86.792,20.38],[86.792,20.38],[86.793,20.38],[86.793,20.38],[86.794,20.38]]],[[[86.793,20.384],[86.793,20.384],[86.791,20.386],[86.792,20.386],[86.792,20.386],[86.793,20.388],[86.794,20.388],[86.794,20.387],[86.794,20.387],[86.794,20.386],[86.794,20.386],[86.794,20.384],[86.794,20.384],[86.793,20.384]]],[[[86.803,20.421],[86.815,20.407],[86.804,20.371],[86.803,20.421]]],[[[86.79,20.388],[86.789,20.388],[86.789,20.388],[86.789,20.388],[86.789,20.389],[86.789,20.389],[86.789,20.39],[86.789,20.391],[86.789,20.391],[86.789,20.391],[86.789,20.392],[86.789,20.392],[86.789,20.393],[86.789,20.393],[86.789,20.393],[86.789,20.393],[86.789,20.394],[86.789,20.394],[86.789,20.394],[86.79,20.395],[86.79,20.395],[86.79,20.396],[86.79,20.396],[86.79,20.396],[86.79,20.397],[86.79,20.397],[86.79,20.398],[86.79,20.398],[86.79,20.399],[86.79,20.4],[86.79,20.401],[86.789,20.402],[86.789,20.403],[86.789,20.404],[86.788,20.405],[86.788,20.406],[86.788,20.406],[86.788,20.406],[86.788,20.407],[86.789,20.407],[86.789,20.408],[86.789,20.409],[86.789,20.409],[86.79,20.409],[86.79,20.409],[86.79,20.41],[86.79,20.411],[86.79,20.411],[86.79,20.412],[86.791,20.412],[86.791,20.413],[86.79,20.413],[86.79,20.414],[86.79,20.414],[86.79,20.415],[86.79,20.416],[86.79,20.416],[86.79,20.417],[86.79,20.417],[86.79,20.417],[86.79,20.418],[86.79,20.42],[86.79,20.42],[86.79,20.421],[86.79,20.421],[86.79,20.422],[86.79,20.422],[86.79,20.424],[86.79,20.424],[86.79,20.425],[86.79,20.425],[86.79,20.426],[86.79,20.426],[86.79,20.426],[86.79,20.427],[86.791,20.427],[86.791,20.428],[86.791,20.428],[86.791,20.429],[86.791,20.429],[86.791,20.429],[86.791,20.429],[86.792,20.429],[86.792,20.429],[86.792,20.428],[86.792,20.428],[86.792,20.428],[86.793,20.427],[86.793,20.427],[86.793,20.427],[86.793,20.427],[86.793,20.426],[86.793,20.426],[86.793,20.426],[86.793,20.425],[86.793,20.425],[86.793,20.425],[86.793,20.424],[86.794,20.424],[86.794,20.423],[86.794,20.423],[86.794,20.422],[86.794,20.422],[86.794,20.421],[86.794,20.421],[86.794,20.42],[86.794,20.42],[86.793,20.42],[86.793,20.419],[86.793,20.419],[86.793,20.418],[86.793,20.418],[86.793,20.418],[86.794,20.417],[86.794,20.417],[86.794,20.417],[86.794,20.416],[86.794,20.416],[86.794,20.415],[86.794,20.415],[86.794,20.414],[86.794,20.414],[86.794,20.413],[86.794,20.413],[86.795,20.412],[86.795,20.412],[86.795,20.412],[86.795,20.411],[86.795,20.41],[86.795,20.41],[86.794,20.41],[86.794,20.409],[86.794,20.409],[86.793,20.408],[86.793,20.408],[86.793,20.407],[86.793,20.406],[86.793,20.406],[86.793,20.405],[86.793,20.404],[86.793,20.404],[86.793,20.403],[86.793,20.402],[86.793,20.402],[86.793,20.401],[86.793,20.401],[86.793,20.401],[86.793,20.4],[86.793,20.4],[86.793,20.399],[86.794,20.399],[86.794,20.399],[86.794,20.398],[86.794,20.398],[86.794,20.398],[86.794,20.398],[86.794,20.397],[86.794,20.397],[86.794,20.397],[86.794,20.396],[86.794,20.396],[86.794,20.395],[86.794,20.395],[86.795,20.395],[86.795,20.394],[86.795,20.394],[86.795,20.393],[86.795,20.393],[86.794,20.393],[86.794,20.392],[86.794,20.392],[86.794,20.391],[86.794,20.391],[86.793,20.39],[86.793,20.39],[86.793,20.39],[86.793,20.389],[86.792,20.389],[86.792,20.389],[86.792,20.389],[86.791,20.388],[86.791,20.388],[86.791,20.388],[86.79,20.388],[86.79,20.388]]],[[[86.803,20.459],[86.803,20.459],[86.802,20.46],[86.802,20.46],[86.801,20.46],[86.801,20.46],[86.801,20.461],[86.801,20.462],[86.801,20.462],[86.802,20.463],[86.802,20.463],[86.803,20.463],[86.803,20.463],[86.804,20.462],[86.804,20.461],[86.803,20.461],[86.803,20.46],[86.803,20.459]]],[[[86.805,20.492],[86.806,20.491],[86.806,20.491],[86.807,20.49],[86.807,20.49],[86.807,20.489],[86.807,20.489],[86.808,20.489],[86.808,20.489],[86.808,20.488],[86.808,20.488],[86.808,20.487],[86.808,20.487],[86.808,20.487],[86.808,20.487],[86.808,20.486],[86.808,20.486],[86.808,20.486],[86.809,20.485],[86.809,20.484],[86.809,20.484],[86.809,20.483],[86.809,20.483],[86.809,20.483],[86.809,20.482],[86.809,20.482],[86.809,20.481],[86.809,20.481],[86.809,20.48],[86.809,20.48],[86.809,20.479],[86.809,20.479],[86.809,20.478],[86.809,20.478],[86.809,20.477],[86.809,20.477],[86.809,20.477],[86.809,20.476],[86.808,20.474],[86.808,20.474],[86.808,20.474],[86.808,20.474],[86.807,20.473],[86.807,20.473],[86.807,20.473],[86.807,20.472],[86.807,20.472],[86.806,20.471],[86.806,20.469],[86.806,20.468],[86.806,20.468],[86.806,20.467],[86.806,20.467],[86.806,20.466],[86.806,20.466],[86.805,20.466],[86.805,20.465],[86.805,20.465],[86.805,20.464],[86.804,20.464],[86.804,20.464],[86.804,20.464],[86.802,20.465],[86.803,20.465],[86.803,20.466],[86.803,20.466],[86.803,20.467],[86.803,20.467],[86.803,20.468],[86.802,20.468],[86.802,20.47],[86.802,20.47],[86.802,20.471],[86.802,20.471],[86.802,20.472],[86.801,20.473],[86.801,20.473],[86.801,20.474],[86.801,20.474],[86.801,20.474],[86.801,20.474],[86.801,20.475],[86.801,20.475],[86.802,20.475],[86.802,20.476],[86.802,20.476],[86.802,20.476],[86.802,20.476],[86.804,20.478],[86.805,20.48],[86.805,20.48],[86.806,20.481],[86.806,20.481],[86.804,20.483],[86.804,20.483],[86.803,20.483],[86.804,20.484],[86.804,20.484],[86.804,20.484],[86.804,20.485],[86.804,20.486],[86.804,20.486],[86.804,20.486],[86.804,20.486],[86.804,20.487],[86.804,20.487],[86.805,20.487],[86.805,20.487],[86.805,20.487],[86.805,20.488],[86.804,20.489],[86.804,20.489],[86.804,20.489],[86.804,20.49],[86.804,20.49],[86.804,20.491],[86.804,20.491],[86.804,20.491],[86.804,20.492],[86.805,20.492],[86.805,20.492]]],[[[86.874,20.674],[86.874,20.673],[86.874,20.673],[86.873,20.673],[86.872,20.673],[86.872,20.673],[86.872,20.673],[86.872,20.674],[86.872,20.674],[86.873,20.675],[86.873,20.676],[86.876,20.678],[86.876,20.678],[86.876,20.678],[86.877,20.679],[86.877,20.679],[86.878,20.679],[86.878,20.679],[86.879,20.679],[86.879,20.679],[86.878,20.678],[86.878,20.678],[86.876,20.676],[86.876,20.676],[86.874,20.674],[86.874,20.674]]],[[[86.798,20.692],[86.798,20.69],[86.798,20.69],[86.798,20.689],[86.797,20.689],[86.797,20.688],[86.796,20.686],[86.795,20.684],[86.795,20.684],[86.795,20.684],[86.795,20.683],[86.795,20.683],[86.795,20.683],[86.794,20.683],[86.794,20.682],[86.794,20.682],[86.794,20.682],[86.794,20.681],[86.794,20.681],[86.794,20.681],[86.794,20.68],[86.793,20.68],[86.793,20.68],[86.793,20.679],[86.793,20.679],[86.793,20.679],[86.793,20.678],[86.792,20.678],[86.792,20.678],[86.791,20.677],[86.791,20.676],[86.791,20.676],[86.791,20.676],[86.79,20.675],[86.79,20.675],[86.789,20.675],[86.789,20.677],[86.789,20.678],[86.789,20.679],[86.789,20.681],[86.79,20.681],[86.79,20.683],[86.79,20.683],[86.79,20.683],[86.79,20.684],[86.79,20.684],[86.791,20.684],[86.791,20.685],[86.791,20.685],[86.791,20.686],[86.791,20.686],[86.791,20.686],[86.791,20.686],[86.791,20.687],[86.792,20.687],[86.792,20.687],[86.792,20.688],[86.792,20.688],[86.792,20.688],[86.792,20.689],[86.793,20.689],[86.793,20.69],[86.793,20.69],[86.793,20.691],[86.793,20.691],[86.793,20.691],[86.794,20.691],[86.794,20.691],[86.794,20.692],[86.794,20.692],[86.794,20.693],[86.795,20.693],[86.795,20.694],[86.795,20.694],[86.795,20.694],[86.795,20.695],[86.795,20.696],[86.796,20.696],[86.796,20.697],[86.796,20.698],[86.796,20.698],[86.797,20.699],[86.797,20.699],[86.798,20.699],[86.798,20.7],[86.798,20.701],[86.799,20.701],[86.799,20.7],[86.799,20.7],[86.799,20.699],[86.799,20.699],[86.798,20.699],[86.798,20.697],[86.799,20.696],[86.798,20.695],[86.798,20.694],[86.798,20.692],[86.798,20.692]]],[[[87.003,20.711],[87.002,20.71],[87.002,20.711],[87.002,20.711],[87.002,20.711],[87.003,20.711],[87.003,20.712],[87.003,20.712],[87.003,20.712],[87.003,20.713],[87.003,20.713],[87.004,20.714],[87.004,20.715],[87.005,20.715],[87.005,20.716],[87.005,20.716],[87.006,20.717],[87.006,20.718],[87.007,20.719],[87.008,20.72],[87.008,20.72],[87.009,20.72],[87.009,20.72],[87.009,20.72],[87.009,20.72],[87.009,20.719],[87.009,20.719],[87.009,20.718],[87.009,20.718],[87.008,20.718],[87.008,20.717],[87.008,20.717],[87.007,20.716],[87.007,20.716],[87.007,20.715],[87.006,20.714],[87.006,20.713],[87.006,20.713],[87.005,20.712],[87.005,20.712],[87.005,20.712],[87.004,20.712],[87.004,20.711],[87.004,20.711],[87.003,20.711],[87.003,20.711]]],[[[87.009,20.708],[87.008,20.708],[87.005,20.708],[87.004,20.708],[87.004,20.708],[87.002,20.709],[87.002,20.709],[87.003,20.71],[87.003,20.71],[87.004,20.71],[87.004,20.711],[87.005,20.711],[87.005,20.712],[87.006,20.712],[87.006,20.713],[87.007,20.714],[87.007,20.714],[87.007,20.715],[87.008,20.715],[87.008,20.716],[87.009,20.717],[87.009,20.718],[87.01,20.718],[87.011,20.719],[87.011,20.719],[87.011,20.72],[87.012,20.72],[87.013,20.721],[87.013,20.721],[87.014,20.722],[87.014,20.722],[87.015,20.722],[87.016,20.722],[87.016,20.722],[87.016,20.722],[87.016,20.722],[87.016,20.722],[87.017,20.721],[87.017,20.721],[87.017,20.72],[87.017,20.72],[87.017,20.719],[87.018,20.719],[87.018,20.719],[87.018,20.718],[87.018,20.717],[87.018,20.717],[87.018,20.717],[87.018,20.716],[87.017,20.716],[87.017,20.716],[87.017,20.715],[87.017,20.714],[87.017,20.714],[87.017,20.713],[87.016,20.712],[87.016,20.712],[87.016,20.712],[87.015,20.711],[87.014,20.71],[87.014,20.71],[87.013,20.71],[87.013,20.709],[87.012,20.709],[87.011,20.709],[87.011,20.709],[87.01,20.708],[87.009,20.708],[87.009,20.708]]],[[[87.058,20.744],[87.058,20.744],[87.057,20.744],[87.057,20.744],[87.057,20.744],[87.056,20.744],[87.056,20.744],[87.056,20.744],[87.055,20.744],[87.055,20.744],[87.055,20.743],[87.054,20.744],[87.054,20.744],[87.053,20.744],[87.053,20.743],[87.052,20.743],[87.052,20.743],[87.051,20.743],[87.051,20.743],[87.05,20.743],[87.05,20.743],[87.05,20.743],[87.05,20.743],[87.049,20.743],[87.049,20.744],[87.049,20.744],[87.05,20.745],[87.05,20.745],[87.05,20.745],[87.051,20.745],[87.051,20.745],[87.052,20.745],[87.052,20.745],[87.052,20.746],[87.053,20.746],[87.053,20.746],[87.054,20.746],[87.054,20.746],[87.055,20.746],[87.055,20.746],[87.056,20.745],[87.056,20.745],[87.057,20.745],[87.057,20.745],[87.057,20.745],[87.058,20.744]]],[[[87.071,20.736],[87.07,20.736],[87.07,20.735],[87.069,20.736],[87.069,20.736],[87.068,20.737],[87.068,20.737],[87.068,20.738],[87.068,20.738],[87.068,20.739],[87.069,20.739],[87.069,20.739],[87.07,20.739],[87.07,20.74],[87.07,20.74],[87.07,20.74],[87.07,20.741],[87.07,20.741],[87.07,20.741],[87.07,20.742],[87.07,20.742],[87.07,20.743],[87.07,20.743],[87.07,20.744],[87.07,20.744],[87.07,20.744],[87.07,20.745],[87.07,20.746],[87.07,20.746],[87.07,20.747],[87.071,20.747],[87.071,20.747],[87.071,20.748],[87.071,20.748],[87.071,20.749],[87.072,20.749],[87.072,20.749],[87.072,20.749],[87.072,20.748],[87.072,20.748],[87.072,20.747],[87.072,20.747],[87.072,20.746],[87.072,20.746],[87.072,20.745],[87.072,20.745],[87.072,20.745],[87.072,20.744],[87.072,20.744],[87.072,20.743],[87.072,20.743],[87.072,20.742],[87.071,20.742],[87.071,20.741],[87.071,20.741],[87.071,20.741],[87.071,20.74],[87.071,20.74],[87.071,20.74],[87.071,20.739],[87.071,20.739],[87.07,20.739],[87.07,20.738],[87.07,20.738],[87.07,20.737],[87.07,20.737],[87.071,20.736]]],[[[87.091,20.758],[87.091,20.757],[87.091,20.757],[87.092,20.757],[87.092,20.756],[87.092,20.756],[87.093,20.756],[87.093,20.756],[87.094,20.755],[87.094,20.755],[87.094,20.755],[87.094,20.754],[87.094,20.754],[87.094,20.754],[87.094,20.754],[87.094,20.753],[87.093,20.753],[87.093,20.753],[87.092,20.752],[87.092,20.752],[87.092,20.752],[87.091,20.752],[87.091,20.752],[87.091,20.752],[87.09,20.752],[87.09,20.753],[87.089,20.753],[87.089,20.753],[87.088,20.753],[87.088,20.753],[87.088,20.753],[87.087,20.753],[87.087,20.753],[87.086,20.753],[87.086,20.753],[87.085,20.753],[87.085,20.753],[87.084,20.753],[87.084,20.753],[87.083,20.753],[87.083,20.753],[87.083,20.753],[87.083,20.753],[87.082,20.753],[87.082,20.753],[87.082,20.753],[87.081,20.753],[87.081,20.753],[87.08,20.753],[87.08,20.753],[87.08,20.753],[87.08,20.753],[87.079,20.753],[87.079,20.753],[87.078,20.753],[87.078,20.753],[87.078,20.752],[87.077,20.752],[87.077,20.752],[87.077,20.752],[87.076,20.752],[87.076,20.752],[87.076,20.752],[87.075,20.752],[87.075,20.752],[87.075,20.752],[87.074,20.752],[87.074,20.753],[87.073,20.753],[87.073,20.753],[87.073,20.753],[87.072,20.754],[87.073,20.755],[87.073,20.755],[87.073,20.756],[87.073,20.756],[87.074,20.756],[87.075,20.756],[87.075,20.757],[87.076,20.757],[87.076,20.757],[87.077,20.757],[87.077,20.757],[87.078,20.757],[87.078,20.758],[87.079,20.758],[87.079,20.758],[87.079,20.758],[87.08,20.758],[87.08,20.758],[87.081,20.758],[87.081,20.757],[87.081,20.757],[87.082,20.757],[87.082,20.757],[87.083,20.757],[87.083,20.757],[87.083,20.758],[87.084,20.758],[87.084,20.758],[87.084,20.759],[87.084,20.759],[87.084,20.76],[87.084,20.76],[87.083,20.761],[87.083,20.761],[87.083,20.762],[87.082,20.762],[87.082,20.763],[87.082,20.763],[87.082,20.763],[87.083,20.763],[87.083,20.764],[87.083,20.764],[87.083,20.764],[87.084,20.764],[87.085,20.764],[87.085,20.764],[87.085,20.764],[87.086,20.764],[87.086,20.764],[87.087,20.764],[87.087,20.763],[87.087,20.763],[87.087,20.763],[87.088,20.762],[87.088,20.762],[87.088,20.761],[87.088,20.761],[87.089,20.76],[87.089,20.76],[87.089,20.76],[87.09,20.759],[87.09,20.759],[87.09,20.759],[87.09,20.758],[87.091,20.758],[87.091,20.758]]],[[[86.871,20.772],[86.992,20.771],[87.007,20.743],[87.001,20.714],[86.929,20.715],[86.859,20.665],[86.857,20.684],[86.885,20.707],[86.878,20.733],[86.884,20.707],[86.856,20.686],[86.854,20.657],[86.842,20.652],[86.83,20.673],[86.803,20.677],[86.795,20.666],[86.813,20.662],[86.819,20.639],[86.774,20.646],[86.802,20.683],[86.83,20.76],[86.854,20.776],[86.871,20.772]]],[[[86.875,20.776],[86.876,20.776],[86.876,20.776],[86.877,20.775],[86.877,20.775],[86.878,20.774],[86.878,20.773],[86.878,20.773],[86.878,20.773],[86.877,20.773],[86.877,20.773],[86.876,20.773],[86.876,20.773],[86.876,20.773],[86.875,20.774],[86.875,20.774],[86.874,20.774],[86.874,20.774],[86.874,20.775],[86.874,20.776],[86.874,20.776],[86.875,20.776],[86.875,20.776],[86.875,20.776],[86.875,20.776]]],[[[86.865,20.781],[86.865,20.781],[86.866,20.781],[86.866,20.781],[86.866,20.781],[86.867,20.78],[86.867,20.78],[86.868,20.78],[86.868,20.78],[86.868,20.779],[86.869,20.779],[86.872,20.776],[86.872,20.776],[86.871,20.775],[86.87,20.775],[86.87,20.776],[86.869,20.776],[86.869,20.776],[86.869,20.776],[86.868,20.776],[86.868,20.776],[86.868,20.777],[86.867,20.777],[86.867,20.777],[86.866,20.777],[86.866,20.778],[86.866,20.778],[86.864,20.779],[86.864,20.779],[86.864,20.779],[86.864,20.781],[86.865,20.781],[86.865,20.781]]],[[[86.984,20.782],[86.984,20.782],[86.985,20.782],[86.986,20.781],[86.987,20.781],[86.987,20.78],[86.988,20.78],[86.988,20.779],[86.987,20.779],[86.985,20.779],[86.985,20.778],[86.983,20.778],[86.983,20.778],[86.982,20.778],[86.982,20.778],[86.981,20.778],[86.981,20.779],[86.981,20.779],[86.98,20.78],[86.98,20.78],[86.981,20.78],[86.981,20.781],[86.982,20.782],[86.982,20.782],[86.982,20.782],[86.983,20.782],[86.983,20.782],[86.984,20.782]]],[[[86.882,20.789],[86.952,20.775],[86.881,20.773],[86.865,20.783],[86.882,20.789]]],[[[86.636,20.787],[86.675,20.785],[86.706,20.77],[86.709,20.756],[86.756,20.764],[86.76,20.729],[86.78,20.737],[86.816,20.724],[86.756,20.613],[86.774,20.645],[86.821,20.64],[86.814,20.664],[86.797,20.666],[86.802,20.675],[86.829,20.672],[86.845,20.651],[86.934,20.711],[87,20.695],[87.045,20.71],[86.888,20.606],[86.885,20.616],[86.885,20.604],[86.792,20.544],[86.744,20.469],[86.734,20.479],[86.729,20.405],[86.749,20.406],[86.74,20.394],[86.757,20.399],[86.757,20.389],[86.766,20.398],[86.78,20.392],[86.764,20.366],[86.786,20.377],[86.779,20.355],[86.789,20.37],[86.771,20.333],[86.694,20.293],[86.654,20.327],[86.607,20.337],[86.546,20.32],[86.524,20.336],[86.452,20.326],[86.393,20.361],[86.386,20.349],[86.348,20.346],[86.339,20.363],[86.317,20.349],[86.273,20.354],[86.272,20.365],[86.25,20.359],[86.248,20.371],[86.276,20.39],[86.266,20.391],[86.274,20.439],[86.263,20.444],[86.272,20.51],[86.248,20.532],[86.268,20.552],[86.255,20.556],[86.272,20.56],[86.278,20.577],[86.318,20.58],[86.318,20.623],[86.328,20.603],[86.37,20.588],[86.401,20.62],[86.421,20.619],[86.425,20.637],[86.452,20.644],[86.45,20.67],[86.466,20.681],[86.482,20.673],[86.509,20.68],[86.514,20.693],[86.539,20.687],[86.553,20.7],[86.544,20.717],[86.558,20.733],[86.538,20.728],[86.539,20.747],[86.564,20.769],[86.605,20.767],[86.621,20.79],[86.636,20.787]]]]}},{"type":"Feature","properties":{"name":"Keonjhar","district":"Keonjhar","severity":"high","source":"OSDMA"},"geometry":{"type":"Polygon","coordinates":[[[85.418,22.153],[85.54,22.087],[85.591,22.074],[85.645,22.09],[85.672,22.06],[85.658,22.029],[85.666,22.009],[85.698,22.003],[85.7,21.982],[85.734,21.989],[85.789,21.95],[85.785,21.902],[85.8,21.883],[85.805,21.808],[85.877,21.79],[85.901,21.763],[85.935,21.758],[85.966,21.735],[86.013,21.74],[86.023,21.687],[86.046,21.709],[86.055,21.683],[86.077,21.685],[86.075,21.624],[86.043,21.569],[86.013,21.554],[86.005,21.527],[86.116,21.472],[86.156,21.419],[86.089,21.306],[86.112,21.27],[86.133,21.26],[86.133,21.276],[86.154,21.287],[86.185,21.268],[86.205,21.277],[86.265,21.374],[86.356,21.309],[86.352,21.276],[86.37,21.244],[86.348,21.229],[86.345,21.186],[86.309,21.165],[86.288,21.17],[86.269,21.141],[86.285,21.112],[86.305,21.106],[86.302,21.082],[86.32,21.06],[86.302,21.011],[86.129,21.068],[86.09,21.045],[86.084,21.012],[86.043,21.018],[86.023,21.067],[86.068,21.122],[86.082,21.162],[86.033,21.151],[86.018,21.132],[85.973,21.138],[85.937,21.122],[85.929,21.13],[85.913,21.088],[85.882,21.08],[85.77,21.098],[85.758,21.141],[85.731,21.133],[85.701,21.166],[85.705,21.176],[85.682,21.18],[85.659,21.161],[85.632,21.16],[85.605,21.132],[85.543,21.161],[85.492,21.108],[85.457,21.122],[85.389,21.179],[85.363,21.236],[85.294,21.271],[85.281,21.26],[85.268,21.27],[85.269,21.297],[85.31,21.324],[85.321,21.314],[85.338,21.354],[85.301,21.39],[85.299,21.409],[85.269,21.422],[85.253,21.446],[85.303,21.444],[85.327,21.475],[85.323,21.505],[85.318,21.527],[85.298,21.527],[85.308,21.56],[85.282,21.583],[85.286,21.598],[85.259,21.624],[85.245,21.672],[85.205,21.671],[85.191,21.656],[85.181,21.704],[85.209,21.737],[85.198,21.764],[85.225,21.818],[85.238,21.799],[85.279,21.832],[85.311,21.815],[85.338,21.823],[85.371,21.906],[85.363,21.936],[85.31,21.954],[85.273,21.953],[85.227,21.997],[85.3,22.107],[85.323,22.125],[85.361,22.121],[85.363,22.155],[85.418,22.153]]]}},{"type":"Feature","properties":{"name":"Khordha","district":"Khordha","severity":"medium","source":"OSDMA"},"geometry":{"type":"Polygon","coordinates":[[[85.805,20.42],[85.825,20.397],[85.793,20.329],[85.797,20.314],[85.879,20.28],[85.886,20.305],[85.865,20.329],[85.895,20.36],[85.896,20.344],[85.923,20.321],[85.926,20.304],[85.915,20.316],[85.909,20.31],[85.932,20.28],[85.928,20.265],[86.002,20.217],[86.022,20.163],[86.037,20.173],[86.049,20.158],[86.034,20.128],[86.077,20.099],[86.015,20.094],[86.002,20.109],[85.99,20.099],[85.955,20.113],[85.922,20.106],[85.899,20.121],[85.894,20.105],[85.88,20.102],[85.87,20.115],[85.896,20.137],[85.884,20.169],[85.848,20.186],[85.85,20.168],[85.84,20.167],[85.835,20.188],[85.821,20.151],[85.794,20.143],[85.76,20.159],[85.757,20.145],[85.727,20.144],[85.717,20.122],[85.714,20.135],[85.688,20.144],[85.672,20.115],[85.686,20.088],[85.672,20.079],[85.674,20.064],[85.647,20.058],[85.646,20.089],[85.627,20.093],[85.64,20.075],[85.614,20.051],[85.611,20.034],[85.625,20.017],[85.612,19.984],[85.612,20.01],[85.589,19.987],[85.567,20.016],[85.559,19.942],[85.525,19.97],[85.496,19.938],[85.514,19.934],[85.504,19.918],[85.523,19.933],[85.561,19.909],[85.559,19.847],[85.546,19.851],[85.555,19.865],[85.522,19.88],[85.4,19.878],[85.379,19.838],[85.338,19.82],[85.322,19.793],[85.249,19.776],[85.235,19.733],[85.213,19.738],[85.188,19.709],[85.185,19.693],[85.2,19.676],[85.178,19.667],[85.122,19.741],[85.081,19.759],[85.071,19.784],[85.038,19.799],[85.003,19.795],[84.966,19.845],[84.93,19.865],[84.934,19.89],[85.022,19.896],[85.092,19.923],[85.121,19.926],[85.161,19.897],[85.239,19.898],[85.326,19.918],[85.357,19.951],[85.415,19.919],[85.451,19.965],[85.435,19.987],[85.411,19.987],[85.429,20.02],[85.409,20.013],[85.375,20.064],[85.408,20.12],[85.386,20.128],[85.378,20.149],[85.35,20.138],[85.364,20.171],[85.346,20.181],[85.306,20.159],[85.306,20.147],[85.265,20.139],[85.235,20.107],[85.211,20.121],[85.199,20.147],[85.208,20.158],[85.195,20.183],[85.21,20.207],[85.221,20.216],[85.238,20.201],[85.25,20.219],[85.318,20.224],[85.337,20.244],[85.321,20.247],[85.329,20.273],[85.344,20.265],[85.377,20.279],[85.402,20.249],[85.416,20.265],[85.449,20.26],[85.455,20.288],[85.517,20.286],[85.547,20.306],[85.621,20.285],[85.642,20.318],[85.673,20.317],[85.71,20.392],[85.762,20.405],[85.768,20.396],[85.781,20.403],[85.781,20.426],[85.805,20.42]]]}},{"type":"Feature","properties":{"name":"Koraput","district":"Koraput","severity":null,"source":"OSDMA"},"geometry":{"type":"Polygon","coordinates":[[[82.218,19.216],[82.234,19.22],[82.287,19.185],[82.315,19.191],[82.32,19.212],[82.366,19.192],[82.389,19.203],[82.401,19.178],[82.428,19.164],[82.482,19.174],[82.509,19.196],[82.564,19.194],[82.566,19.205],[82.574,19.189],[82.582,19.195],[82.608,19.176],[82.61,19.151],[82.63,19.142],[82.631,19.169],[82.672,19.189],[82.716,19.167],[82.716,19.153],[82.734,19.153],[82.749,19.177],[82.766,19.159],[82.782,19.164],[82.794,19.143],[82.81,19.164],[82.822,19.141],[82.821,19.173],[82.856,19.199],[82.897,19.152],[82.943,19.148],[82.972,19.167],[82.976,19.126],[83.021,19.079],[83.015,19.057],[83.056,19.037],[83.068,19.074],[83.096,19.104],[83.123,19.086],[83.13,19.129],[83.153,19.116],[83.176,19.137],[83.161,19.114],[83.173,19.105],[83.193,19.125],[83.182,19.139],[83.197,19.142],[83.194,19.16],[83.252,19.157],[83.236,19.119],[83.2,19.123],[83.169,19.084],[83.181,19.085],[83.187,19.067],[83.182,19.007],[83.196,18.97],[83.234,18.965],[83.231,19.016],[83.259,19.042],[83.255,19.062],[83.273,19.114],[83.312,19.106],[83.333,19.094],[83.339,19.044],[83.356,19.038],[83.331,18.99],[83.304,18.987],[83.332,18.943],[83.32,18.926],[83.339,18.916],[83.345,18.956],[83.361,18.953],[83.38,18.923],[83.371,18.917],[83.349,18.934],[83.35,18.916],[83.361,18.901],[83.384,18.9],[83.374,18.886],[83.411,18.857],[83.398,18.853],[83.396,18.831],[83.353,18.827],[83.356,18.8],[83.28,18.79],[83.266,18.757],[83.219,18.766],[83.222,18.745],[83.205,18.716],[83.202,18.742],[83.133,18.772],[83.112,18.758],[83.117,18.748],[83.071,18.697],[83.051,18.654],[83.01,18.637],[83.021,18.61],[83.008,18.588],[83.028,18.582],[83.041,18.597],[83.054,18.586],[83.027,18.568],[83.032,18.548],[83.051,18.535],[83.089,18.538],[83.052,18.477],[83.015,18.444],[83.037,18.435],[83.037,18.419],[83.06,18.429],[83.056,18.404],[83.066,18.392],[83.056,18.377],[83.037,18.37],[83.017,18.385],[82.976,18.355],[82.903,18.356],[82.885,18.379],[82.885,18.413],[82.845,18.41],[82.818,18.439],[82.799,18.439],[82.776,18.42],[82.793,18.395],[82.767,18.331],[82.659,18.287],[82.645,18.24],[82.627,18.229],[82.581,18.27],[82.591,18.292],[82.576,18.307],[82.602,18.317],[82.597,18.341],[82.611,18.346],[82.599,18.354],[82.599,18.372],[82.532,18.393],[82.554,18.438],[82.53,18.434],[82.516,18.456],[82.528,18.468],[82.523,18.504],[82.499,18.502],[82.481,18.515],[82.482,18.538],[82.429,18.485],[82.399,18.51],[82.402,18.546],[82.432,18.557],[82.441,18.592],[82.416,18.598],[82.402,18.587],[82.357,18.616],[82.307,18.571],[82.257,18.581],[82.247,18.606],[82.225,18.618],[82.217,18.662],[82.184,18.624],[82.168,18.626],[82.153,18.662],[82.14,18.652],[82.127,18.669],[82.139,18.685],[82.119,18.7],[82.122,18.716],[82.085,18.733],[82.085,18.758],[82.129,18.758],[82.161,18.791],[82.158,18.869],[82.173,18.895],[82.24,18.91],[82.225,19.015],[82.194,19.06],[82.212,19.091],[82.199,19.094],[82.2,19.117],[82.176,19.125],[82.17,19.113],[82.16,19.126],[82.175,19.145],[82.164,19.155],[82.179,19.159],[82.173,19.184],[82.156,19.197],[82.161,19.208],[82.209,19.233],[82.218,19.216]]]}},{"type":"Feature","properties":{"name":"Malkangiri","district":"Malkangiri","severity":null,"source":"OSDMA"},"geometry":{"type":"Polygon","coordinates":[[[82.085,18.733],[82.122,18.716],[82.119,18.7],[82.139,18.685],[82.127,18.669],[82.14,18.652],[82.153,18.662],[82.168,18.626],[82.184,18.624],[82.217,18.662],[82.225,18.618],[82.247,18.606],[82.257,18.581],[82.307,18.571],[82.357,18.616],[82.402,18.587],[82.416,18.598],[82.441,18.592],[82.436,18.561],[82.423,18.55],[82.409,18.557],[82.397,18.52],[82.427,18.477],[82.361,18.41],[82.384,18.369],[82.334,18.317],[82.349,18.306],[82.384,18.319],[82.393,18.306],[82.372,18.274],[82.337,18.266],[82.321,18.222],[82.333,18.216],[82.306,18.196],[82.31,18.175],[82.349,18.162],[82.365,18.14],[82.358,18.125],[82.333,18.142],[82.332,18.094],[82.344,18.075],[82.336,18.047],[82.317,18.049],[82.313,18.035],[82.296,18.046],[82.298,18.062],[82.267,18.048],[82.258,18.035],[82.267,17.986],[82.242,17.98],[82.237,17.992],[82.177,18.011],[82.16,18.044],[82.132,18.036],[82.127,18.051],[82.072,18.066],[82.06,18.045],[82.025,18.058],[82.002,18.045],[82.002,18.024],[81.952,17.992],[81.801,17.936],[81.782,17.91],[81.703,17.861],[81.688,17.885],[81.663,17.877],[81.643,17.839],[81.611,17.815],[81.569,17.828],[81.481,17.803],[81.459,17.825],[81.385,17.807],[81.398,17.847],[81.394,17.885],[81.437,17.876],[81.445,17.926],[81.477,17.97],[81.474,18.029],[81.509,18.092],[81.523,18.157],[81.505,18.184],[81.528,18.259],[81.568,18.273],[81.593,18.301],[81.659,18.311],[81.649,18.331],[81.658,18.339],[81.745,18.345],[81.762,18.411],[81.844,18.482],[81.858,18.513],[81.897,18.528],[81.909,18.564],[81.947,18.559],[81.955,18.587],[81.888,18.621],[81.885,18.65],[81.947,18.629],[81.957,18.683],[82.034,18.719],[82.079,18.712],[82.085,18.733]]]}},{"type":"Feature","properties":{"name":"Mayurbhanj","district":"Mayurbhanj","severity":"high","source":"OSDMA"},"geometry":{"type":"Polygon","coordinates":[[[86.078,22.53],[86.112,22.483],[86.218,22.468],[86.22,22.449],[86.28,22.446],[86.353,22.345],[86.433,22.302],[86.438,22.323],[86.5,22.341],[86.532,22.298],[86.578,22.298],[86.591,22.275],[86.609,22.279],[86.646,22.261],[86.651,22.233],[86.665,22.239],[86.682,22.22],[86.721,22.217],[86.715,22.143],[86.79,22.154],[86.797,22.126],[86.832,22.095],[86.967,22.078],[87.025,22.033],[87.034,21.989],[87.006,21.941],[87.005,21.896],[87.03,21.865],[87.116,21.848],[87.174,21.807],[87.18,21.785],[87.17,21.806],[87.155,21.763],[87.141,21.759],[87.12,21.766],[87.115,21.781],[87.101,21.778],[87.118,21.75],[87.097,21.746],[87.091,21.727],[87.083,21.733],[87.09,21.722],[87.067,21.701],[87.044,21.706],[87.044,21.734],[87.023,21.736],[87.034,21.691],[87.05,21.678],[87.027,21.655],[87.011,21.669],[86.985,21.662],[86.989,21.644],[87.008,21.643],[87.001,21.62],[86.984,21.621],[87.003,21.593],[86.96,21.576],[86.956,21.59],[86.954,21.567],[86.92,21.587],[86.908,21.574],[86.874,21.63],[86.884,21.606],[86.863,21.587],[86.808,21.602],[86.788,21.593],[86.75,21.6],[86.701,21.579],[86.683,21.589],[86.648,21.574],[86.632,21.524],[86.58,21.516],[86.525,21.416],[86.423,21.326],[86.356,21.295],[86.353,21.314],[86.265,21.374],[86.205,21.277],[86.185,21.268],[86.154,21.287],[86.133,21.276],[86.133,21.26],[86.115,21.266],[86.089,21.306],[86.156,21.419],[86.116,21.472],[86.005,21.527],[86.013,21.554],[86.043,21.569],[86.075,21.624],[86.077,21.685],[86.055,21.683],[86.046,21.709],[86.023,21.687],[86.013,21.74],[85.966,21.735],[85.935,21.758],[85.901,21.763],[85.877,21.79],[85.805,21.808],[85.8,21.883],[85.785,21.902],[85.789,21.95],[85.734,21.989],[85.7,21.982],[85.698,22.003],[85.666,22.009],[85.658,22.029],[85.672,22.051],[85.722,22.058],[85.802,22.111],[85.831,22.077],[85.788,22.077],[85.77,22.051],[85.776,22.028],[85.756,22.008],[85.761,21.99],[85.815,21.98],[85.818,21.97],[85.891,21.979],[85.905,21.967],[85.912,22.005],[85.943,22.019],[86,22.109],[85.995,22.132],[86.027,22.185],[85.97,22.243],[86.008,22.293],[86.043,22.306],[86.008,22.31],[86.02,22.329],[85.993,22.338],[86.021,22.382],[86.009,22.424],[85.993,22.422],[85.954,22.456],[85.958,22.476],[85.981,22.51],[86.022,22.521],[86.028,22.534],[86.018,22.544],[86.038,22.564],[86.078,22.53]]]}},{"type":"Feature","properties":{"name":"Nabarangpur","district":"Nabarangpur","severity":null,"source":"OSDMA"},"geometry":{"type":"Polygon","coordinates":[[[82.01,20.045],[82.024,20.01],[82.058,20.05],[82.116,20.01],[82.166,19.998],[82.178,19.978],[82.231,19.998],[82.262,19.972],[82.298,19.883],[82.339,19.83],[82.389,19.882],[82.439,19.903],[82.494,19.897],[82.523,19.873],[82.53,19.882],[82.544,19.869],[82.597,19.86],[82.571,19.822],[82.596,19.741],[82.556,19.721],[82.567,19.708],[82.561,19.678],[82.571,19.674],[82.55,19.639],[82.52,19.624],[82.542,19.604],[82.524,19.576],[82.551,19.574],[82.561,19.537],[82.609,19.532],[82.601,19.514],[82.635,19.505],[82.626,19.476],[82.686,19.411],[82.702,19.412],[82.701,19.377],[82.72,19.34],[82.735,19.343],[82.749,19.321],[82.773,19.337],[82.792,19.322],[82.841,19.317],[82.819,19.25],[82.798,19.23],[82.831,19.228],[82.848,19.199],[82.821,19.173],[82.822,19.141],[82.81,19.164],[82.794,19.143],[82.782,19.164],[82.766,19.159],[82.749,19.177],[82.734,19.153],[82.716,19.153],[82.716,19.167],[82.672,19.189],[82.631,19.169],[82.632,19.142],[82.618,19.143],[82.608,19.176],[82.582,19.195],[82.574,19.189],[82.566,19.205],[82.564,19.194],[82.509,19.196],[82.482,19.174],[82.428,19.164],[82.401,19.178],[82.389,19.203],[82.366,19.192],[82.32,19.212],[82.315,19.191],[82.287,19.185],[82.234,19.22],[82.219,19.213],[82.212,19.233],[82.172,19.209],[82.154,19.216],[82.152,19.265],[82.183,19.32],[82.18,19.332],[82.142,19.348],[82.141,19.366],[82.166,19.366],[82.183,19.418],[82.167,19.43],[82.119,19.424],[82.097,19.461],[82.092,19.51],[82.071,19.516],[82.06,19.504],[82.022,19.502],[82.046,19.539],[82.034,19.591],[82.051,19.624],[82.038,19.704],[82.06,19.783],[81.98,19.796],[81.957,19.836],[81.96,19.855],[81.858,19.9],[81.837,19.95],[81.867,20.036],[81.889,20.043],[81.937,20.101],[81.987,20.052],[82.01,20.045]]]}},{"type":"Feature","properties":{"name":"Nayagarh","district":"Nayagarh","severity":"medium","source":"OSDMA"},"geometry":{"type":"Polygon","coordinates":[[[84.788,20.575],[84.878,20.493],[84.939,20.486],[85.154,20.372],[85.272,20.351],[85.365,20.359],[85.368,20.344],[85.345,20.313],[85.35,20.295],[85.324,20.268],[85.321,20.247],[85.337,20.246],[85.334,20.238],[85.318,20.224],[85.25,20.219],[85.238,20.201],[85.221,20.216],[85.195,20.183],[85.208,20.158],[85.199,20.147],[85.211,20.121],[85.235,20.107],[85.265,20.139],[85.309,20.149],[85.306,20.159],[85.327,20.173],[85.363,20.174],[85.35,20.138],[85.378,20.149],[85.386,20.128],[85.408,20.12],[85.375,20.064],[85.409,20.013],[85.429,20.02],[85.411,19.987],[85.435,19.987],[85.451,19.965],[85.43,19.932],[85.415,19.919],[85.398,19.922],[85.357,19.951],[85.326,19.918],[85.239,19.898],[85.161,19.897],[85.121,19.926],[85.004,19.892],[84.905,19.898],[84.9,19.907],[84.917,19.934],[84.895,19.986],[84.856,19.993],[84.85,20.023],[84.793,20.088],[84.797,20.108],[84.815,20.116],[84.822,20.216],[84.786,20.223],[84.763,20.241],[84.737,20.238],[84.69,20.275],[84.667,20.267],[84.634,20.193],[84.6,20.173],[84.583,20.177],[84.541,20.238],[84.537,20.32],[84.51,20.315],[84.506,20.334],[84.483,20.332],[84.479,20.345],[84.513,20.366],[84.506,20.392],[84.54,20.416],[84.555,20.407],[84.615,20.428],[84.657,20.419],[84.686,20.436],[84.678,20.457],[84.693,20.493],[84.733,20.533],[84.77,20.53],[84.79,20.554],[84.788,20.575]]]}},{"type":"Feature","properties":{"name":"Nuapada","district":"Nuapada","severity":null,"source":"OSDMA"},"geometry":{"type":"Polygon","coordinates":[[[82.632,21.087],[82.661,21.066],[82.686,21.018],[82.682,20.969],[82.694,20.937],[82.678,20.869],[82.691,20.754],[82.682,20.731],[82.696,20.722],[82.689,20.677],[82.717,20.668],[82.736,20.619],[82.723,20.577],[82.706,20.563],[82.7,20.496],[82.679,20.446],[82.725,20.38],[82.712,20.353],[82.764,20.35],[82.81,20.379],[82.785,20.321],[82.807,20.323],[82.81,20.354],[82.819,20.34],[82.846,20.336],[82.843,20.288],[82.833,20.29],[82.83,20.316],[82.816,20.317],[82.807,20.29],[82.818,20.278],[82.849,20.277],[82.855,20.23],[82.841,20.191],[82.807,20.176],[82.817,20.161],[82.808,20.097],[82.783,20.097],[82.749,20.05],[82.732,20.047],[82.741,20.037],[82.731,20.019],[82.698,19.993],[82.632,20],[82.598,19.986],[82.544,20.012],[82.502,20.014],[82.396,20.049],[82.379,20.145],[82.414,20.202],[82.405,20.264],[82.429,20.283],[82.422,20.31],[82.394,20.336],[82.41,20.403],[82.429,20.426],[82.41,20.473],[82.388,20.453],[82.38,20.51],[82.349,20.523],[82.324,20.554],[82.341,20.57],[82.339,20.594],[82.368,20.624],[82.335,20.759],[82.334,20.841],[82.347,20.884],[82.359,20.883],[82.359,20.867],[82.401,20.862],[82.416,20.826],[82.459,20.824],[82.482,20.855],[82.486,20.904],[82.546,20.935],[82.604,21.006],[82.622,21.037],[82.609,21.071],[82.632,21.087]]]}},{"type":"Feature","properties":{"name":"Puri","district":"Puri","severity":"medium","source":"OSDMA"},"geometry":{"type":"MultiPolygon","coordinates":[[[[86.241,19.909],[86.24,19.909],[86.24,19.909],[86.24,19.909],[86.239,19.909],[86.239,19.909],[86.238,19.909],[86.238,19.908],[86.237,19.908],[86.237,19.908],[86.237,19.908],[86.237,19.909],[86.237,19.909],[86.237,19.91],[86.238,19.91],[86.238,19.911],[86.238,19.911],[86.238,19.911],[86.24,19.911],[86.241,19.911],[86.241,19.911],[86.241,19.91],[86.241,19.91],[86.241,19.909]]],[[[86.372,19.954],[86.372,19.954],[86.372,19.954],[86.371,19.954],[86.37,19.954],[86.37,19.954],[86.37,19.954],[86.37,19.953],[86.369,19.953],[86.368,19.952],[86.368,19.952],[86.367,19.952],[86.366,19.952],[86.366,19.952],[86.364,19.952],[86.363,19.952],[86.363,19.952],[86.361,19.951],[86.361,19.951],[86.36,19.951],[86.36,19.951],[86.359,19.951],[86.359,19.951],[86.359,19.95],[86.359,19.95],[86.358,19.95],[86.357,19.95],[86.356,19.95],[86.355,19.95],[86.355,19.95],[86.355,19.95],[86.355,19.95],[86.357,19.951],[86.357,19.951],[86.357,19.951],[86.359,19.951],[86.36,19.951],[86.363,19.952],[86.365,19.953],[86.367,19.953],[86.368,19.954],[86.369,19.954],[86.37,19.955],[86.37,19.955],[86.371,19.955],[86.371,19.955],[86.371,19.956],[86.371,19.956],[86.371,19.957],[86.371,19.957],[86.372,19.958],[86.372,19.958],[86.373,19.957],[86.373,19.957],[86.372,19.956],[86.372,19.955],[86.372,19.955],[86.372,19.954]]],[[[86.321,19.988],[86.321,19.988],[86.32,19.989],[86.32,19.989],[86.32,19.989],[86.32,19.991],[86.319,19.992],[86.319,19.993],[86.319,19.993],[86.319,19.994],[86.318,19.994],[86.318,19.995],[86.319,19.995],[86.319,19.994],[86.319,19.994],[86.32,19.993],[86.32,19.993],[86.321,19.991],[86.321,19.991],[86.321,19.989],[86.322,19.989],[86.321,19.988],[86.321,19.988]]],[[[86.321,19.999],[86.321,19.998],[86.322,19.997],[86.322,19.997],[86.322,19.996],[86.322,19.995],[86.322,19.995],[86.322,19.994],[86.321,19.993],[86.321,19.993],[86.32,19.994],[86.32,19.994],[86.32,19.995],[86.32,19.995],[86.32,19.996],[86.319,19.996],[86.319,19.996],[86.319,19.997],[86.319,19.997],[86.318,19.997],[86.318,19.998],[86.318,19.998],[86.317,19.998],[86.317,19.999],[86.316,19.999],[86.316,19.999],[86.316,19.999],[86.316,19.999],[86.317,20],[86.317,20],[86.317,20.001],[86.317,20.001],[86.318,20.001],[86.318,20.001],[86.318,20.002],[86.319,20.002],[86.319,20.002],[86.319,20.002],[86.32,20.002],[86.32,20.002],[86.32,20.001],[86.32,20.001],[86.321,20.001],[86.321,20],[86.321,20],[86.321,19.999],[86.321,19.999]]],[[[86.321,20.01],[86.321,20.01],[86.321,20.01],[86.321,20.011],[86.32,20.011],[86.32,20.012],[86.32,20.012],[86.32,20.012],[86.322,20.011],[86.322,20.011],[86.322,20.011],[86.321,20.01]]],[[[86.31,20.016],[86.311,20.016],[86.311,20.016],[86.312,20.016],[86.313,20.016],[86.313,20.016],[86.313,20.016],[86.314,20.016],[86.314,20.016],[86.315,20.015],[86.315,20.015],[86.315,20.015],[86.315,20.013],[86.315,20.013],[86.315,20.012],[86.314,20.012],[86.314,20.011],[86.315,20.011],[86.315,20.011],[86.315,20.01],[86.315,20.01],[86.316,20.01],[86.316,20.009],[86.316,20.009],[86.316,20.009],[86.315,20.008],[86.313,20.008],[86.313,20.008],[86.313,20.009],[86.313,20.009],[86.313,20.009],[86.313,20.01],[86.312,20.011],[86.311,20.011],[86.311,20.011],[86.311,20.011],[86.311,20.011],[86.31,20.011],[86.31,20.012],[86.31,20.012],[86.31,20.012],[86.311,20.013],[86.311,20.013],[86.311,20.013],[86.311,20.014],[86.311,20.014],[86.311,20.014],[86.31,20.015],[86.31,20.015],[86.31,20.016],[86.31,20.016],[86.31,20.016],[86.31,20.016]]],[[[86.253,20.025],[86.253,20.025],[86.254,20.025],[86.255,20.025],[86.255,20.025],[86.256,20.024],[86.256,20.024],[86.258,20.022],[86.257,20.021],[86.257,20.021],[86.257,20.021],[86.257,20.022],[86.256,20.022],[86.256,20.022],[86.255,20.022],[86.254,20.022],[86.254,20.022],[86.254,20.023],[86.253,20.023],[86.252,20.024],[86.252,20.025],[86.252,20.025],[86.253,20.025],[86.253,20.025]]],[[[86.272,20.024],[86.272,20.024],[86.272,20.024],[86.27,20.022],[86.269,20.022],[86.268,20.021],[86.268,20.021],[86.268,20.021],[86.267,20.021],[86.266,20.022],[86.265,20.022],[86.265,20.022],[86.265,20.023],[86.266,20.024],[86.266,20.024],[86.266,20.024],[86.266,20.024],[86.267,20.024],[86.267,20.024],[86.267,20.024],[86.268,20.024],[86.268,20.025],[86.269,20.025],[86.269,20.026],[86.269,20.026],[86.271,20.027],[86.271,20.027],[86.272,20.027],[86.272,20.026],[86.272,20.026],[86.272,20.025],[86.273,20.025],[86.272,20.025],[86.272,20.024]]],[[[86.266,20.034],[86.266,20.033],[86.266,20.033],[86.267,20.033],[86.267,20.033],[86.267,20.033],[86.268,20.033],[86.268,20.033],[86.268,20.033],[86.268,20.031],[86.268,20.031],[86.268,20.031],[86.267,20.031],[86.267,20.031],[86.267,20.031],[86.266,20.031],[86.266,20.031],[86.266,20.031],[86.265,20.031],[86.264,20.031],[86.264,20.032],[86.263,20.032],[86.263,20.032],[86.263,20.032],[86.262,20.032],[86.263,20.033],[86.263,20.033],[86.263,20.034],[86.266,20.034]]],[[[86.277,20.047],[86.268,20.036],[86.288,20.029],[86.245,20.03],[86.254,20.046],[86.277,20.047]]],[[[85.835,20.188],[85.84,20.167],[85.85,20.168],[85.848,20.186],[85.884,20.169],[85.896,20.137],[85.87,20.115],[85.88,20.102],[85.894,20.105],[85.899,20.121],[85.922,20.106],[85.955,20.113],[85.99,20.099],[86.002,20.109],[86.015,20.094],[86.068,20.102],[86.086,20.084],[86.072,20.075],[86.076,20.061],[86.123,20.052],[86.117,20.034],[86.165,20.033],[86.195,20.046],[86.204,20.032],[86.229,20.035],[86.255,20.018],[86.293,20.025],[86.322,19.984],[86.303,19.984],[86.341,19.972],[86.317,19.949],[86.342,19.97],[86.364,19.954],[86.247,19.911],[86.242,19.922],[86.228,19.904],[86.223,19.926],[86.208,19.905],[86.217,19.912],[86.228,19.901],[86.132,19.87],[85.926,19.823],[85.91,19.821],[85.905,19.832],[85.908,19.818],[85.78,19.785],[85.386,19.606],[85.166,19.462],[85.144,19.489],[85.117,19.467],[85.122,19.496],[85.111,19.507],[85.097,19.49],[85.089,19.516],[85.119,19.555],[85.151,19.557],[85.12,19.589],[85.136,19.611],[85.169,19.622],[85.162,19.658],[85.2,19.676],[85.185,19.693],[85.188,19.709],[85.213,19.738],[85.235,19.733],[85.249,19.776],[85.322,19.793],[85.338,19.82],[85.379,19.838],[85.4,19.878],[85.422,19.886],[85.529,19.879],[85.555,19.865],[85.546,19.851],[85.559,19.847],[85.561,19.909],[85.523,19.933],[85.504,19.918],[85.514,19.934],[85.496,19.938],[85.514,19.961],[85.525,19.97],[85.559,19.942],[85.567,20.016],[85.589,19.987],[85.612,20.01],[85.612,19.984],[85.625,20.017],[85.611,20.034],[85.614,20.051],[85.64,20.075],[85.627,20.093],[85.646,20.089],[85.647,20.058],[85.674,20.064],[85.672,20.079],[85.686,20.088],[85.671,20.105],[85.683,20.142],[85.714,20.135],[85.717,20.122],[85.727,20.144],[85.757,20.145],[85.76,20.159],[85.794,20.143],[85.821,20.151],[85.835,20.188]]]]}},{"type":"Feature","properties":{"name":"Rayagada","district":"Rayagada","severity":null,"source":"OSDMA"},"geometry":{"type":"Polygon","coordinates":[[[83.478,19.955],[83.555,19.922],[83.521,19.871],[83.522,19.851],[83.582,19.816],[83.595,19.826],[83.612,19.809],[83.615,19.771],[83.603,19.748],[83.621,19.736],[83.637,19.697],[83.63,19.666],[83.642,19.651],[83.687,19.681],[83.733,19.648],[83.756,19.673],[83.762,19.706],[83.801,19.71],[83.836,19.703],[83.867,19.667],[83.925,19.67],[83.931,19.662],[83.919,19.656],[83.936,19.628],[83.92,19.623],[83.927,19.564],[83.937,19.543],[83.97,19.523],[83.953,19.492],[83.971,19.478],[83.937,19.412],[83.94,19.39],[84.01,19.366],[84.023,19.338],[84.004,19.243],[83.976,19.201],[83.991,19.18],[83.977,19.153],[84.025,19.123],[84.007,19.119],[84.006,19.085],[84.023,19.045],[83.964,19.057],[83.958,19.036],[83.98,19.012],[83.951,18.978],[83.906,19.009],[83.89,18.975],[83.855,18.971],[83.807,19.023],[83.776,19.009],[83.74,18.978],[83.75,18.944],[83.777,18.919],[83.771,18.901],[83.742,18.923],[83.726,18.976],[83.706,18.985],[83.705,18.999],[83.723,19.012],[83.697,19.016],[83.623,19.154],[83.594,19.12],[83.604,19.088],[83.584,19.08],[83.579,19.05],[83.558,19.051],[83.555,19.078],[83.546,19.074],[83.552,19.047],[83.531,19.005],[83.495,19.011],[83.494,19.027],[83.514,19.025],[83.505,19.065],[83.494,19.053],[83.473,19.078],[83.459,19.07],[83.478,19.021],[83.475,19],[83.449,19],[83.462,18.964],[83.451,18.944],[83.409,18.98],[83.409,18.996],[83.367,18.994],[83.341,19.009],[83.356,19.038],[83.337,19.047],[83.333,19.094],[83.292,19.114],[83.28,19.107],[83.278,19.117],[83.255,19.062],[83.259,19.042],[83.231,19.016],[83.234,18.965],[83.196,18.97],[83.182,19.007],[83.187,19.067],[83.181,19.085],[83.169,19.084],[83.2,19.123],[83.236,19.119],[83.252,19.157],[83.194,19.16],[83.197,19.142],[83.182,19.139],[83.193,19.125],[83.173,19.105],[83.161,19.114],[83.176,19.137],[83.153,19.116],[83.13,19.129],[83.123,19.086],[83.096,19.104],[83.068,19.074],[83.056,19.037],[83.015,19.057],[83.021,19.079],[82.976,19.126],[82.972,19.167],[82.943,19.148],[82.897,19.152],[82.871,19.177],[82.894,19.223],[82.883,19.247],[82.897,19.278],[82.95,19.318],[82.945,19.384],[82.917,19.429],[82.932,19.443],[82.953,19.431],[82.984,19.441],[82.986,19.484],[83.019,19.506],[83.031,19.546],[83.063,19.556],[83.081,19.534],[83.097,19.536],[83.102,19.503],[83.14,19.493],[83.152,19.479],[83.147,19.45],[83.175,19.417],[83.18,19.457],[83.211,19.429],[83.198,19.457],[83.221,19.497],[83.241,19.502],[83.26,19.594],[83.295,19.585],[83.348,19.599],[83.366,19.592],[83.379,19.661],[83.423,19.692],[83.448,19.734],[83.452,19.79],[83.433,19.796],[83.422,19.868],[83.4,19.914],[83.436,19.927],[83.445,19.967],[83.478,19.955]]]}},{"type":"Feature","properties":{"name":"Sambalpur","district":"Sambalpur","severity":"medium","source":"OSDMA"},"geometry":{"type":"Polygon","coordinates":[[[84.482,22.149],[84.49,22.095],[84.508,22.081],[84.507,22.05],[84.523,22.041],[84.504,22.016],[84.497,21.967],[84.501,21.957],[84.522,21.97],[84.514,21.942],[84.524,21.924],[84.489,21.904],[84.525,21.879],[84.532,21.857],[84.522,21.81],[84.562,21.784],[84.552,21.763],[84.587,21.754],[84.648,21.763],[84.674,21.743],[84.672,21.732],[84.632,21.736],[84.633,21.703],[84.621,21.694],[84.572,21.699],[84.54,21.676],[84.499,21.678],[84.485,21.637],[84.521,21.621],[84.568,21.571],[84.538,21.579],[84.538,21.568],[84.505,21.558],[84.479,21.51],[84.496,21.494],[84.473,21.479],[84.485,21.472],[84.487,21.443],[84.476,21.391],[84.494,21.361],[84.495,21.374],[84.543,21.37],[84.564,21.319],[84.564,21.249],[84.626,21.274],[84.659,21.31],[84.685,21.318],[84.729,21.298],[84.766,21.25],[84.755,21.222],[84.738,21.23],[84.718,21.215],[84.716,21.204],[84.742,21.179],[84.739,21.166],[84.719,21.144],[84.679,21.144],[84.664,21.09],[84.677,21.059],[84.645,21.079],[84.583,21.059],[84.529,21.084],[84.478,21.078],[84.435,21.03],[84.404,21.026],[84.429,21.009],[84.366,20.95],[84.325,20.947],[84.268,20.919],[84.235,20.921],[84.188,20.972],[84.154,20.971],[84.141,21.031],[84.013,21.051],[83.984,21.075],[83.979,21.13],[83.888,21.174],[83.906,21.242],[83.885,21.293],[83.871,21.29],[83.865,21.307],[83.874,21.386],[83.843,21.406],[83.88,21.435],[83.84,21.524],[83.808,21.536],[83.793,21.563],[83.816,21.591],[83.887,21.57],[83.967,21.574],[83.966,21.705],[83.937,21.724],[83.963,21.763],[83.984,21.749],[84.008,21.783],[84.032,21.756],[84.108,21.786],[84.183,21.751],[84.241,21.765],[84.28,21.759],[84.37,21.951],[84.369,21.971],[84.386,21.989],[84.382,22.021],[84.351,22.033],[84.293,22.031],[84.283,22.014],[84.263,22.011],[84.261,22.101],[84.271,22.118],[84.319,22.122],[84.471,22.186],[84.482,22.149]]]}},{"type":"Feature","properties":{"name":"Sonepur","district":"Sonepur","severity":"medium","source":"OSDMA"},"geometry":{"type":"Polygon","coordinates":[[[83.979,21.13],[83.992,21.067],[84.041,21.04],[84.064,21.046],[84.141,21.031],[84.154,20.971],[84.188,20.972],[84.235,20.921],[84.276,20.922],[84.261,20.884],[84.211,20.897],[84.106,20.841],[84.048,20.823],[83.934,20.836],[83.892,20.811],[83.838,20.819],[83.774,20.794],[83.756,20.77],[83.752,20.711],[83.712,20.635],[83.728,20.617],[83.724,20.601],[83.682,20.556],[83.599,20.525],[83.588,20.537],[83.589,20.599],[83.615,20.626],[83.671,20.737],[83.646,20.747],[83.649,20.768],[83.63,20.767],[83.629,20.792],[83.59,20.798],[83.59,20.818],[83.617,20.811],[83.618,20.822],[83.567,20.848],[83.573,20.869],[83.614,20.899],[83.604,20.929],[83.635,20.976],[83.568,20.971],[83.464,20.994],[83.444,21.015],[83.452,21.051],[83.492,21.038],[83.491,21.058],[83.545,21.073],[83.607,21.125],[83.711,21.117],[83.763,21.151],[83.778,21.148],[83.793,21.112],[83.838,21.093],[83.888,21.174],[83.979,21.13]]]}},{"type":"Feature","properties":{"name":"Sundargarh","district":"Sundargarh","severity":"medium","source":"OSDMA"},"geometry":{"type":"Polygon","coordinates":[[[84.003,22.521],[84.058,22.51],[84.106,22.474],[84.135,22.471],[84.136,22.421],[84.152,22.401],[84.194,22.372],[84.247,22.374],[84.289,22.337],[84.426,22.349],[84.427,22.365],[84.448,22.379],[84.478,22.384],[84.477,22.406],[84.527,22.42],[84.632,22.429],[84.662,22.414],[84.744,22.415],[84.753,22.442],[84.808,22.447],[84.813,22.432],[84.833,22.426],[84.877,22.443],[84.88,22.418],[84.894,22.418],[84.947,22.451],[84.955,22.439],[85.033,22.477],[85.062,22.478],[85.074,22.467],[85.057,22.445],[85.083,22.378],[85.074,22.349],[85.093,22.341],[85.088,22.314],[85.114,22.314],[85.114,22.29],[85.071,22.272],[85.069,22.231],[85.048,22.174],[85.025,22.154],[85.024,22.112],[84.98,22.085],[85.002,22.08],[85.02,22.103],[85.044,22.111],[85.095,22.099],[85.119,22.066],[85.156,22.07],[85.167,22.049],[85.164,22.065],[85.177,22.067],[85.211,22.043],[85.215,22.011],[85.269,21.956],[85.366,21.933],[85.371,21.906],[85.354,21.848],[85.338,21.823],[85.311,21.815],[85.279,21.832],[85.238,21.799],[85.225,21.818],[85.198,21.764],[85.209,21.737],[85.181,21.704],[85.188,21.659],[85.178,21.642],[85.191,21.636],[85.144,21.59],[85.082,21.599],[85.046,21.585],[85.03,21.602],[85.021,21.667],[84.994,21.678],[84.974,21.669],[84.954,21.679],[84.936,21.656],[84.911,21.666],[84.859,21.648],[84.787,21.664],[84.787,21.628],[84.753,21.621],[84.743,21.677],[84.714,21.711],[84.691,21.703],[84.665,21.755],[84.552,21.763],[84.562,21.784],[84.522,21.81],[84.532,21.857],[84.525,21.879],[84.489,21.904],[84.524,21.924],[84.514,21.942],[84.522,21.97],[84.501,21.957],[84.497,21.967],[84.504,22.016],[84.523,22.041],[84.507,22.05],[84.508,22.081],[84.49,22.095],[84.471,22.186],[84.319,22.122],[84.271,22.118],[84.261,22.101],[84.262,22.004],[84.226,21.972],[84.114,22.008],[84.103,21.99],[84.066,21.987],[84.083,21.964],[84.072,21.934],[84.022,21.95],[83.974,21.903],[83.954,21.938],[83.89,21.943],[83.874,21.921],[83.847,21.92],[83.858,21.908],[83.828,21.893],[83.823,21.875],[83.81,21.88],[83.807,21.852],[83.794,21.866],[83.776,21.853],[83.715,21.783],[83.636,21.814],[83.623,21.846],[83.578,21.827],[83.586,21.848],[83.572,21.872],[83.6,21.911],[83.588,21.926],[83.553,21.932],[83.558,21.944],[83.535,21.964],[83.549,22.007],[83.532,22.034],[83.543,22.059],[83.584,22.055],[83.6,22.066],[83.559,22.104],[83.646,22.225],[83.693,22.246],[83.753,22.243],[83.794,22.288],[83.819,22.292],[83.825,22.32],[83.861,22.344],[83.897,22.34],[83.916,22.36],[84.004,22.368],[84.024,22.422],[84.04,22.433],[84.042,22.464],[83.976,22.502],[83.98,22.522],[84.003,22.521]]]}}]}